,Name,Address,Latitude,Longitude
0,"Dog Day Afternoon, Inc.","8235 1/2 SW 10th Ave, Topeka",39.049552399999996,-95.8129291
1,Frye's Auto Repair Inc,"1320 Southwest Auburn Road, Topeka",39.0426958,-95.8159045
2,Ball Custom Kitchens,"1431 Southwest Auburn Road, Topeka",39.040745,-95.81758559999999
3,"Home Pet Care Veterinary Housecalls, Dr. Tom Schmar","4536 Southwest Auburn Road, Topeka",38.9846946,-95.81539240000001
4,Dollar General,"1420 North Washington Street, Auburn",38.9130918,-95.81747270000001
5,Hook's Service,United States,38.9137815,-95.8162865
6,Auburn Feed Co,"8430 Southwest Auburn Road, Auburn",38.9127881,-95.81649920000001
7,Thompson's Fireworks,"7934 Southwest 10th Avenue, Topeka",39.050827000000005,-95.80641800000001
8,Greer House Antiques,"3015 Southwest Lagito Drive, Topeka",39.0111409,-95.8067635
9,Cambridge Kitchen & Bath,"2025 Southwest Urish Road Suite 110, Topeka",39.0295984,-95.7816304
10,Electronic Life,"2025 Southwest Urish Road #106, Topeka",39.0295451,-95.7815314
11,K & K Liquor,"2025 Southwest Urish Road, Topeka",39.029764799999995,-95.781548
12,Casey's,"6741 Southwest 21st Street, Topeka",39.0286447,-95.779577
13,Family Video,"6749 Southwest 29th Street, Topeka",39.014031,-95.780372
14,Redbox,"6829 Southwest 29th Street, Topeka",39.013600700000005,-95.7824115
15,Dillons Pharmacy,"6829 Southwest 29th Street, Topeka",39.01329399999999,-95.78262420000001
16,Jayhawk Pharmacy and Patient Supply,"2860 Southwest Mission Woods Drive, Topeka",39.01505150000001,-95.7786608
17,Dillons Food Store,"6829 Southwest 29th Street, Topeka",39.013608399999995,-95.78255970000001
18,Davis Electric Construction,"2850 Southwest Mission Woods Drive, Topeka",39.0153708,-95.77874840000001
19,"Robert Exon, RPh",Topeka,39.0150824,-95.7796541
20,Starbucks,"6829 Southwest 29th Street, Topeka",39.013577000000005,-95.782656
21,Jayhawk Custom Pharmacy,Topeka,39.015002200000005,-95.77946700000001
22,Adventist Book Center,"3440 Southwest Urish Road, Topeka",39.00576849999999,-95.7804151
23,Karnex USA,"7021 Southwest Queens Court #4645, Topeka",39.0057963,-95.7863859
24,Nancy Goodall Designs,"6747 Southwest Sherwood Court, Topeka",39.003904399999996,-95.780796
25,Mad Eliza's Cakes & Confections,Topeka,39.0016264,-95.7820887
26,Nomad Yarns,"6410 Southwest Murray Hill Road, Topeka",39.06505560000001,-95.774085
27,Menards,"6401 Southwest 17th Street, Topeka",39.03508749999999,-95.7714004
28,Lowe's Garden Center,"1621 Southwest Arvonia Place, Topeka",39.0376929,-95.7689668
29,Lowe's Home Improvement,"1621 Southwest Arvonia Place, Topeka",39.0375402,-95.7680397
30,Star bucks,"Southwest 17th Street, Topeka",39.0363353,-95.7706111
31,Phantom Fireworks Stand,"6401 Southwest 17th Street, Topeka",39.03460690000001,-95.7714618
32,Bedford Industries,"2424 Southwest Pepperwood Road, Topeka",39.0219827,-95.7693896
33,Wild Bird House,"2901 Southwest 29th Street, Topeka",39.0142492,-95.7759416
34,Sarre Side Studios,"Gewerbegebiet BAB1 Am Schaumberg, 66636 Theley",39.05785180000001,-95.764922
35,Tallgrass Pharmacy,"601 Southwest Corporate View, Topeka",39.0572807,-95.76719320000001
36,BREG - Kansas Brace Systems,"250, 1000, 6001 Southwest 6th Avenue, Topeka",39.0563049,-95.7627569
37,Protection 1 Security Solutions,"6301 Southwest 9th Street, Topeka",39.05264140000001,-95.76616870000001
38,Buy It Now Bargains,"6260 Southwest 9th Terrace suite c, Topeka",39.052311200000005,-95.76549320000001
39,BP,"1000 Southwest Wanamaker Road, Topeka",39.0505562,-95.7612714
40,Starbucks,"1223 Southwest Wanamaker Road #400, Topeka",39.044939,-95.762249
41,Quick Lane Tire & Auto Center,"1136 Southwest Wanamaker Road, Topeka",39.04552299999999,-95.76086600000001
42,DICK'S Sporting Goods,"5900 Southwest Huntoon Street, Topeka",39.0454763,-95.7584551
43,Sam's Club,"1401 Southwest Wanamaker Road, Topeka",39.04166419999999,-95.7639787
44,Canon Solutions America,"1131 Southwest Winding Road space f, Topeka",39.046884399999996,-95.7668158
45,JOANN Fabrics and Crafts,"1133 Southwest Wanamaker Road Ste 200, Topeka",39.04617390000001,-95.7640526
46,Academy Sports + Outdoors,"1133 Southwest Wanamaker Road #300, Topeka",39.04603350000001,-95.7642021
47,McAlister's Deli,"1129 Southwest Wanamaker Road B, Topeka",39.04681100000001,-95.762144
48,Sleep Number,"1191 Southwest Wanamaker Road Suite A, Topeka",39.0461251,-95.7621548
49,Factory Direct Appliance,"1040 Southwest Wanamaker Road, Topeka",39.04914249999999,-95.76063640000001
50,Vapor World - Topeka #1 | Kratom | CBD,"5900 Southwest Huntoon Street Suite C, Topeka",39.04623170000001,-95.7594725
51,Superior Sound Design,"1020 Southwest Wanamaker Road, Topeka",39.0501864,-95.7612744
52,Boot Barn,"5920 Southwest Huntoon Street, Topeka",39.044148,-95.759532
53,QDOBA Mexican Eats,"1025 Southwest Wanamaker Road Suite A, Topeka",39.049045299999996,-95.76227209999999
54,Haag Express,"1001 Southwest Wanamaker Road, Topeka",39.0502721,-95.7623738
55,Orscheln Farm & Home,"1133 Southwest Wanamaker Road #100, Topeka",39.04617390000001,-95.7640526
56,Sam's Club Hearing Aid Center,"1401 Southwest Wanamaker Road, Topeka",39.04149879999999,-95.7646251
57,Sam's Club Bakery,"1401 Southwest Wanamaker Road, Topeka",39.04149879999999,-95.7646251
58,Sam's Club Tire & Battery,"1401 Southwest Wanamaker Road, Topeka",39.04149879999999,-95.7646251
59,Best Buy,"1600 Southwest Wanamaker Road, Topeka",39.0376265,-95.7608742
60,Barnes & Noble,"6130 Southwest 17th Street, Topeka",39.03771709999999,-95.7645607
61,Zumiez,"1801 Southwest Wanamaker Road, Topeka",39.0327972,-95.7668741
62,ALDI,"1530 Southwest Arvonia Place, Topeka",39.0392027,-95.766416
63,Icing by Claire's,"1801 Southwest Wanamaker Road E 3, Topeka",39.03335409999999,-95.7665539
64,Topsy's Popcorn & Ice Cream,"1801 Southwest Wanamaker Road K14, Topeka",39.0336152,-95.7652743
65,Piercing Pagoda,"1801 SW Wanamaker ZK-7, Topeka",39.0328126,-95.7666757
66,Lids,"West Ridge Mall, 1801 Southwest Wanamaker Road, Topeka",39.03261249999999,-95.76684559999998
67,Custom Communications-Topeka Mall,"1801 Southwest Wanamaker Road, Topeka",39.03265529999999,-95.7663738
68,Extreme Christian Clothing,"1801 Southwest Wanamaker Road, Topeka",39.0326505,-95.76636620000001
69,JCPenney,"1821 Southwest Wanamaker Road, Topeka",39.0328446,-95.7657039
70,Street Corner,"1801 Southwest Wanamaker Road K1, Topeka",39.03338310000001,-95.7666209
71,Buckle,"1801 Sw Wanamaker Rd Ste A07b, Topeka",39.03265529999999,-95.7663738
72,Walmart Supercenter,"1501 Southwest Wanamaker Road, Topeka",39.0398354,-95.7646231
73,Rack Room Shoes,"1801 Southwest Wanamaker Road Suite A05, Topeka",39.031882,-95.76664570000001
74,CJ Banks,"1801 Southwest Wanamaker Road, Topeka",39.03265529999999,-95.7663738
75,Sunglass Hut,"1801 Southwest Wanamaker Road Ste C16, Topeka",39.0322965,-95.7663715
76,Petco,"1740 Southwest Wanamaker Road Suite 500, Topeka",39.0349164,-95.75861970000001
77,AT&T Store,"2201 Southwest Wanamaker Road Suite 100, Topeka",39.027224,-95.7629332
78,Lane Bryant,"2130 Southwest Wanamaker Road, Topeka",39.027414799999995,-95.75960040000001
79,Target,"2120 Southwest Wanamaker Road, Topeka",39.028363299999995,-95.7589902
80,Tuesday Morning - Closing Sale In Progress,"1930 Southwest Wanamaker Road Suite A1, Topeka",39.03145409999999,-95.76072990000002
81,Kansas Sampler Topeka,"5918 Southwest 21st Street, Topeka",39.0296014,-95.75889090000001
82,Garry Gribble's Running Sports - Topeka,"2130 Southwest Wanamaker Road, Topeka",39.027868700000006,-95.7596842
83,Journeys,"1801 Southwest Wanamaker Road g17, Topeka",39.0327507,-95.7664241
84,The UPS Store,"6021 Southwest 29th Street Ste A, Topeka",39.0142217,-95.7640987
85,The EyeDoctors Optometrists,"2800 Southwest Wanamaker Road, Topeka",39.01569550000001,-95.7615007
86,State Beauty Supply,"2800 Southwest Wanamaker Road STE 165, Topeka",39.0158192,-95.761247
87,Kansasland Tire & Service,"2855 Southwest Wanamaker Road, Topeka",39.0156673,-95.762909
88,CosmoProf,"2727 Southwest Wanamaker Road Ste 108, Topeka",39.016438,-95.76418309999998
89,Jenny Craig Weight Loss Center,"6021 Southwest 29th Street Ste. C, Topeka",39.01413839999999,-95.7642584
90,Ricoh USA Inc,"2655 Southwest Wanamaker Road, Topeka",39.018287,-95.76294
91,CVS Pharmacy,"2835 Southwest Wanamaker Road, Topeka",39.0154852,-95.7644487
92,CVS Photo,"2835 Southwest Wanamaker Road, Topeka",39.015431799999995,-95.7643001
93,Good Year,"2855 Southwest Wanamaker Road, Topeka",39.015533399999995,-95.7629479
94,The Happy Hut Hawaiian shave Ice,"6018 Southwest 29th Street #4268, Topeka",39.0147425,-95.7635686
95,Wheatland Pest Control,"2813 Southwest Westport Plaza Drive, Topeka",39.01551729999999,-95.7602525
96,Caribou Coffee,"2951 Southwest Wanamaker Road, Topeka",39.0125475,-95.7640287
97,Hy-Vee Floral,"2951 Southwest Wanamaker Road, Topeka",39.0125547,-95.7637837
98,Redbox,"2951 Southwest Wanamaker Road, Topeka",39.01253,-95.7634171
99,Hy-Vee,"2951 Southwest Wanamaker Road, Topeka",39.01251500000001,-95.76383
100,Hy-Vee Pharmacy,Topeka,39.012242500000006,-95.7640622
101,Starbucks,"3020 Southwest Wanamaker Road, Topeka",39.0128636,-95.7618884
102,Big O Tires,"2735 Southwest Wanamaker Road, Topeka",39.0165569,-95.7628602
103,craigandjason,"3024 Southwest Wanamaker Road, Topeka",39.01263309999999,-95.7610307
104,Hy-Vee Pharmacy,"2951 Southwest Wanamaker Road, Topeka",39.012534,-95.763822
105,Batteries Plus Bulbs,"6021 Southwest 29th Street suite d, Topeka",39.014219700000005,-95.7644928
106,McDonald's,"2933 Southwest Wanamaker Road, Topeka",39.01353599999999,-95.76277420000001
107,Vapor World - Topeka #2 | Kratom | CBD,"2919 Southwest Wanamaker Drive Suite F, Topeka",39.0135817,-95.7647042
108,Hy-Vee Gas,"6011 Southwest 29th Street, Topeka",39.014047,-95.763635
109,QBK Inc,"6032 Southwest 29th Street, Topeka",39.014456,-95.7634444
110,CVS,"2835 Southwest Wanamaker Road, Topeka",39.0153787,-95.7643581
111,BP,"5977 Southwest 29th Street, Topeka",39.01426999999999,-95.761836
112,The GTM Rack Sportswear Outlet,"5967 Southwest 29th Street, Topeka",39.0141984,-95.7609863
113,Walgreens,"3630 Southwest Wanamaker Road, Topeka",39.00058409999999,-95.76155370000001
114,"Bryan K. Shultz, RPh","3630 Southwest Wanamaker Road, Topeka",39.0006756,-95.7613946
115,Kansas Beef Council,"6031 Southwest 37th Street, Topeka",38.999713,-95.764285
116,Pedal Pad,"6033 Southwest 39th Street, Topeka",38.99597850000001,-95.764032
117,Redbox,"3630 Southwest Wanamaker Road, Topeka",39.00058689999999,-95.7616515
118,Walgreens Pharmacy,"3630 Southwest Wanamaker Road, Topeka",39.0005557,-95.7615493
119,Walgreens Photo,"3630 Southwest Wanamaker Road, Topeka",39.0005511,-95.76154050000001
120,Exceptions Studios,"4042 Southwest Wanamaker Road #1348, Topeka",38.993173999999996,-95.7617238
121,The Magical Sisters,"4301 Southwest Shenandoah Road, Topeka",38.98904520000001,-95.7667681
122,RP Sports,"5715 Northwest 35th Street, Topeka",39.10858700000001,-95.75575490000001
123,The Home Depot,"5900 Southwest Huntoon Street, Topeka",39.045042200000005,-95.7583185
124,Pro Desk at The Home Depot,"5900 Southwest Huntoon Street, Topeka",39.045086,-95.7583916
125,Garden Center at The Home Depot,"5900 Southwest Huntoon Street, Topeka",39.0444377,-95.7584689
126,John Burke Rare Coins,"1025 Southwest Wanamaker Road C, Topeka",39.048945399999994,-95.76227220000001
127,Freddy's Frozen Custard & Steakburgers,"1050 Southwest Wanamaker Road, Topeka",39.0486456,-95.7609168
128,Cracker Barrel Old Country Store,"1421 S West, Southwest Ashworth Place, Topeka",39.04088899999999,-95.75842
129,Bernardi Post Beverly,"5938 Southwest 17th Street, Topeka",39.0370005,-95.75997790000001
130,Walmart Vision & Glasses,"1501 Southwest Wanamaker Road, Topeka",39.039818800000006,-95.7645465
131,Panera Bread,"1421 Southwest Wanamaker Road, Topeka",39.04092299999999,-95.762263
132,Hobby Lobby,"1900 Southwest Wanamaker Road, Topeka",39.033795399999995,-95.7597564
133,Murphy USA,"1531 Southwest Wanamaker Road, Topeka",39.03850599999999,-95.7624009
134,Walmart Photo Center,"1501 Southwest Wanamaker Road, Topeka",39.039818800000006,-95.7645465
135,Orange Leaf Frozen Yogurt,"1570 Southwest Wanamaker Road, Topeka",39.03821029999999,-95.76056120000001
136,GameStop,"1725 Southwest Wanamaker Road, Topeka",39.035354299999995,-95.76248120000001
137,Redbox,"1501 Southwest Wanamaker Road, Topeka",39.0399689,-95.7641569
138,Walmart Deli,Topeka,39.0399016,-95.76391640000001
139,ecoATM,"1501 Southwest Wanamaker Road, Topeka",39.0395096,-95.76437990000001
140,NAPA Auto Parts - Finlay Automotive Supply - Topeka West,"2121 Southwest Westport Drive, Topeka",39.02812720000001,-95.75675820000001
141,Fine Design Studio,"2109 Southwest Belle Avenue, Topeka",39.0287304,-95.7509199
142,Verizon,"1920 Southwest Wanamaker Road, Topeka",39.03233779999999,-95.7614954
143,Michaels,"2040 Southwest Wanamaker Road, Topeka",39.02968449999999,-95.7610068
144,Beauty Brands,"5820 Southwest 21st Street, Topeka",39.029587,-95.75586700000001
145,Cirilla's,"5800 Southwest 21st Street, Topeka",39.0297521,-95.75303259999998
146,Pier 1,"1930 Southwest Wanamaker Road, Topeka",39.030175,-95.7608351
147,Brown's Shoe Fit Co,"1920 Southwest Wanamaker Road # 150, Topeka",39.0323939,-95.7615156
148,Sherwin-Williams Paint Store,"5930 Southwest 19th Terrace ste b, Topeka",39.032291,-95.760848
149,FASTSIGNS,"5999 Southwest 22nd Park, Topeka",39.025720299999996,-95.7618443
150,Yert Organization,"5981 Southwest 22nd Park #35, Topeka",39.025467,-95.76146999999999
151,Men's Wearhouse,"1920 Southwest Wanamaker Road Suite 100, Topeka",39.0325852,-95.7615044
152,i.h.s. salon (indian hills styling salon),"5642 Southwest 29th Street, Topeka",39.0149566,-95.7517851
153,Grog's Games and Play Space,"5648 Southwest 29th Street, Topeka",39.015375,-95.75167
154,Burney Van Stone Inc/officesthatwork OFUSA,"5646 Southwest 29th Street, Topeka",39.014619200000006,-95.7514352
155,Mattress By Appointment,"5624 Southwest 29th Street, Topeka",39.015176000000004,-95.750677
156,FINICKY,"5618 Southwest 29th Street, Topeka",39.0146037,-95.7510776
157,Sheridan's Frozen Custard,"5937 Southwest 29th Street, Topeka",39.014199,-95.75963
158,Kansas Beverage Association,"5845 Southwest 29th Street, Topeka",39.01397310000001,-95.75690340000001
159,Bigger Bullets LLC,"5652 Southwest 35th Street, Topeka",39.00324789999999,-95.7556622
160,Topeka 4D Ultrasound,"2930 Southwest Wanamaker Drive #6, Topeka",39.0134925,-95.7574446
161,Beltone Hearing Aid Center,"2919 Southwest Wanamaker Drive Ste K, Topeka",39.01455989999999,-95.7584157
162,Phoenix Home Care,"2945 Southwest Wanamaker Drive B, Topeka",39.013105700000004,-95.7580127
163,Preston Pharmacy,"2900 Southwest Wanamaker Drive, Topeka",39.014062,-95.7579959
164,Breathe Oxygen & Medical Supply,"5967 Southwest 29th Street #260, Topeka",39.014278499999996,-95.7606705
165,Cambridge Quartz & Granite,"5967 Southwest 29th Street, Topeka",39.01422379999999,-95.7608834
166,Kan You Say Oh Yum,"5745 Southwest 69th Street, Auburn",38.9419555,-95.7570257
167,Merfish United,"3814, 5111 U.S. 24, Topeka",39.089980100000005,-95.7435278
168,Holmes Drywall Supply,"2330 Northwest Menoken Road, Topeka",39.089696,-95.745737
169,Oldcastle Infrastructure (formerly Oldcastle Precast),"5230 Northwest 17th Street, Topeka",39.082034,-95.74463
170,Le Petit Bon Bon,"835 Southwest Fairlawn Road, Topeka",39.053254300000006,-95.7437105
171,Rustic Creations,"839 Southwest Fairlawn Road, Topeka",39.053079,-95.7437679
172,Reeb's Retail Liquor,"901 Southwest Fairlawn Road, Topeka",39.0527563,-95.7437236
173,Amoco,"600 Southwest Fairlawn Road, Topeka",39.0579059,-95.74287109999999
174,Cole Vehicle,"701 Southwest Fairlawn Road, Topeka",39.0566488,-95.7434833
175,In A Pinch Convenience,"706 Southwest Fairlawn Road, Topeka",39.0563707,-95.7427801
176,FAIRLAWN EXPRESS,"706 Southwest Fairlawn Road, Topeka",39.05637649999999,-95.74271910000002
177,DeVader's Pools & Spas Inc,"841 Southwest Fairlawn Road, Topeka",39.05297090000001,-95.7437802
178,Bedsprings and Burlap,"837 Southwest Fairlawn Road, Topeka",39.053158399999994,-95.7437596
179,Payless Smokes: CBD & KRATOM,"901 Southwest Fairlawn Road # 161, Topeka",39.0527003,-95.7437231
180,Top Line Vapors : CBD & KRATOM,"923 Southwest Fairlawn Road ste 131, Topeka",39.0519218,-95.7437643
181,Ruth's Floral Designs,"923 Southwest Fairlawn Road, Topeka",39.0519218,-95.7437643
182,Personally Yours,"923 Southwest Fairlawn Road, Topeka",39.0519218,-95.7437643
183,T Shirts Etc,"923 Southwest Fairlawn Road, Topeka",39.0519005,-95.74378490000001
184,Dollar General,"1001 Southwest Fairlawn Road, Topeka",39.050543,-95.743894
185,kress diecast,"4616 Southwest 10th Avenue, Topeka",39.05153,-95.741231
186,Creative Memories Consultants,"1428 Southwest Belle Avenue, Topeka",39.04147599999999,-95.745976
187,Stone House Animal Hospital,"1010 Southwest Fairlawn Road, Topeka",39.05064,-95.74272
188,SPRTAN SURF CO.,"1213 Southwest Glendale Drive Apt. E, Topeka",39.044585999999995,-95.75278
189,Live Music Institute,"5224 Southwest 17th Street, Topeka",39.03680500000001,-95.744778
190,Monograms Etc,"1901 Southwest Fairlawn Road, Topeka",39.032754,-95.7438875
191,Legacy Motor Company,"1617 Southwest Fairlawn Road, Topeka",39.03685419999999,-95.7438293
192,Inland Computer Systems,"5220 Southwest 17th Street, Topeka",39.037809700000004,-95.7443815
193,Scrapbooks Etc.,"5324 Southwest 17th Street, Topeka",39.03685,-95.745525
194,Top City Music,"5224 Southwest 17th Street, Topeka",39.03684990000001,-95.7449164
195,Footlights,"5332 Southwest 17th Street, Topeka",39.03660120000001,-95.7442374
196,"Spring Hill, KS","5701 Southwest Drury Lane, Topeka",39.039300700000005,-95.7507801
197,At&t,"1825 Southwest Fairlawn Road, Topeka",39.033266,-95.74376640000001
198,Walgreens,"2121 Southwest Fairlawn Road, Topeka",39.0282342,-95.7446758
199,Verizon Authorized Retailer - Russell Cellular,"5515 Southwest 21st Street STE B, Topeka",39.0284466,-95.7481786
200,Jacs Liquor,"5200 Southwest 21st Street, Topeka",39.029705,-95.744161
201,Sweet Baking & Candy Making Supply,"5331 Southwest 22nd Place, Topeka",39.0267815,-95.7466794
202,Redbox,"2121 Southwest Fairlawn Road, Topeka",39.028115500000006,-95.7443013
203,Redbox,"5311 Southwest 22nd Place, Topeka",39.0270135,-95.7442604
204,The Pink Suitcase,"5411 Southwest 21st Street, Topeka",39.0287396,-95.7470291
205,Red Door Home Store,"2131 Southwest Fairlawn Plaza Drive, Topeka",39.02759200000001,-95.746799
206,Cigna,"2114 Southwest Chelsea Drive, Topeka",39.0276954,-95.745705
207,MediaCom,"2114 Southwest Chelsea Drive, Topeka",39.0276954,-95.745705
208,Goodwill Topeka,"5515 Southwest 21st Street, Topeka",39.0283109,-95.7483634
209,The Hub of Topeka,"5335 Southwest 22nd Place, Topeka",39.0269185,-95.7466829
210,Firestone Complete Auto Care,"5320 Southwest 21st Street, Topeka",39.0297592,-95.7454197
211,God's Storehouse and Judee's Coffee,"2111 Southwest Chelsea Drive, Topeka",39.0282402,-95.7492142
212,ecoATM,"5311 Southwest 22nd Place, Topeka",39.026766200000004,-95.74497159999999
213,Professional Hearing Aid Associates,"5101 Southwest 21st Street, Topeka",39.029076,-95.741709
214,Starbucks,"5311 Southwest 22nd Place, Topeka",39.02691100000001,-95.74457199999999
215,Long Lighting Studio,"2111 Southwest Belle Avenue, Topeka",39.0283345,-95.750941
216,Carpet One Floor & Home,"5131 Southwest 29th Street, Topeka",39.01419219999999,-95.7425711
217,O'Reilly Auto Parts,"5100 Southwest 29th Street, Topeka",39.0152367,-95.7415916
218,Pizagel's Pizza & Bakery,"2830 Southwest Fairlawn Road, Topeka",39.0152339,-95.7434052
219,Lebeda Mattress Factory,"5130 Southwest 29th Street, Topeka",39.0151502,-95.7429076
220,Haag Oil Co,"2836 Southwest Fairlawn Road, Topeka",39.01508,-95.743308
221,Golden Tuxedo,"2930 Southwest McClure Road, Topeka",39.013622999999995,-95.7466117
222,Toyota Parts - Lewis Toyota of Topeka Parts Store,"2951 Southwest Fairlawn Road, Topeka",39.0122152,-95.744793
223,Toyota Service - Lewis Toyota of Topeka Service Center,"2951 Southwest Fairlawn Road, Topeka",39.01199849999999,-95.74519000000001
224,The Steam Engine,"5660 Southwest 29th Street, Topeka",39.0150341,-95.7520608
225,Big Lots,"5121 Southwest 29th Street, Topeka",39.0139744,-95.7418558
226,Lewis Toyota of Topeka,"2951 Southwest Fairlawn Road, Topeka",39.012130299999995,-95.7447686
227,Crown Trophy,"5614 Southwest 29th Street, Topeka",39.0146107,-95.75100490000001
228,Countertop Shoppe,"5501 Southwest 29th Street, Topeka",39.013883299999996,-95.74831929999999
229,Meyer's Wine & Spirits,"5610 Southwest 29th Street, Topeka",39.01497519999999,-95.7505421
230,Westlake Ace Hardware,"5001 Southwest 29th Street, Topeka",39.0137675,-95.7405495
231,All Seasons Pest Control LLC,"5212 Southwest 33rd Street, Topeka",39.0081363,-95.74473520000001
232,Currus,"3512 Southwest Fairlawn Road #300, Topeka",39.0036485,-95.7431905
233,Kansas Book Festival,"5431 Southwest 29th Street #300, Topeka",39.0138406,-95.74719870000001
234,John's Sewing Machine Repair,"5003 Southwest 29th Street, Topeka",39.013958,-95.7410556
235,Foust Fleet Leasing,"5600 Southwest 29th Street, Topeka",39.015046500000004,-95.7499345
236,Winston Brown Remodeling,"5600 Southwest 29th Street, Topeka",39.015122999999996,-95.749893
237,US Foods Topeka,"4725 NW, U.S. 24, Topeka",39.0890137,-95.7368189
238,Wingfoot Commercial Tire Systems,"4431 U.S. 24, Topeka",39.0881727,-95.7321024
239,Jake's Fireworks,"4444 Northwest 17th Street, Topeka",39.0832743,-95.7335026
240,Goodyear Commercial Tire & Service Centers,"4431 NW, U.S. 24, Topeka",39.0878486,-95.7315063
241,Go Modern,"1401 Northwest Moundview Drive ste b, Topeka",39.0770582,-95.7280312
242,Skinner Garden Store Inc.,"4237 Northwest Lower Silver Lake Road, Topeka",39.0801814,-95.7286948
243,Hummert International,"1415 Northwest Moundview Drive, Topeka",39.078218299999996,-95.7276382
244,Praxair Welding Gas and Supply Store,"1435 Northwest Moundview Drive, Topeka",39.0792028,-95.7275187
245,CapitalHandyman eBay Sales and Consignment,"4316 Southwest Holly Lane, Topeka",39.037839500000004,-95.7299633
246,Baskin-Robbins,"4400 Southwest 21st Street, Topeka",39.030025200000004,-95.73065720000001
247,GoBlue - Printing and Apparel,"4545 Southwest 21st Street, Topeka",39.029157399999995,-95.7329455
248,"Wheatland Inspections Plus, LLC","2341 Southwest Winterwood Lane #1, Topeka",39.0242162,-95.735834
249,Apollo Homecare Kansas,"4410 Southwest 21st Street, Topeka",39.029772799999996,-95.7310374
250,Goodcents Deli Fresh Subs,"4210 Southwest 21st Street, Topeka",39.029675,-95.72848
251,Carquest Auto Parts,"4200 Southwest 21st Street, Topeka",39.02974119999999,-95.7280777
252,Goodyear Auto Service,"5140 Southwest 21st Street, Topeka",39.0296095,-95.7430873
253,Dillons Pharmacy,"5311 Southwest 22nd Place, Topeka",39.02684929999999,-95.7441318
254,Devlins Wine & Spirits,"4301 Southwest 21st Street #103, Topeka",39.0290152,-95.72918359999998
255,Prodigy Pros Auto Detailing,"2539 Southwest Valley Brook Lane, Topeka",39.020787,-95.73606059999999
256,Bodine's Pest Control,"2525 Southwest Sunset Road, Topeka",39.021618700000005,-95.73804240000001
257,Amoco,"2836 Southwest Fairlawn Road, Topeka",39.015139000000005,-95.74334
258,PT's at Wheatfield Village,"2811 Southwest Fairlawn Road ste c, Topeka",39.016342200000004,-95.74425809999998
259,Lynn's Liquors - 17% off Wedding Reception Wine & Liquor,"3335 Southwest Gage Boulevard, Topeka",39.0068699,-95.7307947
260,BP,"3120 Southwest Gage Boulevard, Topeka",39.010496,-95.728436
261,Traveling the Vortex Studios,"3731 Southwest Moundview Court, Topeka",38.999075,-95.729842
262,Vern's Retail Liquor,"3700 Southwest Gage Boulevard, Topeka",38.9999049,-95.729487
263,Green Pest Solutions,"4100 Southwest 40th Street, Topeka",38.994874200000005,-95.7311921
264,Advanced Coatings Inc,"4736 Southwest Gage Boulevard, Topeka",38.980944799999996,-95.72966070000001
265,PETABLE FRIENDS,"4420 Southwest 61st Street, Topeka",38.95816490000001,-95.72940159999999
266,Midwest Small Engine Sales & Repair,"4145 Northwest 25th Street bldg c, Topeka",39.09421919999999,-95.72737120000001
267,The Milestone Market,"3935 Northwest 25th Street, Topeka",39.09437129999999,-95.7244907
268,Precision Wood Inc.,"4145 Northwest 25th Street # E, Topeka",39.09372200000001,-95.727396
269,Hoyt's Trailer Center,Topeka,39.097619200000004,-95.7186326
270,Flu Con,"2101 Northwest Brickyard Road, Topeka",39.087027899999995,-95.7256835
271,Love's Travel Stop,"1811 Northwest Brickyard Road, Topeka",39.0820838,-95.72590770000001
272,"Dealers Choice, A Beacon Roofing Supply Company","4008 Northwest 14th Street, Topeka",39.078099,-95.724679
273,"Ozark Integrated Pest Services, Inc","4103 Northwest 16th Street, Topeka",39.0793745,-95.7256043
274,Solid State Sonics-Elctro Inc,"4137 Northwest Lower Silver Lake Road, Topeka",39.0809928,-95.7273633
275,Boettcher Supply Inc.,"1540 Northwest Gage Boulevard # 1, Topeka",39.079169799999995,-95.72297270000001
276,Cash 4 Gold and Silver,"716 Unit C, Southwest Gage Boulevard, Topeka",39.0560215,-95.724408
277,Genoa Healthcare,"325 Southwest Frazier Avenue #210, Topeka",39.0620464,-95.72019250000001
278,iScreen Express,"708 Southwest Gage Boulevard, Topeka",39.05619280000001,-95.7243887
279,Roll Shutter Co of Topeka,Topeka,39.06093189999999,-95.7247169
280,Jayhawk Coins,"716 Southwest Gage Boulevard #D, Topeka",39.0560215,-95.724408
281,Jayhawk Collectibles,"716 Southwest Gage Boulevard, Topeka",39.0560215,-95.724408
282,Cash 4 Gold and Silver,"716 Southwest Gage Boulevard unit c, Topeka",39.0560215,-95.724408
283,Jayhawk Collectibles & Estate Services,"716 Southwest Gage Boulevard, Topeka",39.056018,-95.724322
284,Corwin Guitar Co.,"724 Southwest Gage Boulevard, Topeka",39.05562030000001,-95.72443929999999
285,Kansas Guitar Exchange,"730 Southwest Gage Boulevard, Topeka",39.055437,-95.724444
286,"Sydnee""s Entertainment","734 Southwest Gage Boulevard, Topeka",39.05523669999999,-95.72424790000001
287,The UPS Store,"4021 Southwest 10th Street, Topeka",39.04986660000001,-95.727288
288,Walgreens,"1001 Southwest Gage Boulevard, Topeka",39.05047279999999,-95.7257009
289,Dillons Food Store,"4015 Southwest 10th Avenue, Topeka",39.0506095,-95.727082
290,Family Eye Care Of Topeka,"1107 Southwest Gage Boulevard #200, Topeka",39.04851499999999,-95.72496740000001
291,Flowers Gifts Etc.,"4035 Southwest 10th Avenue, Topeka",39.0495856,-95.726897
292,ecoATM,"4015 Southwest 10th Avenue, Topeka",39.05045700000001,-95.7271652
293,Redbox,"4015 Southwest 10th Avenue, Topeka",39.050551500000005,-95.727067
294,Elite Tobacco & Vape,"4004 Southwest Huntoon Street, Topeka",39.04444000000001,-95.726147
295,Peerless Tires,"4214 Southwest Huntoon Street, Topeka",39.04427400000001,-95.728948
296,McDonald's,"1201 Southwest Gage Boulevard, Topeka",39.0453464,-95.7251899
297,Topeka Home Repair,"1430 Southwest Woodhull Street # 3843, Topeka",39.0415571,-95.7277205
298,Starbucks,"4015 Southwest 10th Street, Topeka",39.050484000000004,-95.727159
299,Sonic Drive-In,"1221 Southwest Gage Boulevard, Topeka",39.0443654,-95.7253545
300,Watkin's Liquor,"4006 Southwest Huntoon Street, Topeka",39.044316200000004,-95.7265333
301,Edible Arrangements,"1029 Southwest Gage Boulevard, Topeka",39.0499094,-95.7259156
302,Gage Animal Hospital,"4000 Southwest 12th Street, Topeka",39.045928499999995,-95.72614250000001
303,Herman's Meat & Smokehouse,"4211 Southwest Huntoon Street, Topeka",39.0437002,-95.7290057
304,Blackbird,"4025 Southwest 10th Avenue, Topeka",39.04985079999999,-95.7271385
305,"Phillip D. Hayes, RPH","1001 Southwest Gage Boulevard, Topeka",39.0504191,-95.7256218
306,"Trevor B. Potts, PharmD","1001 Southwest Gage Boulevard, Topeka",39.0504191,-95.7256218
307,Hewitt Motor Co,"1901 Southwest Gage Boulevard, Topeka",39.032924,-95.725312
308,Calhoun's Jewelers,"1801 Southwest Gage Boulevard, Topeka",39.034946999999995,-95.725371
309,Custenborder Florist,"1709 Southwest Gage Boulevard, Topeka",39.0360273,-95.7251703
310,Fine Line Tattoo,"1915 Southwest Gage Boulevard, Topeka",39.03246420000001,-95.72533940000001
311,Integrity Gun & Pawn,"1949 Southwest Gage Boulevard, Topeka",39.031286,-95.725844
312,Churchill's,"4025 Southwest Gage Center Drive, Topeka",39.04263400000001,-95.72686800000001
313,"Gatekeeper Hobbies, Comics, and Games","1917 Southwest Gage Boulevard, Topeka",39.032404799999995,-95.7256896
314,Heartland Wildlife Control,Topeka,39.0401557,-95.7247169
315,Madonna's Pearls,Topeka,39.0401557,-95.7247169
316,Medventures International,Topeka,39.0401557,-95.7247169
317,Kansas House Flipping,"1430 Southwest Woodhull Street # 3843, Topeka",39.0415571,-95.7277205
318,Dollar General,"1401 Southwest Gage Boulevard, Topeka",39.04176109999999,-95.7259098
319,Jan Davis Interiors,"SHOP AT HOME, 1403 Southwest Woodhull Street # 3704, Topeka",39.041659,-95.728238
320,Schlotzsky's,"2019 Southwest Gage Boulevard, Topeka",39.0305526,-95.7259309
321,Dunkin',"4009 Southwest 21st Street, Topeka",39.0291848,-95.72696280000001
322,CVS,"3901 Southwest 21st Street, Topeka",39.02893220000001,-95.7257459
323,CVS Pharmacy,"3901 Southwest 21st Street, Topeka",39.02894260000001,-95.7257445
324,CVS Photo,"3901 Southwest 21st Street, Topeka",39.0291224,-95.7256491
325,The Enchanted Willow,"2209 Southwest Gage Boulevard, Topeka",39.026921200000004,-95.72523309999998
326,Cricket Wireless Authorized Retailer,"2038 Southwest Gage Boulevard, Topeka",39.02987100000001,-95.724429
327,Juicy's Vapor Lounge Topeka West,"2013 Southwest Gage Boulevard, Topeka",39.03070400000001,-95.7258481
328,"Ashleigh L. Salyers, PharmD","2200 Southwest Gage Boulevard, Topeka",39.02612480000001,-95.7227736
329,"Kathryn Nelson, PharmD","2200 Southwest Gage Boulevard, Topeka",39.02612480000001,-95.7227736
330,"James E. Sterbenz, PharmD","2200 Southwest Gage Boulevard, Topeka",39.02612480000001,-95.7227736
331,"Mary R. Maceli, PharmD","2200 Southwest Gage Boulevard, Topeka",39.02612480000001,-95.7227736
332,"Matthew D. Lechtenberg, PharmD","2200 Southwest Gage Boulevard, Topeka",39.02612480000001,-95.7227736
333,Munns Medical Discount Store,"2814 Southwest Gage Boulevard, Topeka",39.0157359,-95.725027
334,Walgreens Photo,"3900 Southwest 29th Street, Topeka",39.015465899999995,-95.7266812
335,Walgreens,"3900 Southwest 29th Street, Topeka",39.01532909999999,-95.7265116
336,Drive Now Topeka,"3830 Southwest 29th Street Suite 1, Topeka",39.0152691,-95.7252862
337,CPAP Supplies & Services LLC,"2905 Southwest Gage Boulevard, Topeka",39.0144325,-95.7277608
338,Kansas Pest Control Association,"3601 Southwest 29th Street # 116B, Topeka",39.0145011,-95.72130859999999
339,Midwest Hearing Aids,"3300 Southwest 29th Street Ste 200, Topeka",39.01529540000001,-95.7188558
340,Western Associates Inc,"3601 Southwest 29th Street #123, Topeka",39.0145669,-95.721387
341,Felker Park Softball,"2540 Southwest Gage Boulevard, Topeka",39.02120499999999,-95.7227933
342,Sonic Drive-In,"3820 Southwest 29th Street, Topeka",39.01524439999999,-95.7249138
343,Dairy Queen Grill & Chill,"3320 Southwest 29th Street, Topeka",39.0153357,-95.7201299
344,"Allied Paints, INC","2818 Southwest Gage Boulevard, Topeka",39.0155742,-95.7251584
345,Redbox,"3900 Southwest 29th Street, Topeka",39.01549929999999,-95.7266879
346,Walgreens Pharmacy,"3900 Southwest 29th Street, Topeka",39.015476299999996,-95.7266745
347,Market Place Shopping Center,Topeka,39.0144431,-95.7225781
348,Sweet Adelines-Sunflower Hrmny,"3700 Southwest 38th Terrace, Topeka",38.9989779,-95.722898
349,Crystal Bandanas,"4419 Southwest Stone Avenue, Topeka",38.9870049,-95.7231128
350,Sound Origin Productions,"4333 Southwest Misty Harbor Avenue, Topeka",38.9881276,-95.7199993
351,Deans Pest Control Lc,"3212 River Court, Topeka",39.10455909999999,-95.71258409999999
352,"Waste Management - Topeka, KS Hauling","3611 Northwest 16th Street, Topeka",39.079487,-95.715185
353,Del Monte Pet Products,"3602 Northwest 16th Street, Topeka",39.08033999999999,-95.714273
354,Border States Electric,"1516 Northwest Saline Street #2837, Topeka",39.07932690000001,-95.7169845
355,MHC Kenworth - Topeka,"209 Northwest Macvictor Avenue, Topeka",39.06927080000001,-95.7089959
356,Genoa Healthcare,"330 Southwest Oakley Avenue, Topeka",39.0626369,-95.7147637
357,Dollar Tree,"2630 Southwest 6th Avenue, Topeka",39.05918039999999,-95.7086523
358,Walmart Pharmacy,"335 Southwest Macvicar Avenue, Topeka",39.059907200000005,-95.7085084
359,Jayhawk Patient Supply,"2620 Southwest 6th Avenue, Topeka",39.0590785,-95.70789930000001
360,Lardner Monuments,"3000 Southwest 10th Avenue, Topeka",39.051891999999995,-95.715075
361,Walmart Neighborhood Market,"335 Southwest Macvicar Avenue, Topeka",39.06,-95.7083333
362,Manning Music,"3400 Southwest 6th Avenue, Topeka",39.0588002,-95.7170727
363,Baker's Dozen 6th Street,"2601 Southwest 6th Avenue, Topeka",39.0583399,-95.7073852
364,CBD D & E Wellness LLC - Topeka,"3308 Southwest 6th Avenue, Topeka",39.05876049999999,-95.7159589
365,Luzier's Cosmetics Studio,"3219 Southwest 8th Avenue, Topeka",39.05470199999999,-95.7180967
366,"Sew Much Fun Topeka, KS","817 Southwest Oakley Avenue, Topeka",39.0541868,-95.71622370000001
367,Walmart Connection center,"Neighborhood Market #6585, 335 Southwest Macvicar Avenue, Topeka",39.0599445,-95.70843070000001
368,EcoATM,"335 Southwest Macvicar Avenue, Topeka",39.0599445,-95.70843070000001
369,Ash Boutique,"3123 Southwest Huntoon Street, Topeka",39.0438531,-95.7161629
370,Josey Baking Co.,"3119 Southwest Huntoon Street, Topeka",39.04379429999999,-95.71625390000001
371,Earthstar Recordings-Public,"1311 Southwest Campbell Avenue, Topeka",39.04309310000001,-95.7132215
372,Custom Quality Tile & More,"1044 Southwest Medford Avenue, Topeka",39.0496476,-95.7092911
373,Burney Van Stone Inc,"1298 Southwest Pembroke Lane, Topeka",39.04193049999999,-95.7163755
374,Patio Pool and Fireside,"3109 Southwest Huntoon Street, Topeka",39.04374110000001,-95.7158671
375,Porterfield's Flowers & Gift Shop,"3101 Southwest Huntoon Street, Topeka",39.0438152,-95.7155996
376,BCBookRestoration.com,"1200 Southwest Frazier Avenue, Topeka",39.045650200000004,-95.7198429
377,Soho Interiors,"3129 Southwest Huntoon Street, Topeka",39.043869,-95.71654620000001
378,Patio Furniture,"3105 Southwest Huntoon Street, Topeka",39.04378030000001,-95.7157997
379,Capper Foundation,"3500 Southwest 10th Avenue, Topeka",39.052038,-95.721508
380,Arby's,"1187 Southwest Gage Boulevard, Topeka",39.04607129999999,-95.72514220000001
381,"University Veterinary Care Center, P.A.","2619 Southwest 17th Street, Topeka",39.0367514,-95.7106838
382,Dairy Queen (Treat),"1700 Southwest Medford Avenue, Topeka",39.0367655,-95.7094064
383,Deyno,"2611 Southwest 17th Street, Topeka",39.0366204,-95.7103017
384,CBD American Shaman - Topeka,"2607 Southwest 21st Street, Topeka",39.029267,-95.7098543
385,"Brandi J. Johnson, PharmD","2200 Southwest Gage Boulevard, Topeka",39.02612480000001,-95.7227736
386,"Carly Efros, PharmD","2200 Southwest Gage Boulevard, Topeka",39.02612480000001,-95.7227736
387,Kwik Shop,"2619 Southwest 21st Street, Topeka",39.02930699999999,-95.71039
388,"Christine Scott, RPH","2200 Southwest Gage Boulevard, Topeka",39.02612480000001,-95.7227736
389,"April F. Berry, PharmD","2200 Southwest Gage Boulevard, Topeka",39.02612480000001,-95.7227736
390,"Katherine A. Case, RPH",Topeka,39.029193400000004,-95.7206449
391,"Traci L. Eddy, RPh","3401 Southwest 21st Street, Topeka",39.029193400000004,-95.7206449
392,Redbox,"2619 Southwest 21st Street, Topeka",39.029309600000005,-95.7107189
393,Grace Retail Liquor,Topeka,39.0293596,-95.7103686
394,Dillons Food Store,"2815 Southwest 29th Street, Topeka",39.014125899999996,-95.7131937
395,Redbox,"2815 Southwest 29th Street, Topeka",39.014298100000005,-95.7129671
396,South Wind Gallery,"3074 Southwest 29th Street, Topeka",39.0152099,-95.715852
397,The Tasteful Olive Topeka,"2900 Southwest Oakley Avenue, Topeka",39.014704200000004,-95.7157257
398,Stiching Traditions Quilt Shop,"2900 Southwest Oakley Avenue, Topeka",39.014388200000006,-95.71561700000001
399,Brookwood Shopping Center,"2709 Southwest 29th Street, Topeka",39.0144204,-95.7137121
400,Brookwood Retail Liquor,"2900 Southwest Oakley Avenue # D, Topeka",39.0146914,-95.7155393
401,Shorty Pantz,"3106 Southwest 29th Street, Topeka",39.0153484,-95.7165588
402,Game Central Entertainment,"2907 Southwest 29th Street, Topeka",39.0142543,-95.7146707
403,Wheatland Antique Mall,"2905 Southwest 29th Street Ste A, Topeka",39.0141516,-95.71443190000001
404,C2 Sea Scuba,"3124 Southwest 29th Street, Topeka",39.01528100000001,-95.716879
405,Linen Tree of Topeka,"2841 Southwest 29th Street, Topeka",39.014261100000006,-95.71422700000001
406,Dillons Pharmacy,"2815 Southwest 29th Street, Topeka",39.0141821,-95.71319640000002
407,Framewoods of Topeka Inc,"3074 Southwest 29th Street, Topeka",39.015288,-95.715861
408,Samson Xavier,"2928 Southwest 31st Court, Topeka",39.01276230000001,-95.7148293
409,Steve Clark's 1904 Stained,"3409 Southwest Randolph Avenue, Topeka",39.0067288,-95.71155870000001
410,"American Patriotic Supply, LLC","2910 Southwest Oakley Avenue Suite H, Topeka",39.0140121,-95.7156273
411,Prairie Trading Co,"2900 Southwest Oakley Avenue # M, Topeka",39.014511299999995,-95.7155236
412,SoulFire Nutrition,"2839 Southwest 29th Street Brookwood Shopping Center, Topeka",39.014050899999994,-95.7139113
413,CoffeeHead,"3101 Southwest 29th Street suite b, Topeka",39.0147103,-95.7166267
414,Cash for Cars,"3616 Southwest Oak Parkway, Topeka",39.002328000000006,-95.712681
415,Kevin Head Masonry,"4703 Southwest Burlingame Road, Topeka",38.9819934,-95.7110521
416,L & R Hardwood Floors Inc,"3035 Northwest Button Road, Topeka",39.100396999999994,-95.70655129999999
417,Kansasland Tire & Service,"2820 Northwest 25th Street, Topeka",39.095218200000005,-95.7035536
418,Goodyear Shelter House,"2501 Northwest Old Indianola Road, Topeka",39.09843480000001,-95.6980821
419,Heritage Tractor,"2701 U.S. 24, Topeka",39.089862,-95.70275
420,Cycle Zone Powersports,"2921 U.S. 24, Topeka",39.09010919999999,-95.7060218
421,"KanEquip, Inc.","2901 NW, U.S. 24, Topeka",39.0899396,-95.7039075
422,West Wood Floors,"112 Southwest Macvicar Avenue, Topeka",39.063669,-95.70615790000001
423,Botanica Agwe,"210 Northwest the Drive, Topeka",39.06598389999999,-95.70085590000001
424,Rundown Studios,"2515 Southwest 6th Avenue, Topeka",39.058463,-95.7067047
425,Harrison Family Motors,"2501 Southwest 6th Avenue, Topeka",39.0584718,-95.7064198
426,Evapeshop,"2517 Southwest 6th Avenue, Topeka",39.05846029999999,-95.7068161
427,csventures,"340 Southwest Lindenwood Avenue, Topeka",39.06041829999999,-95.6999809
428,Tradepost Tees - Tradepost Corporate Office,"2318 Southwest 10th Avenue, Topeka",39.051587899999994,-95.70692
429,Kwik Shop,"2520 Southwest 6th Avenue, Topeka",39.0590568,-95.7067048
430,Redbox,"2520 Southwest 6th Avenue, Topeka",39.059295,-95.706816
431,Walmart Bakery,"335 Southwest Macvicar Avenue, Topeka",39.0599126,-95.7083491
432,Redbox,"335 Southwest Macvicar Avenue, Topeka",39.0602614,-95.7083956
433,Benob's Market,"2013 Southwest 6th Avenue, Topeka",39.0583909,-95.69995990000001
434,Smv pharmacy,"998-900 Southwest Plass Avenue, Topeka",39.0520635,-95.70495340000001
435,Stormont Vail Retail Pharmacy,"2252 Southwest 10th Avenue Suite A, Topeka",39.05167000000001,-95.7053348
436,Einstein's Outdoor Outfitters,"1820 Southwest 10th Avenue, Topeka",39.051604,-95.700144
437,Walt's Auto Service Plus,"2201 Southwest 10th Avenue, Topeka",39.051123600000004,-95.7041912
438,Dollar General,"1920 Southwest 10th Avenue, Topeka",39.0518158,-95.7012349
439,AutoZone Auto Parts,"1920-A Southwest 10th Street, Topeka",39.0517015,-95.70160600000001
440,"Dr. Diana L. Carriger, Optometrist LLC","1001 Southwest Mulvane Street, Topeka",39.051212299999996,-95.6994896
441,Discount Smokes & Convenience,"2277 Southwest 10th Avenue, Topeka",39.051048,-95.705737
442,The Market at Macvicar,"2307 Southwest 10th Avenue, Topeka",39.05106759999999,-95.7065802
443,JennyMac's Gifts & More (Thirty-One Gifts),"1151 Southwest Jewell Avenue, Topeka",39.04755479999999,-95.70285720000001
444,MaxMotorSports,"1308 Southwest Plass Avenue, Topeka",39.04238699999999,-95.704248
445,Blooms On Boswell,"1300 Southwest Boswell Avenue, Topeka",39.042609000000006,-95.7015131
446,Zac Weichert Construction,"1510 Southwest Plass Avenue, Topeka",39.0394139,-95.7042918
447,That One House,"1934 Southwest Plass Avenue, Topeka",39.0369672,-95.70472600000001
448,Study Grounds,"1800 Southwest 19th Street, Topeka",39.033732,-95.70221109999999
449,Metro by T-Mobile,"2603 Southwest 21st Street Ste B, Topeka",39.02926110000001,-95.709726
450,Art Works of Bob Sell,"2119 Southwest Potomac Drive # 1, Topeka",39.028349799999994,-95.7022218
451,stand out Body oils,"2500 Southwest Shunga Drive, Topeka",39.0230903,-95.7089036
452,Golden Rule Remodeling,"2900 Southwest Macvicar Avenue, Topeka",39.0146625,-95.7060663
453,Kroger,United States,39.014321,-95.713125
454,"Randall A. Pohlenz, O.D. Doctor Of Optometry","2144 Southwest 36th Street, Topeka",39.0029016,-95.7053467
455,Burlingwood Optical,"2144 Southwest 36th Street, Topeka",39.0028852,-95.70534
456,Michael's Resurfacing LLC,"1645 Southwest 41st Street, Topeka",38.994792,-95.69924600000002
457,Great Plains Team,"3646 Southwest Plass Avenue, Topeka",39.001032,-95.703456
458,FedEx Ship Center,"1850 Southwest 42nd Street, Topeka",38.993764399999996,-95.7020725
459,Luminous Neon Art & Sign Systems,"1510 Southwest 41st Street, Topeka",38.99551040000001,-95.698133
460,Mommy & Me,"3703 Southwest Burlingame Road # 500, Topeka",39.00014559999999,-95.70710030000001
461,Carpet Plus,"1900 Southwest 41st Street, Topeka",38.995915600000004,-95.7027867
462,Brickhouse Antiques,"3711 Southwest Burlingame Road, Topeka",38.9999205,-95.7064016
463,Berry Tractor & Equipment Co,"1750 Southwest 41st Street, Topeka",38.9957848,-95.7006683
464,Avon/Representative,"3740 Southwest Park South Court #15, Topeka",38.9988557,-95.7033936
465,Ediger Hearing Aid Service,"3641 Southwest Plass Avenue, Topeka",39.001171,-95.7041953
466,Public Storage,"1850 Southwest 41st Street, Topeka",38.9955095,-95.70187840000001
467,Simply Sarah's Catering,"1518 Southwest 41st Street, Topeka",38.99571299999999,-95.698132
468,Personalized Gifts by Dallas,"1605 Southwest 37th Terrace, Topeka",39.000276899999996,-95.697601
469,Foley Equipment Engine and Truck,"1637 Southwest 42nd Street, Topeka",38.9921744,-95.69896130000001
470,Bimbo Baking Co.,"5005 Southwest Wenger Street, Topeka",38.97688160000001,-95.7001588
471,A-1 Plumbing Heating Cooling Electrical,"7440 Southwest Morrill Road, Topeka",38.9317524,-95.7048985
472,Jägermaster,"7114 Southwest Wheatfield Lane, Topeka",38.93793429999999,-95.698254
473,"ABC Supply Co., Inc.","2031 Nw, U.S. 24, Topeka",39.0896217,-95.6963012
474,Leighs Metaphysical Treasures,"2020 Northwest Lower Silver Lake Road, Topeka",39.081582,-95.695141
475,Johnson Storage & Moving Co,"1936 Northwest Lower Silver Lake Road, Topeka",39.081762299999994,-95.69362890000001
476,Insurance Salvage Co,"2240 Northwest Vail Avenue, Topeka",39.0903535,-95.6938502
477,Security Van Lines,"1936 Northwest Lower Silver Lake Road, Topeka",39.081762299999994,-95.69362890000001
478,"Jackson's Greenhouse & Garden Center, Inc.","1933 Northwest Lower Silver Lake Road, Topeka",39.07994309999999,-95.6935056
479,AlBo Glass,"433 Southwest Woodlawn Avenue, Topeka",39.059064,-95.6954819
480,Quick Stop,"1320 Southwest 6th Avenue, Topeka",39.05681080000001,-95.6913785
481,Quality Copy Service,"904 Southwest Mulvane Street, Topeka",39.052876,-95.6982652
482,Moore's Auto & Truck Service,"1600 Southwest 6th Avenue, Topeka",39.057657,-95.694678
483,Paradise Donuts,"1620 Southwest 6th Avenue, Topeka",39.057931200000006,-95.6953878
484,Optical Dispensing,"1616 Southwest 8th Avenue, Topeka",39.0546898,-95.6964884
485,G's Frozen Custard,"1301 Southwest 6th Avenue, Topeka",39.0560077,-95.6907141
486,Reno's Imports,"1221 Southwest 6th Avenue #1, Topeka",39.05581289999999,-95.6901733
487,Ruth's Floral Designs,"1500 Southwest 10th Avenue, Topeka",39.05260330000001,-95.6964703
488,Josh Superior Motors,"1200 Southwest 6th Avenue, Topeka",39.056312,-95.6890565
489,Charlie's Liquor,"1235 Southwest Huntoon Street, Topeka",39.04399,-95.694114
490,Protection Specialties,"1257 Southwest Garfield Avenue, Topeka",39.04357780000001,-95.6982002
491,Upholstery Professionals,"1411 Southwest 13th Street, Topeka",39.042302299999996,-95.69576500000001
492,Topeka Ear Nose & Throat,"920 Southwest Lane Street #200, Topeka",39.0513309,-95.693493
493,Bathroom Remodeling Pros,"1101 Southwest 8th Avenue, Topeka",39.0522755,-95.689193
494,Elite Construction and Remodeling,"1246 Southwest Lincoln Street, Topeka",39.043801,-95.69398000000001
495,Lincare,"1232 Southwest Lane Street, Topeka",39.044529600000004,-95.695358
496,PJ's Thrift and Gift,"1307 Southwest Huntoon Street, Topeka",39.0440412,-95.6947088
497,Huntoon Street Smoke Shop,"1237 Southwest Huntoon Street, Topeka",39.0441516,-95.694117
498,Central Tobacco,"1237 Southwest Huntoon Street, Topeka",39.0439903,-95.6941224
499,Daniels Family Values Appliance,"921 Southwest 10th Street, Topeka",39.048941799999994,-95.6885618
500,East Coast PFI,"1411 Southwest Byron Street, Topeka",39.0376638,-95.69475940000001
501,Boost Mobile,"1332 Southwest 17th Street, Topeka",39.03726040000001,-95.6955406
502,Steven's Firearms,"1700 Southwest Buchanan Street, Topeka",39.036719399999996,-95.6926314
503,Capitol City Pawn & Jewelry,"1634 Southwest Washburn Avenue, Topeka",39.0373934,-95.6963364
504,University Flowers,"1700 Southwest Washburn Avenue A, Topeka",39.0366348,-95.6963012
505,Kwik Shop,"1414 Southwest 17th Street, Topeka",39.03726470000001,-95.69627940000001
506,Snow For Smiles,"1307 Southwest Lincoln Street, Topeka",39.04213239999999,-95.6946772
507,Signs To Go,"1101 Southwest 17th Street, Topeka",39.036685,-95.6919434
508,Home improvement store,"1715 Southwest Clay Street, Topeka",39.0363586,-95.6917686
509,"FATCATOGC, LLC","1707 Southwest Central Park Avenue, Topeka",39.03654249999999,-95.6904943
510,Family Dollar,"1313 Southwest 21st Street, Topeka",39.029126700000006,-95.69475909999998
511,Discount Smoke,"1221 Southwest 21st Street #3065, Topeka",39.029228100000005,-95.6941339
512,Time Machine Records & More,"1501 Southwest 21st Street College of Arts and Sciences, Topeka",39.02919970000001,-95.6957023
513,Olympus Ink Tattoo,"1507 Southwest 21st Street #207E, Topeka",39.028284600000006,-95.6958163
514,Roach Hardware,"1321 Southwest 21st Street, Topeka",39.02909019999999,-95.6951198
515,Clinton Auto,"820 Southwest 21st Street, Topeka",39.029973299999995,-95.6885061
516,Washburn View Antique Mall,"1507 # Located behind Washburn Service Center, 109 Southwest 21st Street, Topeka",39.028339,-95.695821
517,Topeka Hookah House,"1507 Southwest 21st Street, Topeka",39.028364,-95.695714
518,Ol Mac Motors,"1201 Southwest 21st Street, Topeka",39.02936210000001,-95.69330240000001
519,College Hill Liquor Store,"1501 Southwest 21st Street #125, Topeka",39.0287953,-95.6957801
520,Washburn Auto Service Center,"2236 Southwest Washburn Avenue, Topeka",39.0279401,-95.6964553
521,R & D Sports Collectibles,Topeka,39.028993099999994,-95.6956845
522,A&J Daniels Family Values Appliance,"2024 Southwest Lincoln Street, Topeka",39.031499600000004,-95.69381390000001
523,Topeka Tire Company LLC,"1103 Southwest 21st Street, Topeka",39.0294404,-95.6919228
524,Sonic Drive-In,"2053 Southwest Western Avenue, Topeka",39.0302308,-95.6879681
525,Legacy Motor Company,"820 Southwest 21st Street, Topeka",39.0299729,-95.6885295
526,Tennis Shop,"2700 Southwest Buchanan Street # 1, Topeka",39.0218587,-95.69526579999999
527,Morrison Medical Sales,"2831 Southwest Burlingame Road, Topeka",39.01620659999999,-95.6976533
528,Army Charming,"2854 Southwest Burlingame Road, Topeka",39.0154799,-95.69641700000001
529,Capp's Bike Shop & Fitness,"2917 Southwest Topeka Boulevard, Topeka",39.013912899999994,-95.6893946
530,Dollar General,"3401 Southwest Topeka Boulevard, Topeka",39.0061451,-95.688523
531,Sherwin-Williams Paint Store,"3373 Southwest Topeka Boulevard, Topeka",39.00638730000001,-95.6885244
532,Gordmans,"3245 Southwest Topeka Boulevard, Topeka",39.00881510000001,-95.6906512
533,Owls Nest Topeka Antique Mall and Flea Market,"3411 Southwest Topeka Boulevard, Topeka",39.005762100000005,-95.6883796
534,Bullieskullzuniquelyuniversal,"1207 Southwest 32nd Street, Topeka",39.009915299999996,-95.69351800000001
535,Matryoshka,"918 N Kansas Ave, Topeka",39.008183700000004,-95.6917344
536,CarHop Auto Sales & Finance,"3225 Southwest Topeka Boulevard, Topeka",39.00950530000001,-95.6882738
537,McDonald's,"3117 South Topeka Avenue, Topeka",39.011244700000006,-95.6884495
538,AT&T Store,"3215 Southwest Topeka Boulevard, Topeka",39.00995,-95.68824000000001
539,Bradley Motors,"819 Southwest Croix Street, Topeka",39.0042934,-95.6889955
540,Walmart Supercenter,"1301 Southwest 37th Street, Topeka",38.9984741,-95.6937866
541,Ed Bozarth Chevrolet #1 Buick GMC Cadillac,"3731 Southwest Topeka Boulevard, Topeka",38.9988889,-95.6891667
542,U-Haul Moving & Storage of South Topeka,"3825 Southwest Topeka Boulevard, Topeka",38.99733169999999,-95.6888829
543,Redbox,"1301 Southwest 37th Street, Topeka",38.99826700000001,-95.69382540000001
544,Bimbo Baking Co,"4100 Southwest Martin Drive # 1, Topeka",38.9945371,-95.6965266
545,Patty's Retail Liquor,"3705 Southwest Plaza Drive, Topeka",39.0002032,-95.6920036
546,Walmart Bakery,"1301 Southwest 37th Street, Topeka",38.9988477,-95.6943546
547,Walmart Deli,Topeka,38.9980835,-95.6940179
548,ecoATM,"1301 Southwest 37th Street, Topeka",38.9982459,-95.69398620000001
549,Walmart Vision & Glasses,"1301 Southwest 37th Street, Topeka",38.9994451,-95.6937933
550,Walmart Garden Center,"1301 Southwest 37th Street, Topeka",38.9994451,-95.6937933
551,Power Prefab,"4140 Southwest Martin Drive, Topeka",38.99373029999999,-95.6962002
552,Firestone Complete Auto Care,"3701 Southwest Topeka Boulevard, Topeka",39.000274100000006,-95.68844909999999
553,Invisible Fence,Topeka,38.98427330000001,-95.6983979
554,Lindyspring Pure Quality Water,Topeka,38.98427330000001,-95.6983979
555,Kaman Industrial Technologies,"4225 Southwest Kirklawn Avenue, Topeka",38.988274600000004,-95.69340600000001
556,Little Lady Clothing Co.,"3412 Southeast Minnesota Avenue, Topeka",38.991442,-95.692087
557,DL Smith Electric,"1405 Southwest 41st Street, Topeka",38.994505700000005,-95.6959723
558,Wheeler's LLC Plumbing Heating & Cooling,"1609 Southwest 41st Street, Topeka",38.99511729999999,-95.6970976
559,Pomp's Tire Service,"1400 Southwest 41st Street, Topeka",38.9956204,-95.6956022
560,The Home Depot Rapid Deployment Center,"5200 Southwest Wenger Street, Topeka",38.9729945,-95.69715240000001
561,Interstate Batteries of Northern Kansas,"4831 Southwest Topeka Boulevard, Topeka",38.98012979999999,-95.6884251
562,Ace Motors,"5101 Southwest Topeka Boulevard, Topeka",38.9761074,-95.6883858
563,Boomtown Fireworks,"5007 Southwest Topeka Boulevard, Topeka",38.977165299999996,-95.6882621
564,Edwards Retail Liquor,"5341 Southwest Topeka Boulevard, Topeka",38.969584899999994,-95.6880694
565,Studio Furniture,"505 Southwest 57th Street, Topeka",38.9641481,-95.68954740000001
566,Charlie's Thrift-Venture,"5319 Southwest Topeka Boulevard, Topeka",38.9703846,-95.68828470000001
567,TJ's Express,"5305 Southwest Topeka Boulevard, Topeka",38.97123179999999,-95.688408
568,Amoco,"5305 Southwest Topeka Boulevard, Topeka",38.971243,-95.6880901
569,Medventures Inc,"7215 Southwest Topeka Boulevard, Topeka",38.9510224,-95.6903401
570,Premier Farm & Home,"900 Southwest University Boulevard, Topeka",38.951748200000004,-95.6929719
571,American Phoenix,"7215 Southwest Topeka Boulevard # 9, Topeka",38.9490864,-95.6913488
572,CapCityOutlet,"929 SW University Boulevard 2704-C2, Topeka",38.94637289999999,-95.6934661
573,Midwest Spec Racer,"7215 Southwest Topeka Boulevard # S110, Topeka",38.9510224,-95.6903401
574,Shawnee County Golf Maintenance Shop,"7010 Southwest Lincoln Street, Topeka",38.94049330000001,-95.69302590000001
575,International Paper Co,"7215 Southwest Topeka Boulevard # 4, Topeka",38.9427729,-95.6902521
576,Uboxes.com - Moving Boxes Kansas Center,"600 Southwest Capehart Road, Topeka",38.9406001,-95.6933983
577,Berry Material Handling,"1300 U.S. 24, Topeka",39.092115,-95.682457
578,"Meier Industries, LLC","1401 NW, U.S. 24, Topeka",39.0906626,-95.6803457
579,LDI - Lang Diesel Inc.,"1200 U.S. 24, Topeka",39.092187,-95.6812411
580,Rent-A-Center,"720 Southwest 6th Avenue, Topeka",39.0545765,-95.68289990000001
581,Motor Parts Co,"1015 Southwest 6th Avenue, Topeka",39.055105299999994,-95.6871162
582,Electronic Life,"1016 Southwest 6th Avenue, Topeka",39.05567480000001,-95.6870104
583,Cricket Wireless Authorized Retailer,"1104 Southwest 6th Avenue, Topeka",39.055735,-95.687875
584,Seamless Guttering of Kansas,"124 Northwest Western Avenue, Topeka",39.062468700000004,-95.6811167
585,Tilton's Westside Thriftway,"1100 Southwest 6th Avenue, Topeka",39.0556825,-95.6877882
586,Mister Thrifty,"605 Southwest 6th Avenue, Topeka",39.0534972,-95.68097900000001
587,Bates Used Appliances,"620 Southwest 6th Avenue, Topeka",39.0541534,-95.68133809999999
588,Continental Pharmacy,"821 Southwest 6th Avenue, Topeka",39.05432879999999,-95.6845339
589,Mystical Beyond,"710 Southwest Polk Street, Topeka",39.0519842,-95.68238609999999
590,Auto's Inc,"930 Southwest 6th Avenue, Topeka",39.0554438,-95.68560550000001
591,Pruitt Appliance Service Inc,"1022 Southwest 6th Avenue, Topeka",39.0555853,-95.68727690000001
592,Security Central,"1016 Southwest 6th Avenue, Topeka",39.05567480000001,-95.6870104
593,Kansas Audio Video,"1016 Southwest 6th Avenue, Topeka",39.05567480000001,-95.6870104
594,Adirondack Chairs Topeka,"1013 Southwest 6th Avenue #53, Topeka",39.0549191,-95.6871132
595,Walgreens,"1001 Southwest Topeka Boulevard, Topeka",39.047309399999996,-95.6824325
596,Redbox,"1001 Southwest Topeka Boulevard, Topeka",39.0473061,-95.6826692
597,Birthright of Topeka,"512 Southwest 7th Street, Topeka",39.0520951,-95.6803735
598,"Brenda S. Smith, PharmD","1001 Southwest Topeka Boulevard, Topeka",39.0473226,-95.68269440000002
599,"Angela R. Lindemuth-Mcdonald, PHARM","1001 Southwest Topeka Boulevard, Topeka",39.0473226,-95.68269440000002
600,"Kori Trussell, PharmD","1001 Southwest Topeka Boulevard, Topeka",39.0473226,-95.68269440000002
601,"Michael G. Gleue, RPH","1001 Southwest Topeka Boulevard, Topeka",39.0473226,-95.68269440000002
602,"Emily M. Cox, PharmD","1001 Southwest Topeka Boulevard, Topeka",39.0473226,-95.68269440000002
603,"Sarah A. Granger, RPH","1001 Southwest Topeka Boulevard, Topeka",39.0473226,-95.68269440000002
604,Drug Tax Stamp Purchases,"915 Southwest Harrison Street # 150, Topeka",39.048427600000004,-95.67962940000001
605,Capital City Nissan of Topeka,"1980 Southwest Topeka Boulevard, Topeka",39.033047100000005,-95.68249240000002
606,Advance Auto Parts,"1621 South Kansas Avenue, Topeka",39.0373716,-95.6794582
607,Reeves-Wiedeman Company,"1815 Southwest Western Avenue, Topeka",39.034813899999996,-95.68807790000001
608,Probulin,"1334 Southwest Topeka Boulevard, Topeka",39.04146670000001,-95.6825333
609,Musical Knights DJ,United States,39.0397435,-95.6799816
610,Pontiac-Cadillac Used Cars,"1900 Southwest Topeka Boulevard, Topeka",39.033978600000005,-95.6811488
611,Penske Truck Rental,"1620 South Kansas Avenue, Topeka",39.037445,-95.678566
612,"Dandy Deals 2nd Hand Store ""The Used Appliance Giant""","1801 South Kansas Avenue, Topeka",39.03547669999999,-95.67939240000001
613,Capital Belt & Supply Co,"1718 South Kansas Avenue, Topeka",39.0362919,-95.67857009999999
614,Dean's 1/2 Price Books,"1426 South Kansas Avenue, Topeka",39.039323100000004,-95.67819370000001
615,Performance Tire & Auto,"2000 Southwest Topeka Boulevard, Topeka",39.032499,-95.682424
616,Kansas Tire & Auto,"1634 Southwest Topeka Boulevard, Topeka",39.03748409999999,-95.6826331
617,Topeka Pilots,"1 Expocentre Drive, Topeka",39.0343793,-95.68650229999999
618,O'Reilly Auto Parts,"1701 South Kansas Avenue, Topeka",39.0364901,-95.6795143
619,Emde Music Shop,"1800 South Kansas Avenue, Topeka",39.0354222,-95.6787293
620,The Car Lounge,"1901 South Kansas Avenue, Topeka",39.033952899999996,-95.679453
621,Doug Richert Body Shop,"1900 Southwest Harrison Street, Topeka",39.0342013,-95.681596
622,Laird Noller Ford Topeka,"2245 Southwest Topeka Boulevard, Topeka",39.0281403,-95.6839636
623,Historic Harley-Davidson,"2047 Southwest Topeka Boulevard, Topeka",39.02996419999999,-95.6835114
624,Arrow Dynamics,"2041 Southwest Western Avenue, Topeka",39.0308333,-95.6877778
625,Certified Transmission,"2081 South Kansas Avenue, Topeka",39.0300333,-95.6798892
626,Family Dollar,"501 Southwest 21st Street, Topeka",39.029078000000005,-95.684082
627,RNR Tire Express & Custom Wheels,"2040 Southwest Topeka Boulevard, Topeka",39.031329,-95.682547
628,"Frieden Motors - Topeka, KS","2071 South Kansas Avenue, Topeka",39.030357,-95.679625
629,Sunflower Rents Inc,"2010 Southwest Topeka Boulevard, Topeka",39.032339799999995,-95.6824611
630,ALDI,"105 Southwest 29th Street, Topeka",39.01401970000001,-95.6827439
631,Jim Clark Auto World,"100 Southwest 29th Street, Topeka",39.01555359999999,-95.6824462
632,Vanderbilt's,"3021 Southwest Topeka Boulevard, Topeka",39.013406599999996,-95.6881348
633,Here We Grow Again Topeka,"115 Southwest 29th Street, Topeka",39.014179,-95.68317990000001
634,Solo Peru,"2855 South Kansas Avenue, Topeka",39.0163047,-95.68238609999999
635,Adventure Dental & Vision,"400 Southwest 29th Street, Topeka",39.0161722,-95.6858854
636,Network Computing Solutions (NCS),"108 Southeast 29th Street, Topeka",39.015621,-95.681009
637,Auto Now,"116 Southeast 29th Street, Topeka",39.01583370000001,-95.68021850000001
638,Hague Quality Water,"3111 Southwest Van Buren Street # 131, Topeka",39.012001299999994,-95.68471590000001
639,Trent's Auto World,"109 Southeast 29th Street, Topeka",39.014741,-95.680983
640,Paint Innovations,"2740 South Kansas Avenue, Topeka",39.020198,-95.679246
641,Noller Hyundai,"2920 South Kansas Avenue, Topeka",39.01418849999999,-95.6811111
642,Schlotzsky's,"400 Southwest 29th Street Z, Topeka",39.016167700000004,-95.6869783
643,Creative Signs & Design Inc.,"2910 South Kansas Avenue, Topeka",39.01416679999999,-95.6804543
644,Noller Topeka Mazda Parts,"2946 South Kansas Avenue, Topeka",39.01349719999999,-95.6812558
645,Advance Auto Parts,"3118 Southwest Topeka Boulevard, Topeka",39.01166449999999,-95.6868429
646,GNC,"400 Southwest 29th Street, Topeka",39.0161722,-95.6858854
647,Briggs Auto Direct,"3001 South Kansas Avenue, Topeka",39.01217279999999,-95.6831066
648,Capitol City Pawn & Jewelry,"3001 Southwest Topeka Boulevard, Topeka",39.0133376,-95.6887296
649,Murphy's Liquor Exchange,"400 Southwest 29th Street, Topeka",39.01611490000001,-95.6858974
650,NAPA Auto Parts - Finlay Automotive Supply - Topeka South,"3211 South Kansas Avenue, Topeka",39.008044700000006,-95.6825813
651,Cirilla's,"3330 Southwest Topeka Boulevard, Topeka",39.0059353,-95.6871531
652,Walgreens,"3696 Southwest Topeka Boulevard, Topeka",39.0014531,-95.6871129
653,JOHN HOFFER BODY SHOP,"3220 Southwest Topeka Boulevard, Topeka",39.010324,-95.686023
654,AutoStart Topeka,"3124 Southwest Topeka Boulevard, Topeka",39.010945899999996,-95.687003
655,Briggs Auto Group,Topeka,39.01131580000001,-95.6830498
656,Global Auto LLC,"3401 South Kansas Avenue, Topeka",39.0055556,-95.6825
657,Peerless Tires,"3519 Southwest Topeka Boulevard, Topeka",39.003726,-95.688247
658,Briggs Kia,"3137 South Kansas Avenue, Topeka",39.0107808,-95.6826543
659,Sharp Honda,"3149 South Kansas Avenue, Topeka",39.0086988,-95.6820454
660,Redbox,"3696 Southwest Topeka Boulevard, Topeka",39.0013954,-95.6869844
661,Binswanger Glass,"211 Southwest 37th Street, Topeka",39.000195,-95.682517
662,Knox Signs & Graphics,"4026 Southwest Topeka Boulevard, Topeka",38.992018200000004,-95.6870104
663,Discount Muffler,"4100 Southwest Topeka Boulevard, Topeka",38.99127099999999,-95.68709
664,Larry's Short Stop,"3834 Southwest Topeka Boulevard, Topeka",38.996477299999995,-95.6873767
665,Sonic Drive-In,"3721 Southwest Topeka Boulevard, Topeka",38.99987410000001,-95.6884253
666,Topeka Winsupply,"3721 Southwest South Park Avenue, Topeka",38.99975070000001,-95.6820556
667,Redbox,"4500 Southwest Topeka Boulevard, Topeka",38.984842,-95.68691120000001
668,Star & Stripes Fireworks,"4545 Northwest Topeka Boulevard, Topeka",38.9849124,-95.6879616
669,Kansas Custom Cabinets,"4547 Southwest Topeka Boulevard, Topeka",38.9844335,-95.6882103
670,Sow You Can Grow,"301 Southeast 45th Street #13, Topeka",38.9854941,-95.6814365
671,O'Reilly Auto Parts,"4710 Southwest Topeka Boulevard, Topeka",38.981781700000006,-95.6870104
672,Kwik Shop,"4500 Southwest Topeka Boulevard, Topeka",38.984857100000006,-95.68720040000001
673,DBS Pest Control LLC Your Local Bedbug Specialist,"4445 Southeast Truman Avenue, Topeka",38.9863102,-95.6862171
674,Ironhorse Auto Inc,"4609 Southwest Topeka Boulevard, Topeka",38.9829852,-95.6881597
675,Sweetz-N-More Smoke Shop,"4547 S Topeka Blvd # E 66609, Topeka",38.98447999999999,-95.68832579999999
676,Kansas Furniture Mart,"4547 Southwest Topeka Boulevard, Topeka",38.9844071,-95.6882328
677,Hartford Connecticut,"4440 Southeast Grand Oaks Avenue, Topeka",38.9868236,-95.6814176
678,Jakes Fireworks,"4600 Southwest Topeka Boulevard, Topeka",38.983914,-95.68674
679,Barb's Country Barn,"4008 Southwest Topeka Boulevard, Topeka",38.99312260000001,-95.6871736
680,American Electric,"4818 Southwest Topeka Boulevard, Topeka",38.98009709999999,-95.6859681
681,Fleetpride inc,"4812 Southwest Topeka Boulevard, Topeka",38.98009709999999,-95.685067
682,Ehrlich Distribution,"4828 Southwest Topeka Boulevard, Topeka",38.9796183,-95.686427
683,Culligan Water of Northeast Kansas,"4828 Southwest Topeka Boulevard, Topeka",38.9796183,-95.686427
684,J C Auto,"5149 Southwest Topeka Boulevard, Topeka",38.97356359999999,-95.6881609
685,Ferris Wheel Antiques,"5201 Southwest Topeka Boulevard, Topeka",38.9729401,-95.6884648
686,Tractor Supply Co.,"5236 Southwest Topeka Boulevard, Topeka",38.973025899999996,-95.6866388
687,Anderson RV Center,"5050 Southwest Topeka Boulevard, Topeka",38.976019,-95.68673740000001
688,Topeka Powersports,"4806 Southwest Topeka Boulevard, Topeka",38.9805219,-95.686988
689,Topeka's Power Sport,"4806 Southwest Topeka Boulevard, Topeka",38.980493,-95.6870675
690,Ultraline RC Hobbies & Raceway,Topeka,38.980586200000005,-95.6855214
691,Moonlight Adult Boutique,"4732 Southwest Topeka Boulevard, Topeka",38.98089909999999,-95.6870387
692,Terminix,"5604 Southwest Topeka Boulevard suite a, Topeka",38.96764839999999,-95.6860597
693,MKS Professional Stage Products,"5610 Southwest Topeka Boulevard # C, Topeka",38.9673607,-95.6873984
694,4 X 4 Land,"5620 Southwest Topeka Boulevard, Topeka",38.9675428,-95.6865836
695,Jerry Taliaferro Race Cars,"5610 Southwest Topeka Boulevard Ste C, Topeka",38.967622,-95.685495
696,Auto Parts Topeka,"5725 Southwest Topeka Boulevard, Topeka",38.96286480000001,-95.6889314
697,Always Sound Integration,"5816 Southwest Topeka Boulevard, Topeka",38.9619658,-95.6868093
698,"TBS Electronics, Inc.","5225 Southwest Topeka Boulevard, Topeka",38.9724024,-95.68840909999999
699,LKQ Mid-America,"5725 Southwest Topeka Boulevard, Topeka",38.96277949999999,-95.6889422
700,Banner Mobility Resources Inc,"231C Southeast 53rd Street, Topeka",38.971151899999995,-95.68395579999999
701,"Commercial Tire Centers, Inc.","5612 Southwest Topeka Boulevard Unit D, Topeka",38.9670982,-95.6865171
702,Bargains Plus,"5626 Southwest Topeka Boulevard suite d, Topeka",38.9660515,-95.68711540000001
703,Ferris Statuary,"5201 Southwest Topeka Boulevard # A, Topeka",38.972978000000005,-95.6884418
704,iSold It On Ebay,"430 South East Engle Street, Topeka",38.95393789999999,-95.6804358
705,Kull's Old Town Station,"201 Southeast 59th Street, Topeka",38.960756200000006,-95.6854856
706,Artist Alley Studio & Gallery,"5836 Southwest Topeka Boulevard, Topeka",38.9614626,-95.68725500000001
707,BLVD Bargains,"5816 Southwest Topeka Boulevard, Topeka",38.96198150000001,-95.68686650000001
708,John's Food Center,"5812 Southwest Topeka Boulevard, Topeka",38.9621023,-95.6867795
709,R & R PALLETS,"Southeast Axton Street, Topeka",38.955555600000004,-95.6805556
710,Mr O Auto Sales Llc,"430 Southeast University Boulevard, Topeka",38.9534369,-95.6822099
711,Sunflower Auto Auction,"545 Southeast Engle Street, Topeka",38.954345700000005,-95.6796646
712,Valley Food Systems,"6700 SW Topeka Blvd, Topeka",38.9479945,-95.6835853
713,A1 Auction House,"6515 Southeast Johnston Street, Topeka",38.9491906,-95.68063490000002
714,A-1 New & Used Restaurant Equipment,"6515 Southeast Johnston Street, Topeka",38.9491906,-95.68063490000002
715,The Mattress Hub,"6800 se Evan's rd, Topeka",38.94490699999999,-95.682233
716,ReHome,"6534 Southeast Jabara Street, Topeka",38.9485855,-95.6794198
717,Cody's Upholstery,"6700 Southwest Topeka Boulevard, Topeka",38.9417519,-95.6806891
718,Coca-Cola Vending,"6700 Southwest Topeka Boulevard #400, Topeka",38.9417519,-95.6806891
719,White x White,"6930 Southeast Johnston Street, Topeka",38.9429552,-95.679935
720,Siebert Performance,"7127 Southeast Forbes Avenue unit b, Topeka",38.936625299999996,-95.6846095
721,Binding Tapes,"7115 Southeast Forbes Avenue, Topeka",38.93774510000001,-95.6835029
722,Dillons Food Store,"800 Northwest 25th Street, Topeka",39.093280799999995,-95.6742071
723,Redbox,"800 Northwest 25th Street, Topeka",39.093314899999996,-95.6744077
724,Dillons Pharmacy,"800 Northwest 25th Street, Topeka",39.0934322,-95.6751981
725,Walmart Pharmacy,"2600 Northwest Rochester Road, Topeka",39.093865,-95.671733
726,ecoATM,"2600 Northwest Rochester Road, Topeka",39.0938401,-95.6716222
727,Walmart Photo Center,"2600 Northwest Rochester Road, Topeka",39.0936964,-95.6717619
728,Walmart Garden Center,"2600 Northwest Rochester Road, Topeka",39.0936964,-95.6717619
729,Walmart Deli,"2600 Northwest Rochester Road, Topeka",39.0936964,-95.6717619
730,Walmart Bakery,"2600 Northwest Rochester Road, Topeka",39.0936964,-95.6717619
731,Walmart Supercenter,"2600 Northwest Rochester Road, Topeka",39.09366569999999,-95.67169100000001
732,Walmart Vision & Glasses,"2600 Northwest Rochester Road, Topeka",39.0936964,-95.6717619
733,"Harold's Tire, LLC","2625 Northwest Rochester Road, Topeka",39.09518609999999,-95.6742288
734,T-Mobile,"910 Northwest 25th Street Suite G, Topeka",39.09341149999999,-95.67595379999999
735,NOTO Wine & Spirits,"910 Northwest 25th Street ste c, Topeka",39.09341149999999,-95.67595379999999
736,Jakes Fireworks,"2600 Northwest Rochester Road, Topeka",39.0936964,-95.6717619
737,Walmart Connection center,"Supercenter #5441, 2600 Northwest Rochester Road, Topeka",39.0936964,-95.6717619
738,Redbox,"2600 Northwest Rochester Road, Topeka",39.0936964,-95.6717619
739,AT&T Store,"605 NW, U.S. 24 Suite 102, Topeka",39.09007580000001,-95.67040440000001
740,Sutherlands #2304,"2210 Northwest Tyler Street, Topeka",39.088440999999996,-95.671401
741,Dickey's Barbecue Pit,"609 Northwest Highway 24 Road, Topeka",39.090490700000004,-95.67054959999999
742,"Thomas E. Doerr, RPh","2240 Northwest Tyler Street, Topeka",39.089664899999995,-95.6712687
743,Advanced Plumbing Services Llc,"915 S 6th St, Topeka",39.084641299999994,-95.6765369
744,Sonic Drive-In,"636 Nw, U.S. 24, Topeka",39.09149910000001,-95.67239350000001
745,Street Price,"1435 NE Northwest Eugene Street, Topeka",39.076279,-95.6717739
746,Carnival Guy Party Rentals,"536 Northwest Tyler Court #201, Topeka",39.080777000000005,-95.671233
747,9-5 Auto,"1301 Northwest Topeka Boulevard, Topeka",39.073982,-95.6706644
748,Northside Muffler & Small Engn,"1023 Northwest Tyler Street, Topeka",39.071883500000006,-95.6733159
749,Hall Floor Covering,"1437 Northwest Tyler Street, Topeka",39.076355299999996,-95.67351690000001
750,UniFirst Uniform Services - Topeka,"1309 Northwest Western Avenue, Topeka",39.07392539999999,-95.6772308
751,PDQ Construction Inc,"531 Northwest Tyler Court, Topeka",39.079884099999994,-95.671392
752,HF Rubber Machinery Inc.,"1701 Northwest Topeka Boulevard, Topeka",39.0797096,-95.6685771
753,AutoZone Auto Parts,"1735 Northwest Topeka Boulevard, Topeka",39.08074039999999,-95.667965
754,Freedom Auto Sales,"1301 Northwest Topeka Boulevard, Topeka",39.07397159999999,-95.6706758
755,Herman's Beef & Sausage House,"823 Northwest Gordon Street, Topeka",39.0718178,-95.67653220000001
756,JM Motorsports,"1336 Northwest Topeka Boulevard, Topeka",39.074822,-95.669112
757,Craftman Exteriors,Topeka,39.0843684,-95.6720907
758,Pet-Delights,Topeka,39.0843684,-95.6720907
759,Rose Muffler & Car Care Center,"1612 Northwest Topeka Boulevard, Topeka",39.07867780000001,-95.6674433
760,Kansas Fencing Inc.,"620 Northwest Gordon Street, Topeka",39.0712072,-95.6734498
761,Redbox,"1114 Northwest Topeka Boulevard, Topeka",39.0719901,-95.6704963
762,Six Auto Service,"1000 Northwest Topeka Boulevard, Topeka",39.07061119999999,-95.6709758
763,Topeka Battery Co,"1101 Northwest Topeka Boulevard, Topeka",39.07165,-95.671258
764,Capitol Concrete Products Inc,"627 Northwest Tyler Street, Topeka",39.067409999999995,-95.6746655
765,KanView Glass,"611 Northwest Gordon Street, Topeka",39.0707648,-95.6736413
766,Whitley's Pallets,"1092902034001010, Topeka",39.0679364,-95.6701592
767,Kwik Shop,"1114 Northwest Topeka Boulevard, Topeka",39.071843,-95.670533
768,Topeka Quick Stop,"1020 Northwest Topeka Boulevard, Topeka",39.0717037,-95.6706282
769,Tyre Co Peerless,"333 South Kansas Avenue, Topeka",39.054838200000006,-95.67259250000001
770,Kansasland Tire & Service,"300 Southwest 6th Avenue, Topeka",39.0528754,-95.676314
771,Salisbury Construction & Industrial Supply,"114 Southeast Quincy Street, Topeka",39.05757889999999,-95.6687209
772,PC911 of Kansas,"534 South Kansas Avenue #110, Topeka",39.05252410000001,-95.67251359999999
773,TFM Communications Inc,"125 Southwest Jackson Street, Topeka",39.058088,-95.6723613
774,Motorola,"125 Southwest Jackson Street, Topeka",39.0581807,-95.6723242
775,Automotive & Industrial Distributors,"410 Southwest Jackson Street, Topeka",39.054414799999996,-95.67355859999999
776,Mr. Thriftys Discount Grocery And Surplus,"605 Southwest 6th Avenue, Topeka",39.0536112,-95.6792205
777,Shana Cake,"435 South Kansas Avenue, Topeka",39.053377000000005,-95.672933
778,Epic Supply,"134 Southeast Quincy Street Ste B, Topeka",39.0570273,-95.6685898
779,Topeka Blueprint Company Inc,"608 Southwest Jackson Street, Topeka",39.05187120000001,-95.6746325
780,Kansas Lottery,"128 North Kansas Avenue, Topeka",39.0590408,-95.6698021
781,The Sewing Workshop,"301 South Kansas Avenue A, Topeka",39.05587689999999,-95.6719208
782,Macfee Refinishing,"127 Northwest Van Buren Street, Topeka",39.06070400000001,-95.6728064
783,A-1 Water Conditioning,"115 Northwest Van Buren Street, Topeka",39.06023399999999,-95.673273
784,McDonald's,"1100 South Kansas Avenue, Topeka",39.04384870000001,-95.6761949
785,V100 Topeka's Rock Leader,"825 South Kansas Avenue, Topeka",39.0478189,-95.6755229
786,Stephen Smith Gallery,"931 South Kansas Avenue, Topeka",39.0463349,-95.67598520000001
787,Reliant Apparel LLC.,"631 South Kansas Avenue, Topeka",39.050814700000004,-95.67430990000001
788,Snake 'n' Rooter Plumbing Company,"812 Southwest Jackson Street, Topeka",39.048308,-95.675789
789,Moburts,"820 South Kansas Avenue, Topeka",39.047883,-95.674583
790,Cashmere Popcorn LLC,"728 South Kansas Avenue, Topeka",39.049141999999996,-95.6740802
791,Juli's Coffee and Bistro,"110 Southeast 8th Avenue, Topeka",39.0489179,-95.6736364
792,Top City Soda Pop,"720 South Kansas Avenue #1/2, Topeka",39.0493561,-95.6737961
793,Daylight Donuts,"1001 Southeast Quincy Street, Topeka",39.0454427,-95.6746954
794,Bwell Market,"600 Southeast Quincy Street, Topeka",39.05082489999999,-95.6715071
795,AT&T,"220 Southeast 6th Avenue, Topeka",39.0515473,-95.6707152
796,A & A Auto and Truck Parts Inc,"1440 Southeast Jefferson Street, Topeka",39.0379487,-95.6709846
797,Schendel Pest Services,"1826 South Kansas Avenue, Topeka",39.0344731,-95.6787083
798,Absolute Tattoo,"1212 South Kansas Avenue, Topeka",39.042389799999995,-95.6767929
799,Kirby Co,"1417 South Kansas Avenue, Topeka",39.039903,-95.678725
800,L & H Mobile Electronics,"1818 South Kansas Avenue, Topeka",39.035136,-95.678578
801,Color Me Beautiful with Shakina,"2514 Southeast Monroe Street, Topeka",39.0218082,-95.6737859
802,Ferguson,"2220 Southeast Lakewood Boulevard, Topeka",39.027404,-95.6749675
803,Expert Offroad Inc,"2500 South Kansas Avenue, Topeka",39.025156,-95.678951
804,Extremez Auto,"2512 South Kansas Avenue, Topeka",39.02468929999999,-95.6790447
805,RACIN COOL,"2301 Southwest Harrison Street, Topeka",39.0277875,-95.6823142
806,5th Gear Motorsports,"2528 South Kansas Avenue, Topeka",39.023626,-95.678923
807,The Used Car Giant,"Southwest Topeka Boulevard, Topeka",39.0290251,-95.6834238
808,Harbor Freight Tools,"230 Southeast 29th Street, Topeka",39.0168907,-95.6763916
809,Auto For Less,"320 Southeast 29th Street, Topeka",39.01563400000001,-95.674036
810,Heartland Floors,"516 Southeast 29th Street #103, Topeka",39.01574799999999,-95.6717429
811,Evolution Protective Coatings,"2846 Southeast Jefferson Street, Topeka",39.015581700000006,-95.6711
812,Margaret B's Antiques & Vintage Collectibles,"2901 Southeast Adams Street, Topeka",39.014657,-95.6715975
813,Laird Noller Mazda Topeka,"2946 South Kansas Avenue, Topeka",39.0134716,-95.6811391
814,Highland Crest Pawn,"2834 Southeast Jefferson Street Ste. C, Topeka",39.0159911,-95.67104090000001
815,Car Toyz,"210 Southeast 29th Street, Topeka",39.01678950000001,-95.6771525
816,Briggs Subaru of Topeka,"3115 South Kansas Avenue, Topeka",39.0116915,-95.6825262
817,Neenan Company - TOPEKA,"3210 South Kansas Avenue, Topeka",39.0105386,-95.6812467
818,Briggs Dodge Ram Fiat,"3001 South Kansas Avenue, Topeka",39.0126315,-95.6828047
819,A B Flint Motor Co,"101 Southwest 32nd Terrace, Topeka",39.0083054,-95.6823431
820,BMW Volkswagen of Topeka,"3030 South Kansas Avenue, Topeka",39.012826000000004,-95.6812891
821,Linens By Marlen,"3137 Southeast Humboldt Street, Topeka",39.00929000000001,-95.67795600000001
822,Home solution LLC,"3100 Southeast Humboldt Street #2938, Topeka",39.010537400000004,-95.6773908
823,Honeyman Auto Plaza,"3216 South Kansas Avenue, Topeka",39.009851399999995,-95.68143609999998
824,Russco Turntables,"126 40th Terrace, Topeka",38.99284039999999,-95.6780845
825,Gloria's Designs,"3722 Southeast Humboldt Street, Topeka",38.99907599999999,-95.679063
826,Ambersminiatureland,"3800 Southeast Truman Avenue, Topeka",38.9967321,-95.6785781
827,Tobacco Land,"101 Southwest 37th Street, Topeka",39.000293299999996,-95.6796929
828,Kwik Shop,"102 Southeast 37th Street, Topeka",39.000868,-95.67975200000001
829,Top City Liquor,"517 Southeast 37th Street, Topeka",39.0003162,-95.6718383
830,RJ's Discount Store,"3729 Southwest South Park Avenue, Topeka",38.9994386,-95.6828589
831,Rensenhouse Electric Supply,"3755 Southwest South Park Avenue, Topeka",38.998022399999996,-95.6831835
832,Veritiv,"3741 Southwest South Park Avenue, Topeka",38.998168299999996,-95.6833575
833,Rick's Concrete Sawing Inc,"4739 Southeast Adams Street, Topeka",38.98125599999999,-95.670966
834,Print2distribution,"Southeast J Street, Topeka",38.95688099999999,-95.67645340000001
835,Baston Global,"6837 Southeast Ross Street, Topeka",38.9439427,-95.6766287
836,BDC Merch,"3401 Northwest Topeka Boulevard, Topeka",39.1078385,-95.6657006
837,Cloverleaf Auto Sales,"2800 Northwest Topeka Boulevard, Topeka",39.0965098,-95.6643555
838,BP,"3000 Northwest Topeka Boulevard, Topeka",39.099248200000005,-95.66435990000001
839,A J Construction & Remodeling LLC,"2705 Northwest Topeka Boulevard, Topeka",39.09530529999999,-95.6650657
840,DynaMarine Performance Boats,"2529 N Northwest Topeka Boulevard, Topeka",39.093243,-95.6646356
841,Yingling's Auto Service,"2525 Northwest Topeka Boulevard, Topeka",39.0931037,-95.6655978
842,Car Exchange,"3030 Northwest Topeka Boulevard # 99, Topeka",39.1007593,-95.66409190000002
843,The Firehouse,"3030 Northwest Topeka Boulevard, Topeka",39.1008062,-95.6641108
844,El Torito Topeka,"3000 Northwest Topeka Boulevard, Topeka",39.100584000000005,-95.66303640000001
845,Nib's House of Coffee,"2525 Northwest Topeka Boulevard, Topeka",39.0931037,-95.6655978
846,Beanheads,"2525 Northwest Topeka Boulevard, Topeka",39.0931037,-95.6655978
847,Jetstream Equipment Co,"437 Northwest Independence Avenue, Topeka",39.084471,-95.667686
848,Walgreens,"2101 Northwest Topeka Boulevard, Topeka",39.088043299999995,-95.6655205
849,Advance Auto Parts,"1939 Northwest Topeka Boulevard, Topeka",39.08399659999999,-95.6665204
850,J & L Sales,"2001 Northwest Central Avenue, Topeka",39.08497889999999,-95.66491640000001
851,Carquest Auto Parts,"2037 Northwest Topeka Boulevard, Topeka",39.087221,-95.665251
852,NORTHSIDE'S SMOKES 4 U : CBD & KRATOM,"224 Northwest Independence Avenue #1810, Topeka",39.085195399999996,-95.6634536
853,DQ / Orange Julius,"2026 Northwest Topeka Boulevard, Topeka",39.0867961,-95.6643022
854,Dollar General,"2042 Northwest Topeka Boulevard, Topeka",39.0870584,-95.6635406
855,Tokan Designs Inc.,"118 Northwest Elm Row Avenue, Topeka",39.089205,-95.661925
856,Kid's Closet Connection,"118 Northwest Elm Row Avenue St, Topeka",39.089205,-95.661925
857,Arrow Exteriors Inc.,"1934 Northwest Topeka Boulevard Ste A, Topeka",39.0838806,-95.6651048
858,Metro by T-Mobile,"1947 Northwest Topeka Boulevard Ste B, Topeka",39.0844497,-95.6667484
859,Lynch Auto Plaza,"1850 Northwest Topeka Boulevard, Topeka",39.08196439999999,-95.66610959999998
860,MAJ-R Thrift - Topeka,"2020 Northwest Topeka Boulevard, Topeka",39.08591419999999,-95.66280970000001
861,Performance Tire & Auto,"1735 North Kansas Avenue, Topeka",39.079495,-95.662145
862,O'Reilly Auto Parts,"1726 Northwest Topeka Boulevard, Topeka",39.080026600000004,-95.66678950000001
863,Uniquely Yours,"1714 Northwest Topeka Boulevard, Topeka",39.07925700000001,-95.667047
864,Don's Carz,"1307 North Kansas Avenue, Topeka",39.0734647,-95.6645294
865,J & K Awards,"1236 North Kansas Avenue, Topeka",39.072709,-95.663781
866,T & L Retail Sales - Discount Furniture,"1209 North Kansas Avenue B, Topeka",39.07228569999999,-95.6651534
867,Auto Glass & Tire Outlet,"1605 Northwest Central Avenue, Topeka",39.0790898,-95.6664063
868,Ace Computers LLC.,"510 Northwest Broad Street, Topeka",39.082343,-95.667469
869,Catdaddy,"1308 Northwest Logan Street, Topeka",39.073665500000004,-95.6652319
870,Heaven Scent Flowers & Tuxedos,"1802 Northwest Topeka Boulevard, Topeka",39.0809591,-95.6665843
871,TWO DAYS Monthly Market,"829 North Kansas Avenue, Topeka",39.0670566,-95.6669518
872,D AND D AUTO SALES,"1111 North Kansas Avenue, Topeka",39.07116559999999,-95.66559670000001
873,Kaw River Rustics,"901 North Kansas Avenue, Topeka",39.067811,-95.6665248
874,Matryoshka Tattoo,"918 North Kansas Avenue, Topeka",39.06777780000001,-95.6661111
875,SalonCentric,"120 Northwest Gordon Street, Topeka",39.06945320000001,-95.6670373
876,Stutzman Leather Shoppe,"840 North Kansas Avenue, Topeka",39.0673734,-95.66640340000001
877,4 Girls' Garage,"837 North Kansas Avenue, Topeka",39.067342,-95.6668078
878,Mystic Addiction Tattoos,"818 North Kansas Avenue, Topeka",39.066547,-95.66645600000001
879,Topeka Rescue Mission Ministries Inc,"600 North Kansas Avenue, Topeka",39.06463599999999,-95.667263
880,C W Porubsky Grocery & Meats,"508 Northeast Sardou Avenue, Topeka",39.0670645,-95.65943659999999
881,"AmeriPride, an Aramark Company","400 E Southeast 1st Street, Topeka",39.0579216,-95.6649976
882,"AmeriPride, an Aramark Company","123 Southeast Madison Street, Topeka",39.05659199999999,-95.667016
883,Topeka Social Express,"240 Southeast Madison Street, Topeka",39.0561424,-95.6656337
884,ALLSIGNS,"414 Southeast Jefferson Street, Topeka",39.051941,-95.666485
885,Bell Hair,"420 Southeast 6th Avenue, Topeka",39.05165,-95.667845
886,UPS Customer Center,"126 Northeast Madison Street, Topeka",39.05857090000001,-95.6647963
887,Matheson,"100 Southeast Madison Street, Topeka",39.0571435,-95.6656607
888,Airgas Store,"313 Northeast Crane Street, Topeka",39.0587956,-95.66593459999999
889,Orkin,"112 Southeast Monroe Street, Topeka",39.057191700000004,-95.667202
890,Leonard Meat,"105 Northeast Quincy Street, Topeka",39.0585708,-95.6687363
891,Public Storage,"710 Southeast 8th Avenue, Topeka",39.047008,-95.66459470000001
892,Capitol City Pawn & Jewelry,"1001 Southeast 6th Street, Topeka",39.048293,-95.660909
893,McCray Lumber,"715 Southeast 4th Street, Topeka",39.051013,-95.66201
894,Bottom Dollar Office Supplies & Furniture,"914 Southeast Jefferson Street, Topeka",39.045364899999996,-95.669228
895,Kaw Valley Printing,"715 Southeast 8th Avenue, Topeka",39.04606589999999,-95.6653387
896,Summit Truck Group,"500 Southeast 10th Avenue, Topeka",39.0447365,-95.6695346
897,Smart Start Ignition Interlock,"405 Southeast 10th Avenue, Topeka",39.0442318,-95.6708527
898,Bumper To Bumper Auto Parts,"430 Southeast Branner Street, Topeka",39.05036279999999,-95.66000030000001
899,Cashmere Popcorn,"728 South Kansas Avenue, Topeka",39.049141999999996,-95.6740802
900,Auburn Motors,"1471 Southeast Washington Street, Topeka",39.0373519,-95.6642562
901,Neighborhood Liquor,"810 Southeast 15th Street Suite 1, Topeka",39.03722609999999,-95.66831
902,Cîroc Neighborhood Liquor,Topeka,39.037291700000004,-95.66805140000001
903,La Pasa Dita Auto Sales,"432 Southeast 13th Street, Topeka",39.0402936,-95.6708118
904,Burns Recording,"1829 Southeast Pennsylvania Avenue, Topeka",39.033075,-95.6678682
905,RAW Construction LLC,"314 Southeast 15th Street, Topeka",39.038354999999996,-95.67449
906,KDC Customs,"314 Southeast 15th Street, Topeka",39.038265100000004,-95.6746873
907,B & B Sign Co,"417 Southeast 10th Avenue, Topeka",39.044216999999996,-95.670627
908,H&W Truck Sales,"409 Southeast 17th Street, Topeka",39.0368465,-95.67479200000001
909,Hill & Co Inc,"1424 Southeast Monroe Street, Topeka",39.038539799999995,-95.6755218
910,Capitol City Office Products Inc,"914 Southeast Jefferson Street, Topeka",39.0452184,-95.669214
911,Office Plus Of Kansas,"914 Southeast Jefferson Street, Topeka",39.0452184,-95.669214
912,"Above All Books & Gifts, LLP","1921 Southeast Indiana Avenue, Topeka",39.0317689,-95.6613613
913,Won's liquors,"2121 Southeast Virginia Avenue, Topeka",39.0293191,-95.6650025
914,Boudeman Family Motors,"540 Southeast 29th Street #1132, Topeka",39.0157359,-95.6705359
915,Second Hand Sams,"2816 Southeast Virginia Avenue, Topeka",39.0164792,-95.6645911
916,Evolution Protective Coat Inc / Spray-on Truck Bedliners,"2846 Southeast Jefferson Street, Topeka",39.0155809,-95.67109920000001
917,Owls Nest Topeka Antique Mall and Flea Market - On Adams,"2901 Southeast Adams Street, Topeka",39.014657,-95.6715975
918,Trend e Fashions Salon and Boutique,"420 B Southeast 29th Street, Topeka",39.021683200000005,-95.672476
919,GOLD AND SILVER BUYERS DIRECT,"420 Southeast 29th Street d, Topeka",39.015528999999994,-95.6728715
920,Topeka Beauty Supply,"459 Southeast 29th Street, Topeka",39.01478519999999,-95.6723987
921,Pellet Stove Works,"Southeast Massachusetts Avenue, Topeka",39.004797100000005,-95.66851609999999
922,Amanda Brandenburgh,"3305 Southeast Adams Street, Topeka",39.0077559,-95.67059350000001
923,Cards By Birdie,"3018 Northeast Quincy Street, Topeka",39.10219079999999,-95.6584684
924,NAPA Auto Parts - Finlay Automotive Supply - Topeka North,"201 NE, U.S. 24, Topeka",39.0903652,-95.65681500000001
925,Integrity Gun & Pawn,"301 Northeast US 24 Highway, Topeka",39.090470399999994,-95.6562745
926,Heald Truck Sales,"704 NE, U.S. 24, Topeka",39.091594799999996,-95.6490403
927,Westlake Ace Hardware,"2050 Northwest Topeka Boulevard, Topeka",39.0871876,-95.66261750000001
928,Capital City Flooring,"118 Northeast Lyman Road, Topeka",39.08839479999999,-95.65984559999998
929,Dollar Tree,"2046 N Southwest Topeka Boulevard, Topeka",39.0867583,-95.6626393
930,Flower Market,"119 Northeast US 24 Highway, Topeka",39.090374,-95.658148
931,Logan Business Machines,"417B Northeast US 24 Highway, Topeka",39.090435,-95.654192
932,WOODYS GAS EXPRESS,"101 Northeast US 24 Highway, Topeka",39.0903591,-95.6594755
933,Conoco Food & Tobacco,"2045 North Kansas Avenue, Topeka",39.0873101,-95.6604616
934,Sacred Leaf,"101 NE, U.S. 24, Topeka",39.090548,-95.6597631
935,That Other Place,"301 U.S. 24, Topeka",39.0896045,-95.6605017
936,Lewis Auto & Truck Parts,"229 Northeast Burgess Street, Topeka",39.080985999999996,-95.6571426
937,"A & A Auto and Truck Parts, Inc.","229 Northeast Burgess Street, Topeka",39.080964,-95.6570311
938,"A & A Auto and Truck Parts, Inc.","229 Northeast Burgess Street, Topeka",39.079944,-95.65739200000002
939,Daves Daschunds,"1896 Burgess Court, Topeka",39.08116529999999,-95.6580175
940,DH Lawn&Garden Equipment,"1408 North Kansas Avenue, Topeka",39.074553,-95.663105
941,Habitat For Humanity,"121 Northeast Gordon Street, Topeka",39.06839859999999,-95.66507800000001
942,Embroidery Plus By Turquoise,"1010 North Kansas Avenue, Topeka",39.0693339,-95.6655703
943,Galaxy Glass Inc,"912 North Kansas Avenue, Topeka",39.0680535,-95.6658033
944,Panderia Reynosa Bakery,"1200 Northeast Seward Avenue, Topeka",39.05904279999999,-95.6542677
945,Midway Wholesale,"218 Southeast Branner Street, Topeka",39.053575200000004,-95.6584074
946,Oakland Express Liquor & Wines,"1118 Northeast Seward Avenue, Topeka",39.059092,-95.6546475
947,Shockwave Electric LLC,"1410 Northeast Seward Avenue, Topeka",39.05896249999999,-95.6514846
948,The Good Guys Home Remodeling Services,"527 Northeast Wilson Avenue, Topeka",39.06118439999999,-95.6523165
949,FMOK Outlet,"140 Southeast Jefferson Street, Topeka",39.056245200000006,-95.6642142
950,La Unica Supermarket,"1706 Southeast 6th Avenue, Topeka",39.046624,-95.6530263
951,Gossers Auto Electric Inc,"2001 Southeast 6th Avenue, Topeka",39.04544129999999,-95.6504741
952,Quality Service Maldonado,"2001 Southeast 10th Avenue, Topeka",39.0438671,-95.6500605
953,Harold's Tire,"1400 Southeast 6th Avenue, Topeka",39.047439600000004,-95.6564407
954,"Kansas Automotive, Inc.","430 Southeast Branner Street, Topeka",39.0501669,-95.66009040000002
955,DeBacker's Inc.,"1520 Southeast 10th Avenue, Topeka",39.04462700000001,-95.655811
956,Kelly Tires,"1319 Southeast 6th Avenue, Topeka",39.0472395,-95.65703590000001
957,Topeka Nutrition,"1202 Southeast 6th Avenue, Topeka",39.048087200000005,-95.6586238
958,Monica's Fashion,"1209 Southeast 6th Avenue, Topeka",39.047631300000006,-95.6584585
959,El Zacatecano,"1200 Southeast 6th Avenue, Topeka",39.0480328,-95.6587591
960,Deportes Y Mas,"1517 Southeast 6th Avenue, Topeka",39.04681250000001,-95.65499190000001
961,Ms.Key's Beauty Supplies,"400 Southeast Lake Street, Topeka",39.0505521,-95.657565
962,Cromier II liquor,"1107 Southeast 6th Avenue, Topeka",39.047875,-95.6597053
963,Camecuaro Meat Market,"1016 Southeast 6th Avenue, Topeka",39.048531700000005,-95.6603026
964,"Hernandez Muffler Shop, LLC","1234 Southeast California Avenue, Topeka",39.0337851,-95.6506064
965,California Tire & Auto Services,"1234 Southeast California Avenue, Topeka",39.0337775,-95.65057420000001
966,California Tire & Auto Services,"2062 Southeast California Avenue, Topeka",39.0301611,-95.6507657
967,Goon Tunes,"2440 Southeast Illinois Avenue, Topeka",39.0228826,-95.6591777
968,EMC Tire Shop and auto glass,"2062 Southeast California Avenue, Topeka",39.030102899999996,-95.650782
969,Proctor Floor Coverings,"1900 Southeast 23rd Street, Topeka",39.0263361,-95.652526
970,Baskin-Robbins,"2837 Southeast California Avenue, Topeka",39.015386,-95.6521262
971,Walgreens,"2901 Southeast California Avenue, Topeka",39.014776399999995,-95.652263
972,Boost Mobile,"1707 Southeast 29th Street, Topeka",39.014758,-95.6552848
973,Redbox,"2901 Southeast California Avenue, Topeka",39.0146482,-95.65229980000001
974,Dairy Queen (Treat),"1725 Southeast 29th Street, Topeka",39.0147667,-95.6545083
975,Metro by T-Mobile,"2831 Southeast California Avenue, Topeka",39.0155256,-95.6521241
976,Dollar Tree,"2600 Southeast California Avenue, Topeka",39.0204988,-95.6507657
977,Metro Self Storage,"2650 Southeast California Avenue, Topeka",39.0187867,-95.6500673
978,Dillons Pharmacy,"2010 Southeast 29th Street, Topeka",39.016332,-95.6502906
979,Walmart Supercenter,"2630 Southeast California Avenue, Topeka",39.0205841,-95.648674
980,Walmart Garden Center,"2630 Southeast California Avenue, Topeka",39.0205912,-95.64850770000001
981,Walmart Photo Center,"2630 Southeast California Avenue, Topeka",39.0205912,-95.64850770000001
982,Walmart Bakery,"2630 Southeast California Avenue, Topeka",39.0205912,-95.64850770000001
983,ecoATM,"2630 Southeast California Avenue, Topeka",39.0207041,-95.6484059
984,Walmart Pharmacy,"2630 Southeast California Avenue, Topeka",39.020270000000004,-95.648211
985,AutoZone Auto Parts,"2700 Southeast California Avenue, Topeka",39.01840429999999,-95.6509316
986,Dillons Food Store,"2010 Southeast 29th Street, Topeka",39.0165854,-95.6504403
987,Advance Auto Parts,"2921 Southeast California Avenue, Topeka",39.01414259999999,-95.6522352
988,Rusnak Barb,"1605 Southeast 29th Street, Topeka",39.01479690000001,-95.65725079999999
989,O'Reilly Auto Parts,"2950 Southeast California Avenue, Topeka",39.0133899,-95.6511741
990,Walgreens Pharmacy,"2901 Southeast California Avenue, Topeka",39.0146635,-95.6527192
991,Walgreens Photo,"2901 Southeast California Avenue, Topeka",39.0146484,-95.6524812
992,"Dannell Newton, PharmD","2901 Southeast California Avenue, Topeka",39.0146922,-95.65245
993,"Tiffany Liesmann, PharmD","2901 Southeast California Avenue, Topeka",39.0146922,-95.65245
994,ATM (Casey's General Store),"4441 Southeast California Avenue, Topeka",38.9868066,-95.6523896
995,Dollar General,"4500 Southeast California Avenue, Topeka",38.9856922,-95.6508068
996,Casey's,"4441 Southeast California Avenue, Topeka",38.9866041,-95.6521524
997,TNT Fireworks,"2010 Southeast 45th Street, Topeka",38.986256,-95.6513641
998,Jake's Fireworks,"2009 Southeast 45th Street, Topeka",38.9857842,-95.65009620000001
999,Miller Pest Control,"2047 Southeast 53rd Street, Topeka",38.971334399999996,-95.6492113
1000,Mastery Moving,"3530 Northeast Meriden Road, Topeka",39.110538,-95.638184
1001,Tractor Supply Co.,"710 Hwy 24 East, Topeka",39.091972999999996,-95.647785
1002,That Christmas Place,"2630 Northeast Meriden Road, Topeka",39.09409079999999,-95.6426051
1003,White Star Machinery & Supply,"835 Northeast US 24 Highway, Topeka",39.0902858,-95.6435391
1004,Waste Management - Topeka Commercial Services,"711 U.S. 24, Topeka",39.08925989999999,-95.64795500000001
1005,The Gun Garage,"2120 Northeast Meriden Road, Topeka",39.08918169999999,-95.6487884
1006,Don & Tom's Bait & Tackle,"2108 Northeast Meriden Road, Topeka",39.0887336,-95.6494117
1007,Pomp's Tire Service,"2128 Northeast Meriden Road, Topeka",39.0902258,-95.6492933
1008,Free State Oils - CBD,"631 Northeast US 24 Highway, Topeka",39.090383700000004,-95.6507423
1009,The Rod Shop,"700 Northeast US 24 Highway, Topeka",39.0915721,-95.6499741
1010,Allied Enterprises Inc.,"660 Northeast US 24 Highway, Topeka",39.0918336,-95.6517058
1011,Redbox,"746 Northeast Wabash Avenue, Topeka",39.0659402,-95.6393462
1012,Oakland Motors,"800 Northeast Chester Avenue, Topeka",39.0663261,-95.6405666
1013,Stadler Retail Liquor,"2210 Northeast Sardou Avenue, Topeka",39.06637,-95.642899
1014,Kwik Shop,"746 Northeast Wabash Avenue, Topeka",39.06598820000001,-95.639492
1015,Topeka BBQ Shop,"2609 Northeast Sardou Avenue, Topeka",39.0659185,-95.638114
1016,Dollar General,"2620 Northeast Sardou Avenue, Topeka",39.0665489,-95.6376622
1017,BP,"2518 Northeast Seward Avenue, Topeka",39.059071,-95.63916440000001
1018,Contech Engineered Solutions,"2707 Northeast Seward Avenue, Topeka",39.057255,-95.638681
1019,Tilton's Market,"1905 Northeast Seward Avenue, Topeka",39.0585975,-95.6453982
1020,Marlene Bakery,"1925 Northeast Seward Avenue, Topeka",39.058631899999995,-95.6449491
1021,Oakland's One Stop Smoke Shop,"1919 Northeast Seward Avenue, Topeka",39.058555600000005,-95.64522
1022,Dollar General,"2515 Southeast 6th Avenue St, Topeka",39.04369450000001,-95.644418
1023,Metro by T-Mobile,"2410 Southeast 6th Avenue Ste C, Topeka",39.0448181,-95.6457312
1024,La Morena's Boutique,"2410 Southeast 6th Avenue, Topeka",39.044815299999996,-95.6456855
1025,Denni's Auto Sales,"2115 Southeast 6th Avenue, Topeka",39.0451406,-95.6489566
1026,Ace Pawn & Gun,"1923 Southeast 6th Street, Topeka",39.045577,-95.650882
1027,Dollar Tree,"2616 Southeast 6th Avenue, Topeka",39.044753299999996,-95.6427965
1028,El Rodeo,"1706 Southeast 6th Avenue, Topeka",39.046615700000004,-95.65303420000001
1029,Mackin Educational Resources,"1050 Southeast Republican Avenue, Topeka",39.042438399999995,-95.6476045
1030,Extreme Tire Shop,Topeka,39.044484600000004,-95.64066020000001
1031,Wordans / Sauced By Lo,"729 Southeast Wear Avenue, Topeka",39.04131390000001,-95.6398276
1032,Dollar General,"2500 Southeast California Avenue, Topeka",39.021902000000004,-95.6505172
1033,Westlake Ace Hardware,"2075 Southeast 29th Street, Topeka",39.014659,-95.648739
1034,McDonald's,"2880 Southeast California Avenue, Topeka",39.01553320000001,-95.6511046
1035,On Target Training & Consltng,"2215 Southeast 35th Street, Topeka",39.003011,-95.645264
1036,Grattidge Liquor Store,"2069 Southeast 29th Street, Topeka",39.01430149999999,-95.6488517
1037,Milk & Honey Coffee Co.,"2200 Southeast 29th Street, Topeka",39.01551,-95.6481365
1038,Extreme Golf Carts,"2443 Southeast 61st Street, Berryton",38.956465400000006,-95.6403333
1039,Grandy Zine Productions Inc,"2440 Southeast 69th Street, Berryton",38.946724999999994,-95.638773
1040,"Signs by Taco, LLC","2720 Northeast Grantville Road, Topeka",39.0898915,-95.6333153
1041,Hetrick Aviation Inc,"3600 Northeast Sardou Avenue # 26, Topeka",39.066170899999996,-95.63154490000001
1042,Wildcat Feeds LLC,"215 Northeast Strait Avenue, Topeka",39.056538,-95.634142
1043,Best Shop,"3101 Southeast Carnahan Avenue A, Topeka",39.0439185,-95.636892
1044,Brian's Tire Shop,"3035 Southeast 6th Avenue, Topeka",39.043951,-95.637775
1045,Boost Mobile,"3150 Southeast 6th Avenue, Topeka",39.045601399999995,-95.6353212
1046,Panaderia Monterrey,"3154 Southeast 6th Avenue, Topeka",39.045601899999994,-95.6352172
1047,East Quick Stop,"3100 Southeast 6th Avenue, Topeka",39.044649299999996,-95.63622209999998
1048,Eastside Liquor,"3101 Southeast 6th Avenue, Topeka",39.043992100000004,-95.6368403
1049,Reser's Fine Foods Inc - Baked Plant,"3167 Southeast 10th Street, Topeka",39.0358349,-95.6331495
1050,Dock,"2838 Southeast 29th Street, Topeka",39.015478200000004,-95.6315634
1051,Jakes Fireworks,"2845 Southeast Wittenberg Road, Topeka",39.0162761,-95.6299278
1052,Tribe of 5 Designs,"2733 Southeast Mars Terrace, Topeka",39.00801679999999,-95.63476
1053,Payless ShoeSource Corporate,"3231 Southeast 6th Avenue, Topeka",39.0433942,-95.62969709999999
1054,Casey's,"600 Southeast Rice Road, Topeka",39.043810799999996,-95.6223476
1055,Bob Victor's,"1100 Southeast Rice Road, Topeka",39.03530200000001,-95.62223
1056,Co-Nect-It Frame Corp,"1100 Southeast Rice Road, Topeka",39.035357299999994,-95.6222591
1057,Lucy's Cat Grass,"3835 Northeast Seward Avenue, Topeka",39.0571891,-95.6076158
1058,Insane Paine Produce,"3734 Northeast Seward Avenue, Topeka",39.05940820000001,-95.6141491
1059,Jennifer's Crafts,"3737 Northeast Seward Avenue, Topeka",39.05854899999999,-95.613482
1060,KWIK STOP,"550 Southeast Croco Road, Topeka",39.044675,-95.61308790000001
1061,Landscape Supply Co,"3530 Southeast 21st Street, Topeka",39.031512799999994,-95.6154875
1062,Dr Pepper 7UP Bottling Group,"3526 Southeast 21st Street, Topeka",39.031701500000004,-95.61617640000001
1063,Kyle Covert Motorsports,"2235 Southeast Croco Road, Topeka",39.026623,-95.615326
1064,Kalos Print Services,"3518 Southeast 21st Street, Topeka",39.030441700000004,-95.61675809999998
1065,HI Performance Fireworks,"2235 Southeast Croco Road, Topeka",39.026623,-95.615326
1066,Dollar General,"3410 Southeast 29th Street, Topeka",39.015665000000006,-95.617992
1067,Lakeside Wine & Spirits,"3627 Southeast 29th Street # 104, Topeka",39.014101700000005,-95.6122585
1068,Sonic Drive-In,"3520 Southeast 29th Street, Topeka",39.015796200000004,-95.6156284
1069,The Farmacy,"2841 Southeast 29th Street Ste 300, Topeka",39.015825899999996,-95.61472950000001
1070,Replica of Statue of Liberty,"Southeast Capitol View Court, Topeka",39.01596179999999,-95.6123254
1071,The EyeDoctors Optometrists,"3627 Southeast 29th Street, Topeka",39.013915000000004,-95.612162
1072,Topeka Golden Giants,"3698 Southeast Beach Terrace, Topeka",39.01168099999999,-95.615537
1073,Great Plains Pest Control,"3803 Southeast 30th Park, Topeka",39.0124279,-95.60931109999999
1074,Royal Buggy,"3825 Southeast Croco Road, Topeka",38.9983452,-95.6150386
1075,"Heartland Auto Salvage, inc.","729 Northeast Kincaid Road, Topeka",39.0657627,-95.6032224
1076,Jade Sewing,"3919 Southeast 30th Park, Topeka",39.0117365,-95.6052065
1077,Harris & Sons Enterprises,"3206 Southeast Arbor Drive, Topeka",39.00945300000001,-95.602819
1078,Nail Benders Home Improvement,"3925 Southeast 77th Street, Berryton",38.9274054,-95.6063452
1079,Canvas Man,"2730 Northeast 35th Street, Topeka",39.110223,-95.5959869
1080,Rees Fruit Farm,"2476 Kansas 4, Topeka",39.0911865,-95.59416920000001
1081,Bernadette's Custom Cosmetics,"2521 Southeast Cuvier Drive, Topeka",39.020585600000004,-95.5950038
1082,Kansas Drug Card,"4536 Southeast 37th Street, Topeka",39.0005827,-95.595594
