,Name,Address,Latitude,Longitude
0,Ball Custom Kitchens,"1431 Southwest Auburn Road, Topeka",39.040745,-95.8175856
1,Dollar General,"1420 North Washington Street, Auburn",38.9130918,-95.8174727
2,Greer House Antiques,"3015 Southwest Lagito Drive, Topeka",39.0111409,-95.8067635
3,Cambridge Kitchen & Bath,"2025 Southwest Urish Road Suite 110, Topeka",39.0295984,-95.7816304
4,Davis Electric Construction,"2850 Southwest Mission Woods Drive, Topeka",39.0153708,-95.7787484
5,Menards,"6401 Southwest 17th Street, Topeka",39.03508749999999,-95.77140039999999
6,Lowe's Home Improvement,"1621 Southwest Arvonia Place, Topeka",39.0375402,-95.7680397
7,Cambridge Kitchen & Bath,"2025 Southwest Urish Road Suite 110, Topeka",39.0295984,-95.7816304
8,Davis Electric Construction,"2850 Southwest Mission Woods Drive, Topeka",39.0153708,-95.7787484
9,Wild Bird House,"2901 Southwest 29th Street, Topeka",39.0142492,-95.7759416
10,Davis Electric Construction,"2850 Southwest Mission Woods Drive, Topeka",39.0153708,-95.7787484
11,Wild Bird House,"2901 Southwest 29th Street, Topeka",39.0142492,-95.7759416
12,Sarre Side Studios,"Gewerbegebiet BAB1 Am Schaumberg, 66636 Theley",39.05785180000001,-95.764922
13,JOANN Fabrics and Crafts,"1133 Southwest Wanamaker Road Ste 200, Topeka",39.04617390000001,-95.7640526
14,Sleep Number,"1191 Southwest Wanamaker Road Suite A, Topeka",39.0461251,-95.76215479999999
15,Factory Direct Appliance,"1040 Southwest Wanamaker Road, Topeka",39.04914249999999,-95.7606364
16,Best Buy,"1600 Southwest Wanamaker Road, Topeka",39.0376265,-95.76087419999999
17,Menards,"6401 Southwest 17th Street, Topeka",39.03508749999999,-95.77140039999999
18,JCPenney,"1821 Southwest Wanamaker Road, Topeka",39.0328446,-95.76570389999999
19,Walmart Supercenter,"1501 Southwest Wanamaker Road, Topeka",39.0398354,-95.7646231
20,Dillard's,"1791 Southwest Wanamaker Road, Topeka",39.0336937,-95.7643793
21,Walmart Photo Center,"1501 Southwest Wanamaker Road, Topeka",39.03981880000001,-95.7645465
22,Bath & Body Works,"1801 Southwest Wanamaker Road, Topeka",39.03339729999999,-95.76674960000001
23,Lowe's Home Improvement,"1621 Southwest Arvonia Place, Topeka",39.0375402,-95.7680397
24,Hot Topic,"1801 Southwest Wanamaker Road STE G20, Topeka",39.03265529999999,-95.7663738
25,Hobby Lobby,"1900 Southwest Wanamaker Road, Topeka",39.0337954,-95.7597564
26,"The Mattress Hub Topeka, KS","1580 Southwest Wanamaker Road, Topeka",39.0379458,-95.76054549999999
27,Mattress Headquarters,"1901 Southwest Wanamaker Road suite e, Topeka",39.03123860000001,-95.76620799999999
28,Mattress Firm Clearance,"1540 Southwest Wanamaker Road, Topeka",39.0388234,-95.7612401
29,Bed Bath & Beyond,"1900 Southwest Wanamaker Road, Topeka",39.0333652,-95.76070639999999
30,Spectrum Paint,"1550 Southwest Wanamaker Road #100c, Topeka",39.0390034,-95.7603749
31,Kirkland's,"1801 SW Wanamaker Rd Suite C06b, Topeka",39.03203389999999,-95.7660808
32,RoomMakers,"1901 Southwest Wanamaker Road, Topeka",39.0313365,-95.7662103
33,Slumberland Furniture - Topeka,"1800 Southwest Wanamaker Road, Topeka",39.0345374,-95.7591509
34,Discovery Furniture,"1901 Southwest Wanamaker Road, Topeka",39.03136579999999,-95.7658163
35,Furniture Mall of Kansas,"1901 Southwest Wanamaker Road, Topeka",39.0312123,-95.7661756
36,JCPenney,"1821 Southwest Wanamaker Road, Topeka",39.0328446,-95.76570389999999
37,Target,"2120 Southwest Wanamaker Road, Topeka",39.0283633,-95.75899020000001
38,Tuesday Morning - Closing Sale In Progress,"1930 Southwest Wanamaker Road Suite A1, Topeka",39.03145409999999,-95.7607299
39,Dillard's,"1791 Southwest Wanamaker Road, Topeka",39.0336937,-95.7643793
40,Pier 1,"1930 Southwest Wanamaker Road, Topeka",39.030175,-95.76083510000001
41,Bath & Body Works,"1801 Southwest Wanamaker Road, Topeka",39.03339729999999,-95.76674960000001
42,Hot Topic,"1801 Southwest Wanamaker Road STE G20, Topeka",39.03265529999999,-95.7663738
43,Sherwin-Williams Paint Store,"5930 Southwest 19th Terrace ste b, Topeka",39.032291,-95.760848
44,Mattress Headquarters,"1901 Southwest Wanamaker Road suite e, Topeka",39.03123860000001,-95.76620799999999
45,Carpet Plus Design Center,"1930 Southwest Wanamaker Road e, Topeka",39.0302588,-95.7609578
46,Vintage Stock,"1930 Southwest Wanamaker Road, Topeka",39.03122400000001,-95.760716
47,Dollar Tree,"2180 Southwest Wanamaker Road, Topeka",39.0267477,-95.7605861
48,RoomMakers,"1901 Southwest Wanamaker Road, Topeka",39.0313365,-95.7662103
49,Bed Bath & Beyond,"1900 Southwest Wanamaker Road, Topeka",39.0333652,-95.76070639999999
50,Furniture Mall of Kansas,"1901 Southwest Wanamaker Road, Topeka",39.0312123,-95.7661756
51,Discovery Furniture,"1901 Southwest Wanamaker Road, Topeka",39.03136579999999,-95.7658163
52,Kirkland's,"1801 SW Wanamaker Rd Suite C06b, Topeka",39.03203389999999,-95.7660808
53,Ashley HomeStore,"2190 Southwest Wanamaker Road, Topeka",39.026926,-95.7613846
54,The Floor Project - Brands for Less Topeka,"5930 Southwest 19th Terrace, Topeka",39.03225690000001,-95.7606654
55,Lumber Liquidators Flooring,"5907 Southwest 21st Street, Topeka",39.0287151,-95.7580412
56,Ricoh USA Inc,"2655 Southwest Wanamaker Road, Topeka",39.018287,-95.76294
57,CVS Photo,"2835 Southwest Wanamaker Road, Topeka",39.0154318,-95.7643001
58,Wheatland Pest Control,"2813 Southwest Westport Plaza Drive, Topeka",39.01551729999999,-95.76025249999999
59,Batteries Plus Bulbs,"6021 Southwest 29th Street suite d, Topeka",39.0142197,-95.76449280000001
60,Crane Handyman Company,"2710 Southwest Ashworth Place, Topeka",39.01710449999999,-95.7589428
61,Cambridge Quartz & Granite,"5967 Southwest 29th Street, Topeka",39.01422379999999,-95.7608834
62,Batteries Plus Bulbs,"6021 Southwest 29th Street suite d, Topeka",39.0142197,-95.76449280000001
63,CVS Photo,"2835 Southwest Wanamaker Road, Topeka",39.0154318,-95.7643001
64,Walgreens Photo,"3630 Southwest Wanamaker Road, Topeka",39.0005511,-95.7615405
65,Exceptions Studios,"4042 Southwest Wanamaker Road #1348, Topeka",38.993174,-95.7617238
66,Exceptions Studios,"4042 Southwest Wanamaker Road #1348, Topeka",38.993174,-95.7617238
67,Sarre Side Studios,"Gewerbegebiet BAB1 Am Schaumberg, 66636 Theley",39.05785180000001,-95.764922
68,The Home Depot,"5900 Southwest Huntoon Street, Topeka",39.0450422,-95.7583185
69,Factory Direct Appliance,"1040 Southwest Wanamaker Road, Topeka",39.04914249999999,-95.7606364
70,Garden Center at The Home Depot,"5900 Southwest Huntoon Street, Topeka",39.0444377,-95.7584689
71,Sleep Number,"1191 Southwest Wanamaker Road Suite A, Topeka",39.0461251,-95.76215479999999
72,JOANN Fabrics and Crafts,"1133 Southwest Wanamaker Road Ste 200, Topeka",39.04617390000001,-95.7640526
73,Best Buy,"1600 Southwest Wanamaker Road, Topeka",39.0376265,-95.76087419999999
74,The Home Depot,"5900 Southwest Huntoon Street, Topeka",39.0450422,-95.7583185
75,Walmart Supercenter,"1501 Southwest Wanamaker Road, Topeka",39.0398354,-95.7646231
76,Hobby Lobby,"1900 Southwest Wanamaker Road, Topeka",39.0337954,-95.7597564
77,Walmart Photo Center,"1501 Southwest Wanamaker Road, Topeka",39.03981880000001,-95.7645465
78,Garden Center at The Home Depot,"5900 Southwest Huntoon Street, Topeka",39.0444377,-95.7584689
79,Sherwin-Williams Paint Store,"5930 Southwest 19th Terrace ste b, Topeka",39.032291,-95.760848
80,Bed Bath & Beyond,"1900 Southwest Wanamaker Road, Topeka",39.0333652,-95.76070639999999
81,"The Mattress Hub Topeka, KS","1580 Southwest Wanamaker Road, Topeka",39.0379458,-95.76054549999999
82,Mattress Firm Clearance,"1540 Southwest Wanamaker Road, Topeka",39.0388234,-95.7612401
83,Slumberland Furniture - Topeka,"1800 Southwest Wanamaker Road, Topeka",39.0345374,-95.7591509
84,Spectrum Paint,"1550 Southwest Wanamaker Road #100c, Topeka",39.0390034,-95.7603749
85,"Spring Hill, KS","5701 Southwest Drury Lane, Topeka",39.0393007,-95.7507801
86,The Floor Project - Brands for Less Topeka,"5930 Southwest 19th Terrace, Topeka",39.03225690000001,-95.7606654
87,Target,"2120 Southwest Wanamaker Road, Topeka",39.0283633,-95.75899020000001
88,Tuesday Morning - Closing Sale In Progress,"1930 Southwest Wanamaker Road Suite A1, Topeka",39.03145409999999,-95.7607299
89,Fine Design Studio,"2109 Southwest Belle Avenue, Topeka",39.0287304,-95.7509199
90,Pier 1,"1930 Southwest Wanamaker Road, Topeka",39.030175,-95.76083510000001
91,Sherwin-Williams Paint Store,"5930 Southwest 19th Terrace ste b, Topeka",39.032291,-95.760848
92,Hobby Lobby,"1900 Southwest Wanamaker Road, Topeka",39.0337954,-95.7597564
93,Carpet Plus Design Center,"1930 Southwest Wanamaker Road e, Topeka",39.0302588,-95.7609578
94,Long Lighting Studio,"2111 Southwest Belle Avenue, Topeka",39.0283345,-95.750941
95,Party America,"2010 Southwest Westport Drive, Topeka",39.0307669,-95.7566167
96,Vintage Stock,"1930 Southwest Wanamaker Road, Topeka",39.03122400000001,-95.760716
97,Bed Bath & Beyond,"1900 Southwest Wanamaker Road, Topeka",39.0333652,-95.76070639999999
98,Dollar Tree,"2180 Southwest Wanamaker Road, Topeka",39.0267477,-95.7605861
99,Lumber Liquidators Flooring,"5907 Southwest 21st Street, Topeka",39.0287151,-95.7580412
100,"Party City (In Store Shopping, Curbside Pickup, Same Day Delivery)","2010 Southwest Westport Drive, Topeka",39.0307156,-95.756562
101,Potwin Pottery,"5813 Southwest 22nd Terrace, Topeka",39.0246628,-95.7552394
102,Ashley HomeStore,"2190 Southwest Wanamaker Road, Topeka",39.026926,-95.7613846
103,The Floor Project - Brands for Less Topeka,"5930 Southwest 19th Terrace, Topeka",39.03225690000001,-95.7606654
104,Slumberland Furniture - Topeka,"1800 Southwest Wanamaker Road, Topeka",39.0345374,-95.7591509
105,Wheatland Pest Control,"2813 Southwest Westport Plaza Drive, Topeka",39.01551729999999,-95.76025249999999
106,Ricoh USA Inc,"2655 Southwest Wanamaker Road, Topeka",39.018287,-95.76294
107,Burney Van Stone Inc/officesthatwork OFUSA,"5646 Southwest 29th Street, Topeka",39.0146192,-95.75143519999999
108,Mattress By Appointment,"5624 Southwest 29th Street, Topeka",39.015176,-95.75067700000001
109,CVS Photo,"2835 Southwest Wanamaker Road, Topeka",39.0154318,-95.7643001
110,Crane Handyman Company,"2710 Southwest Ashworth Place, Topeka",39.01710449999999,-95.7589428
111,"The Appliance Shop, Inc","5646 Southwest 29th Street, Topeka",39.0154364,-95.75149379999999
112,Cambridge Quartz & Granite,"5967 Southwest 29th Street, Topeka",39.01422379999999,-95.7608834
113,Winston Brown Remodeling,"5600 Southwest 29th Street, Topeka",39.015123,-95.74989300000001
114,Potwin Pottery,"5813 Southwest 22nd Terrace, Topeka",39.0246628,-95.7552394
115,Cambridge Quartz & Granite,"5967 Southwest 29th Street, Topeka",39.01422379999999,-95.7608834
116,Walgreens Photo,"3630 Southwest Wanamaker Road, Topeka",39.0005511,-95.7615405
117,Exceptions Studios,"4042 Southwest Wanamaker Road #1348, Topeka",38.993174,-95.7617238
118,Exceptions Studios,"4042 Southwest Wanamaker Road #1348, Topeka",38.993174,-95.7617238
119,Bedsprings and Burlap,"837 Southwest Fairlawn Road, Topeka",39.0531584,-95.74375959999999
120,Dollar General,"1001 Southwest Fairlawn Road, Topeka",39.050543,-95.743894
121,Bedsprings and Burlap,"837 Southwest Fairlawn Road, Topeka",39.0531584,-95.74375959999999
122,Live Music Institute,"5224 Southwest 17th Street, Topeka",39.03680500000001,-95.744778
123,Top City Music,"5224 Southwest 17th Street, Topeka",39.03684990000001,-95.74491640000001
124,"Spring Hill, KS","5701 Southwest Drury Lane, Topeka",39.0393007,-95.7507801
125,Fine Design Studio,"2109 Southwest Belle Avenue, Topeka",39.0287304,-95.7509199
126,Sweet Baking & Candy Making Supply,"5331 Southwest 22nd Place, Topeka",39.0267815,-95.74667939999999
127,Red Door Home Store,"2131 Southwest Fairlawn Plaza Drive, Topeka",39.02759200000001,-95.746799
128,Long Lighting Studio,"2111 Southwest Belle Avenue, Topeka",39.0283345,-95.750941
129,OfficeMax,"2109 Southwest Fairlawn Plaza Drive, Topeka",39.0284258,-95.74701490000001
130,Home At Last,"5331 Southwest 22nd Place, Topeka",39.0266752,-95.7465661
131,Walgreens Photo,"2121 Southwest Fairlawn Road, Topeka",39.0282317,-95.74449609999999
132,"Animals R Us Wildlife Removal, Control, and Relocation","5232 Southwest 25th Terrace, Topeka",39.0222117,-95.74501930000001
133,Carpet One Floor & Home,"5131 Southwest 29th Street, Topeka",39.01419219999999,-95.74257109999999
134,Lebeda Mattress Factory,"5130 Southwest 29th Street, Topeka",39.0151502,-95.7429076
135,Mattress By Appointment,"5624 Southwest 29th Street, Topeka",39.015176,-95.75067700000001
136,Burney Van Stone Inc/officesthatwork OFUSA,"5646 Southwest 29th Street, Topeka",39.0146192,-95.75143519999999
137,Big Lots,"5121 Southwest 29th Street, Topeka",39.0139744,-95.7418558
138,Countertop Shoppe,"5501 Southwest 29th Street, Topeka",39.0138833,-95.7483193
139,Westlake Ace Hardware,"5001 Southwest 29th Street, Topeka",39.0137675,-95.7405495
140,Winston Brown Remodeling,"5600 Southwest 29th Street, Topeka",39.015123,-95.74989300000001
141,"Animals R Us Wildlife Removal, Control, and Relocation","5232 Southwest 25th Terrace, Topeka",39.0222117,-95.74501930000001
142,"The Appliance Shop, Inc","5646 Southwest 29th Street, Topeka",39.0154364,-95.75149379999999
143,Carpet One Floor & Home,"5131 Southwest 29th Street, Topeka",39.01419219999999,-95.74257109999999
144,All Seasons Pest Control LLC,"5212 Southwest 33rd Street, Topeka",39.0081363,-95.7447352
145,Burney Van Stone Inc/officesthatwork OFUSA,"5646 Southwest 29th Street, Topeka",39.0146192,-95.75143519999999
146,Big Lots,"5121 Southwest 29th Street, Topeka",39.0139744,-95.7418558
147,Countertop Shoppe,"5501 Southwest 29th Street, Topeka",39.0138833,-95.7483193
148,Westlake Ace Hardware,"5001 Southwest 29th Street, Topeka",39.0137675,-95.7405495
149,Winston Brown Remodeling,"5600 Southwest 29th Street, Topeka",39.015123,-95.74989300000001
150,Dollar General,"1001 Southwest Fairlawn Road, Topeka",39.050543,-95.743894
151,Live Music Institute,"5224 Southwest 17th Street, Topeka",39.03680500000001,-95.744778
152,Top City Music,"5224 Southwest 17th Street, Topeka",39.03684990000001,-95.74491640000001
153,"Wheatland Inspections Plus, LLC","2341 Southwest Winterwood Lane #1, Topeka",39.0242162,-95.735834
154,Walgreens Photo,"2121 Southwest Fairlawn Road, Topeka",39.0282317,-95.74449609999999
155,Bodine's Pest Control,"2525 Southwest Sunset Road, Topeka",39.0216187,-95.7380424
156,Carpet One Floor & Home,"5131 Southwest 29th Street, Topeka",39.01419219999999,-95.74257109999999
157,Lebeda Mattress Factory,"5130 Southwest 29th Street, Topeka",39.0151502,-95.7429076
158,"Wheatland Inspections Plus, LLC","2341 Southwest Winterwood Lane #1, Topeka",39.0242162,-95.735834
159,Big Lots,"5121 Southwest 29th Street, Topeka",39.0139744,-95.7418558
160,Westlake Ace Hardware,"5001 Southwest 29th Street, Topeka",39.0137675,-95.7405495
161,Bodine's Pest Control,"2525 Southwest Sunset Road, Topeka",39.0216187,-95.7380424
162,All Seasons Pest Control LLC,"5212 Southwest 33rd Street, Topeka",39.0081363,-95.7447352
163,Westlake Ace Hardware,"5001 Southwest 29th Street, Topeka",39.0137675,-95.7405495
164,Big Lots,"5121 Southwest 29th Street, Topeka",39.0139744,-95.7418558
165,Traveling the Vortex Studios,"3731 Southwest Moundview Court, Topeka",38.999075,-95.729842
166,Green Pest Solutions,"4100 Southwest 40th Street, Topeka",38.9948742,-95.7311921
167,Advanced Coatings Inc,"4736 Southwest Gage Boulevard, Topeka",38.9809448,-95.7296607
168,Flu Con,"2101 Northwest Brickyard Road, Topeka",39.0870279,-95.7256835
169,"Dealers Choice, A Beacon Roofing Supply Company","4008 Northwest 14th Street, Topeka",39.078099,-95.72467900000001
170,"Ozark Integrated Pest Services, Inc","4103 Northwest 16th Street, Topeka",39.0793745,-95.7256043
171,Corwin Guitar Co.,"724 Southwest Gage Boulevard, Topeka",39.05562030000001,-95.7244393
172,Kansas Guitar Exchange,"730 Southwest Gage Boulevard, Topeka",39.055437,-95.72444399999999
173,Topeka Home Repair,"1430 Southwest Woodhull Street # 3843, Topeka",39.0415571,-95.72772049999999
174,Walgreens Photo,"1001 Southwest Gage Boulevard, Topeka",39.0504686,-95.72569770000001
175,Kitchen & Bath Solutions Plus,"4028 Southwest Huntoon Street, Topeka",39.0443149,-95.72671439999999
176,Dollar General,"1401 Southwest Gage Boulevard, Topeka",39.04176109999999,-95.7259098
177,Kansas House Flipping,"1430 Southwest Woodhull Street # 3843, Topeka",39.0415571,-95.72772049999999
178,Kansas Guitar Exchange,"730 Southwest Gage Boulevard, Topeka",39.055437,-95.72444399999999
179,Topeka Home Repair,"1430 Southwest Woodhull Street # 3843, Topeka",39.0415571,-95.72772049999999
180,Heartland Wildlife Control,Topeka,39.0401557,-95.72471689999999
181,Madonna's Pearls,Topeka,39.0401557,-95.72471689999999
182,Kansas House Flipping,"1430 Southwest Woodhull Street # 3843, Topeka",39.0415571,-95.72772049999999
183,Dollar General,"1401 Southwest Gage Boulevard, Topeka",39.04176109999999,-95.7259098
184,Paramount Pest Control Inc,"1809 Southwest Gage Boulevard, Topeka",39.03463199999999,-95.725104
185,Kitchen & Bath Solutions Plus,"4028 Southwest Huntoon Street, Topeka",39.0443149,-95.72671439999999
186,CVS Photo,"3901 Southwest 21st Street, Topeka",39.0291224,-95.7256491
187,The Enchanted Willow,"2209 Southwest Gage Boulevard, Topeka",39.0269212,-95.7252331
188,Paramount Pest Control Inc,"1809 Southwest Gage Boulevard, Topeka",39.03463199999999,-95.725104
189,Walgreens Photo,"3900 Southwest 29th Street, Topeka",39.0154659,-95.7266812
190,Kansas Pest Control Association,"3601 Southwest 29th Street # 116B, Topeka",39.0145011,-95.7213086
191,"Allied Paints, INC","2818 Southwest Gage Boulevard, Topeka",39.0155742,-95.72515840000001
192,Walgreens Photo,"3900 Southwest 29th Street, Topeka",39.0154659,-95.7266812
193,"Allied Paints, INC","2818 Southwest Gage Boulevard, Topeka",39.0155742,-95.72515840000001
194,Traveling the Vortex Studios,"3731 Southwest Moundview Court, Topeka",38.999075,-95.729842
195,Sweet Adelines-Sunflower Hrmny,"3700 Southwest 38th Terrace, Topeka",38.9989779,-95.72289800000001
196,Green Pest Solutions,"4100 Southwest 40th Street, Topeka",38.9948742,-95.7311921
197,Sound Origin Productions,"4333 Southwest Misty Harbor Avenue, Topeka",38.9881276,-95.7199993
198,Advanced Coatings Inc,"4736 Southwest Gage Boulevard, Topeka",38.9809448,-95.7296607
199,Deans Pest Control Lc,"3212 River Court, Topeka",39.10455909999999,-95.7125841
200,Deans Pest Control Lc,"3212 River Court, Topeka",39.10455909999999,-95.7125841
201,Flu Con,"2101 Northwest Brickyard Road, Topeka",39.0870279,-95.7256835
202,"Dealers Choice, A Beacon Roofing Supply Company","4008 Northwest 14th Street, Topeka",39.078099,-95.72467900000001
203,"Ozark Integrated Pest Services, Inc","4103 Northwest 16th Street, Topeka",39.0793745,-95.7256043
204,Dollar Tree,"2630 Southwest 6th Avenue, Topeka",39.05918039999999,-95.7086523
205,Manning Music,"3400 Southwest 6th Avenue, Topeka",39.0588002,-95.71707269999999
206,Corwin Guitar Co.,"724 Southwest Gage Boulevard, Topeka",39.05562030000001,-95.7244393
207,Kansas Guitar Exchange,"730 Southwest Gage Boulevard, Topeka",39.055437,-95.72444399999999
208,Earthstar Recordings-Public,"1311 Southwest Campbell Avenue, Topeka",39.0430931,-95.71322149999999
209,Custom Quality Tile & More,"1044 Southwest Medford Avenue, Topeka",39.0496476,-95.7092911
210,Burney Van Stone Inc,"1298 Southwest Pembroke Lane, Topeka",39.04193049999999,-95.7163755
211,Patio Pool and Fireside,"3109 Southwest Huntoon Street, Topeka",39.04374110000001,-95.7158671
212,Soho Interiors,"3129 Southwest Huntoon Street, Topeka",39.043869,-95.7165462
213,Patio Furniture,"3105 Southwest Huntoon Street, Topeka",39.04378030000001,-95.71579969999999
214,Burney Van Stone Inc,"1298 Southwest Pembroke Lane, Topeka",39.04193049999999,-95.7163755
215,Earthstar Recordings-Public,"1311 Southwest Campbell Avenue, Topeka",39.0430931,-95.71322149999999
216,Patio Pool and Fireside,"3109 Southwest Huntoon Street, Topeka",39.04374110000001,-95.7158671
217,Patio Furniture,"3105 Southwest Huntoon Street, Topeka",39.04378030000001,-95.71579969999999
218,Soho Interiors,"3129 Southwest Huntoon Street, Topeka",39.043869,-95.7165462
219,Heartland Wildlife Control,Topeka,39.0401557,-95.72471689999999
220,Madonna's Pearls,Topeka,39.0401557,-95.72471689999999
221,The Enchanted Willow,"2209 Southwest Gage Boulevard, Topeka",39.0269212,-95.7252331
222,CVS Photo,"3901 Southwest 21st Street, Topeka",39.0291224,-95.7256491
223,Stiching Traditions Quilt Shop,"2900 Southwest Oakley Avenue, Topeka",39.0143882,-95.715617
224,Kansas Pest Control Association,"3601 Southwest 29th Street # 116B, Topeka",39.0145011,-95.7213086
225,Wheatland Antique Mall,"2905 Southwest 29th Street Ste A, Topeka",39.0141516,-95.7144319
226,Linen Tree of Topeka,"2841 Southwest 29th Street, Topeka",39.0142611,-95.714227
227,"Allied Paints, INC","2818 Southwest Gage Boulevard, Topeka",39.0155742,-95.72515840000001
228,Stiching Traditions Quilt Shop,"2900 Southwest Oakley Avenue, Topeka",39.0143882,-95.715617
229,Kansas Pest Control Association,"3601 Southwest 29th Street # 116B, Topeka",39.0145011,-95.7213086
230,Wheatland Antique Mall,"2905 Southwest 29th Street Ste A, Topeka",39.0141516,-95.7144319
231,Linen Tree of Topeka,"2841 Southwest 29th Street, Topeka",39.0142611,-95.714227
232,Sweet Adelines-Sunflower Hrmny,"3700 Southwest 38th Terrace, Topeka",38.9989779,-95.72289800000001
233,Sound Origin Productions,"4333 Southwest Misty Harbor Avenue, Topeka",38.9881276,-95.7199993
234,Kevin Head Masonry,"4703 Southwest Burlingame Road, Topeka",38.9819934,-95.71105209999999
235,Deans Pest Control Lc,"3212 River Court, Topeka",39.10455909999999,-95.7125841
236,L & R Hardwood Floors Inc,"3035 Northwest Button Road, Topeka",39.100397,-95.7065513
237,West Wood Floors,"112 Southwest Macvicar Avenue, Topeka",39.063669,-95.7061579
238,Rundown Studios,"2515 Southwest 6th Avenue, Topeka",39.058463,-95.70670469999999
239,Dollar Tree,"2630 Southwest 6th Avenue, Topeka",39.05918039999999,-95.7086523
240,West Wood Floors,"112 Southwest Macvicar Avenue, Topeka",39.063669,-95.7061579
241,Benob's Market,"2013 Southwest 6th Avenue, Topeka",39.0583909,-95.6999599
242,Dollar General,"1920 Southwest 10th Avenue, Topeka",39.0518158,-95.70123489999999
243,Custom Quality Tile & More,"1044 Southwest Medford Avenue, Topeka",39.0496476,-95.7092911
244,The Market at Macvicar,"2307 Southwest 10th Avenue, Topeka",39.05106759999999,-95.70658019999999
245,Earthstar Recordings-Public,"1311 Southwest Campbell Avenue, Topeka",39.0430931,-95.71322149999999
246,Zac Weichert Construction,"1510 Southwest Plass Avenue, Topeka",39.0394139,-95.7042918
247,That One House,"1934 Southwest Plass Avenue, Topeka",39.0369672,-95.704726
248,Golden Rule Remodeling,"2900 Southwest Macvicar Avenue, Topeka",39.0146625,-95.70606629999999
249,Golden Rule Remodeling,"2900 Southwest Macvicar Avenue, Topeka",39.0146625,-95.70606629999999
250,Michael's Resurfacing LLC,"1645 Southwest 41st Street, Topeka",38.994792,-95.69924600000002
251,Carpet Plus,"1900 Southwest 41st Street, Topeka",38.9959156,-95.7027867
252,Brickhouse Antiques,"3711 Southwest Burlingame Road, Topeka",38.9999205,-95.70640159999999
253,Kevin Head Masonry,"4703 Southwest Burlingame Road, Topeka",38.9819934,-95.71105209999999
254,A-1 Plumbing Heating Cooling Electrical,"7440 Southwest Morrill Road, Topeka",38.9317524,-95.70489850000001
255,A-1 Plumbing Heating Cooling Electrical,"7440 Southwest Morrill Road, Topeka",38.9317524,-95.70489850000001
256,AlBo Glass,"433 Southwest Woodlawn Avenue, Topeka",39.059064,-95.69548189999999
257,Benob's Market,"2013 Southwest 6th Avenue, Topeka",39.0583909,-95.6999599
258,Dollar General,"1920 Southwest 10th Avenue, Topeka",39.0518158,-95.70123489999999
259,Upholstery Professionals,"1411 Southwest 13th Street, Topeka",39.0423023,-95.695765
260,Bathroom Remodeling Pros,"1101 Southwest 8th Avenue, Topeka",39.0522755,-95.68919299999999
261,Elite Construction and Remodeling,"1246 Southwest Lincoln Street, Topeka",39.043801,-95.69398
262,Daniels Family Values Appliance,"921 Southwest 10th Street, Topeka",39.0489418,-95.6885618
263,East Coast PFI,"1411 Southwest Byron Street, Topeka",39.0376638,-95.6947594
264,Upholstery Professionals,"1411 Southwest 13th Street, Topeka",39.0423023,-95.695765
265,Elite Construction and Remodeling,"1246 Southwest Lincoln Street, Topeka",39.043801,-95.69398
266,"FATCATOGC, LLC","1707 Southwest Central Park Avenue, Topeka",39.03654249999999,-95.6904943
267,Zac Weichert Construction,"1510 Southwest Plass Avenue, Topeka",39.0394139,-95.7042918
268,That One House,"1934 Southwest Plass Avenue, Topeka",39.0369672,-95.704726
269,Time Machine Records & More,"1501 Southwest 21st Street College of Arts and Sciences, Topeka",39.0291997,-95.6957023
270,Roach Hardware,"1321 Southwest 21st Street, Topeka",39.02909019999999,-95.6951198
271,Washburn View Antique Mall,"1507 # Located behind Washburn Service Center, 109 Southwest 21st Street, Topeka",39.028339,-95.695821
272,A&J Daniels Family Values Appliance,"2024 Southwest Lincoln Street, Topeka",39.0314996,-95.6938139
273,Dollar General,"3401 Southwest Topeka Boulevard, Topeka",39.0061451,-95.68852299999999
274,Sherwin-Williams Paint Store,"3373 Southwest Topeka Boulevard, Topeka",39.00638730000001,-95.68852439999999
275,Gordmans,"3245 Southwest Topeka Boulevard, Topeka",39.00881510000001,-95.69065119999999
276,Owls Nest Topeka Antique Mall and Flea Market,"3411 Southwest Topeka Boulevard, Topeka",39.0057621,-95.68837959999999
277,Walmart Supercenter,"1301 Southwest 37th Street, Topeka",38.9984741,-95.6937866
278,Michael's Resurfacing LLC,"1645 Southwest 41st Street, Topeka",38.994792,-95.69924600000002
279,Carpet Plus,"1900 Southwest 41st Street, Topeka",38.9959156,-95.7027867
280,Walmart Photo Center,"1301 Southwest 37th Street, Topeka",38.9994451,-95.6937933
281,Wheeler's LLC Plumbing Heating & Cooling,"1609 Southwest 41st Street, Topeka",38.99511729999999,-95.69709759999999
282,Michael's Resurfacing LLC,"1645 Southwest 41st Street, Topeka",38.994792,-95.69924600000002
283,Wheeler's LLC Plumbing Heating & Cooling,"1609 Southwest 41st Street, Topeka",38.99511729999999,-95.69709759999999
284,The Home Depot Rapid Deployment Center,"5200 Southwest Wenger Street, Topeka",38.9729945,-95.6971524
285,The Home Depot Rapid Deployment Center,"5200 Southwest Wenger Street, Topeka",38.9729945,-95.6971524
286,Studio Furniture,"505 Southwest 57th Street, Topeka",38.9641481,-95.6895474
287,Rent-A-Center,"720 Southwest 6th Avenue, Topeka",39.0545765,-95.6828999
288,Seamless Guttering of Kansas,"124 Northwest Western Avenue, Topeka",39.0624687,-95.68111669999999
289,Bathroom Remodeling Pros,"1101 Southwest 8th Avenue, Topeka",39.0522755,-95.68919299999999
290,Bates Used Appliances,"620 Southwest 6th Avenue, Topeka",39.0541534,-95.6813381
291,AlBo Glass,"433 Southwest Woodlawn Avenue, Topeka",39.059064,-95.69548189999999
292,Adirondack Chairs Topeka,"1013 Southwest 6th Avenue #53, Topeka",39.0549191,-95.6871132
293,MI Restaurant Equipment Supply,"624 Southwest 6th Avenue, Topeka",39.05415800000001,-95.681531
294,Bathroom Remodeling Pros,"1101 Southwest 8th Avenue, Topeka",39.0522755,-95.68919299999999
295,Rent-A-Center,"720 Southwest 6th Avenue, Topeka",39.0545765,-95.6828999
296,Bates Used Appliances,"620 Southwest 6th Avenue, Topeka",39.0541534,-95.6813381
297,Daniels Family Values Appliance,"921 Southwest 10th Street, Topeka",39.0489418,-95.6885618
298,Contour Recording Studio,"715 Southwest 11th Street, Topeka",39.04675059999999,-95.68589229999999
299,Walgreens Photo,"1001 Southwest Topeka Boulevard, Topeka",39.0472887,-95.68266349999999
300,Adirondack Chairs Topeka,"1013 Southwest 6th Avenue #53, Topeka",39.0549191,-95.6871132
301,MI Restaurant Equipment Supply,"624 Southwest 6th Avenue, Topeka",39.05415800000001,-95.681531
302,RidQuick Termite Control,"808 Southwest 12th Street, Topeka",39.0460013,-95.6873901
303,RidQuick Termite Control,"808 Southwest 12th Street, Topeka",39.0460013,-95.6873901
304,East Coast PFI,"1411 Southwest Byron Street, Topeka",39.0376638,-95.6947594
305,"Dandy Deals 2nd Hand Store ""The Used Appliance Giant""","1801 South Kansas Avenue, Topeka",39.03547669999999,-95.6793924
306,Emde Music Shop,"1800 South Kansas Avenue, Topeka",39.0354222,-95.67872930000001
307,"FATCATOGC, LLC","1707 Southwest Central Park Avenue, Topeka",39.03654249999999,-95.6904943
308,Stearns Super Center,"1815 South Kansas Avenue, Topeka",39.035089,-95.67941499999999
309,"Gametime Living,Llc.","Southwest 15th Street, Topeka",39.0395906,-95.67876199999999
310,Roach Hardware,"1321 Southwest 21st Street, Topeka",39.02909019999999,-95.6951198
311,Time Machine Records & More,"1501 Southwest 21st Street College of Arts and Sciences, Topeka",39.0291997,-95.6957023
312,A&J Daniels Family Values Appliance,"2024 Southwest Lincoln Street, Topeka",39.0314996,-95.6938139
313,Washburn View Antique Mall,"1507 # Located behind Washburn Service Center, 109 Southwest 21st Street, Topeka",39.028339,-95.695821
314,Paint Innovations,"2740 South Kansas Avenue, Topeka",39.020198,-95.67924599999999
315,Dollar Tree,"115 Southwest 29th Street, Topeka",39.014179,-95.6831799
316,Aaron's,"400 Southwest 29th Street Ste E, Topeka",39.0161585,-95.6857052
317,Rent-A-Center,"121 Southeast 29th Street, Topeka",39.0146577,-95.6799052
318,Dollar General,"3401 Southwest Topeka Boulevard, Topeka",39.0061451,-95.68852299999999
319,Sherwin-Williams Paint Store,"3373 Southwest Topeka Boulevard, Topeka",39.00638730000001,-95.68852439999999
320,Owls Nest Topeka Antique Mall and Flea Market,"3411 Southwest Topeka Boulevard, Topeka",39.0057621,-95.68837959999999
321,Gordmans,"3245 Southwest Topeka Boulevard, Topeka",39.00881510000001,-95.69065119999999
322,Dollar Tree,"115 Southwest 29th Street, Topeka",39.014179,-95.6831799
323,"Jade's Designs Alterations & Embroidery, LLC","433 Southwest 32nd Terrace, Topeka",39.0082392,-95.68667909999999
324,Topeka Upholstery,"433 Southwest 32nd Terrace # C, Topeka",39.0082232,-95.68657879999999
325,American Freight Furniture and Mattress,"3333 South Kansas Avenue, Topeka",39.0059611,-95.68260529999999
326,Linens By Marlen,"3137 Southeast Humboldt Street, Topeka",39.00929000000001,-95.677956
327,Walgreens Photo,"3696 Southwest Topeka Boulevard, Topeka",39.0014016,-95.68693619999999
328,Walmart Supercenter,"1301 Southwest 37th Street, Topeka",38.9984741,-95.6937866
329,Walgreens Photo,"3696 Southwest Topeka Boulevard, Topeka",39.0014016,-95.68693619999999
330,RJ's Discount Store,"3729 Southwest South Park Avenue, Topeka",38.9994386,-95.6828589
331,Walmart Photo Center,"1301 Southwest 37th Street, Topeka",38.9994451,-95.6937933
332,Kansas Custom Cabinets,"4547 Southwest Topeka Boulevard, Topeka",38.9844335,-95.6882103
333,DBS Pest Control LLC Your Local Bedbug Specialist,"4445 Southeast Truman Avenue, Topeka",38.9863102,-95.6862171
334,Kansas Furniture Mart,"4547 Southwest Topeka Boulevard, Topeka",38.9844071,-95.6882328
335,Hartford Connecticut,"4440 Southeast Grand Oaks Avenue, Topeka",38.9868236,-95.68141759999999
336,Ehrlich Distribution,"4828 Southwest Topeka Boulevard, Topeka",38.9796183,-95.686427
337,Ferris Wheel Antiques,"5201 Southwest Topeka Boulevard, Topeka",38.9729401,-95.68846479999999
338,Tractor Supply Co.,"5236 Southwest Topeka Boulevard, Topeka",38.9730259,-95.6866388
339,Kansas Custom Cabinets,"4547 Southwest Topeka Boulevard, Topeka",38.9844335,-95.6882103
340,Kansas Furniture Mart,"4547 Southwest Topeka Boulevard, Topeka",38.9844071,-95.6882328
341,Terminix,"5604 Southwest Topeka Boulevard suite a, Topeka",38.96764839999999,-95.6860597
342,MKS Professional Stage Products,"5610 Southwest Topeka Boulevard # C, Topeka",38.9673607,-95.68739839999999
343,Ferris Wheel Antiques,"5201 Southwest Topeka Boulevard, Topeka",38.9729401,-95.68846479999999
344,Tractor Supply Co.,"5236 Southwest Topeka Boulevard, Topeka",38.9730259,-95.6866388
345,Always Sound Integration,"5816 Southwest Topeka Boulevard, Topeka",38.9619658,-95.6868093
346,Studio Furniture,"505 Southwest 57th Street, Topeka",38.9641481,-95.6895474
347,Bargains Plus,"5626 Southwest Topeka Boulevard suite d, Topeka",38.9660515,-95.6871154
348,Always Sound Integration,"5816 Southwest Topeka Boulevard, Topeka",38.9619658,-95.6868093
349,Studio Furniture,"505 Southwest 57th Street, Topeka",38.9641481,-95.6895474
350,The Mattress Hub,"6800 se Evan's rd, Topeka",38.94490699999999,-95.682233
351,White x White,"6930 Southeast Johnston Street, Topeka",38.9429552,-95.679935
352,Walmart Photo Center,"2600 Northwest Rochester Road, Topeka",39.0936964,-95.6717619
353,Walmart Supercenter,"2600 Northwest Rochester Road, Topeka",39.09366569999999,-95.671691
354,Sutherlands #2304,"2210 Northwest Tyler Street, Topeka",39.088441,-95.67140099999999
355,Walmart Photo Center,"2600 Northwest Rochester Road, Topeka",39.0936964,-95.6717619
356,Walmart Supercenter,"2600 Northwest Rochester Road, Topeka",39.09366569999999,-95.671691
357,Carnival Guy Party Rentals,"536 Northwest Tyler Court #201, Topeka",39.080777,-95.671233
358,Hall Floor Covering,"1437 Northwest Tyler Street, Topeka",39.0763553,-95.6735169
359,PDQ Construction Inc,"531 Northwest Tyler Court, Topeka",39.07988409999999,-95.671392
360,Seamless Guttering of Kansas,"124 Northwest Western Avenue, Topeka",39.0624687,-95.68111669999999
361,KanView Glass,"611 Northwest Gordon Street, Topeka",39.0707648,-95.6736413
362,Whitley's Pallets,"1092902034001010, Topeka",39.0679364,-95.6701592
363,Rent-A-Center,"720 Southwest 6th Avenue, Topeka",39.0545765,-95.6828999
364,Automotive & Industrial Distributors,"410 Southwest Jackson Street, Topeka",39.0544148,-95.6735586
365,Seamless Guttering of Kansas,"124 Northwest Western Avenue, Topeka",39.0624687,-95.68111669999999
366,Bates Used Appliances,"620 Southwest 6th Avenue, Topeka",39.0541534,-95.6813381
367,The Sewing Workshop,"301 South Kansas Avenue A, Topeka",39.05587689999999,-95.6719208
368,Macfee Refinishing,"127 Northwest Van Buren Street, Topeka",39.06070400000001,-95.6728064
369,One Feather Lighting,"119 Northwest Van Buren Street, Topeka",39.0602834,-95.6729976
370,Cabinets By Countertops Unlimited,Topeka,39.0584009,-95.670031
371,MI Restaurant Equipment Supply,"624 Southwest 6th Avenue, Topeka",39.05415800000001,-95.681531
372,Automotive & Industrial Distributors,"410 Southwest Jackson Street, Topeka",39.0544148,-95.6735586
373,Bottom Dollar Office Supplies & Furniture,"914 Southeast Jefferson Street, Topeka",39.0453649,-95.66922799999999
374,Wolfe's Camera Shop,"635 South Kansas Avenue, Topeka",39.050438,-95.6740797
375,Supersonic Music,"117 Southeast 6th Avenue, Topeka",39.0511162,-95.6724497
376,Bates Used Appliances,"620 Southwest 6th Avenue, Topeka",39.0541534,-95.6813381
377,The Vintage Fox,"114 Southwest 8th Avenue, Topeka",39.04924930000001,-95.675395
378,BA Designs,"117 Southeast 10th Avenue #100, Topeka",39.04547,-95.674893
379,Schendel Pest Services,"1035 Southeast Quincy Street, Topeka",39.044605,-95.675055
380,Walgreens Photo,"1001 Southwest Topeka Boulevard, Topeka",39.0472887,-95.68266349999999
381,MI Restaurant Equipment Supply,"624 Southwest 6th Avenue, Topeka",39.05415800000001,-95.681531
382,Schendel Pest Services,"1826 South Kansas Avenue, Topeka",39.0344731,-95.6787083
383,"Dandy Deals 2nd Hand Store ""The Used Appliance Giant""","1801 South Kansas Avenue, Topeka",39.03547669999999,-95.6793924
384,Emde Music Shop,"1800 South Kansas Avenue, Topeka",39.0354222,-95.67872930000001
385,Stearns Super Center,"1815 South Kansas Avenue, Topeka",39.035089,-95.67941499999999
386,RAW Construction LLC,"314 Southeast 15th Street, Topeka",39.038355,-95.67448999999999
387,"Gametime Living,Llc.","Southwest 15th Street, Topeka",39.0395906,-95.67876199999999
388,Schendel Pest Services,"1035 Southeast Quincy Street, Topeka",39.044605,-95.675055
389,BA Designs,"117 Southeast 10th Avenue #100, Topeka",39.04547,-95.674893
390,Schendel Pest Services,"1826 South Kansas Avenue, Topeka",39.0344731,-95.6787083
391,Ferguson,"2220 Southeast Lakewood Boulevard, Topeka",39.027404,-95.67496750000001
392,Emde Music Shop,"1800 South Kansas Avenue, Topeka",39.0354222,-95.67872930000001
393,Stearns Super Center,"1815 South Kansas Avenue, Topeka",39.035089,-95.67941499999999
394,Paint Innovations,"2740 South Kansas Avenue, Topeka",39.020198,-95.67924599999999
395,Heartland Floors,"516 Southeast 29th Street #103, Topeka",39.01574799999999,-95.6717429
396,Margaret B's Antiques & Vintage Collectibles,"2901 Southeast Adams Street, Topeka",39.014657,-95.67159749999999
397,Rent-A-Center,"121 Southeast 29th Street, Topeka",39.0146577,-95.6799052
398,Owls Nest Topeka Antique Mall and Flea Market - On Adams,"2901 Southeast Adams Street, Topeka",39.014657,-95.67159749999999
399,Dollar Tree,"115 Southwest 29th Street, Topeka",39.014179,-95.6831799
400,Linens By Marlen,"3137 Southeast Humboldt Street, Topeka",39.00929000000001,-95.677956
401,Home solution LLC,"3100 Southeast Humboldt Street #2938, Topeka",39.0105374,-95.6773908
402,Amanda Brandenburgh,"3305 Southeast Adams Street, Topeka",39.0077559,-95.6705935
403,American Freight Furniture and Mattress,"3333 South Kansas Avenue, Topeka",39.0059611,-95.68260529999999
404,Rent-A-Center,"121 Southeast 29th Street, Topeka",39.0146577,-95.6799052
405,RJ's Discount Store,"3729 Southwest South Park Avenue, Topeka",38.9994386,-95.6828589
406,Hartford Connecticut,"4440 Southeast Grand Oaks Avenue, Topeka",38.9868236,-95.68141759999999
407,White x White,"6930 Southeast Johnston Street, Topeka",38.9429552,-95.679935
408,The Mattress Hub,"6800 se Evan's rd, Topeka",38.94490699999999,-95.682233
409,White x White,"6930 Southeast Johnston Street, Topeka",38.9429552,-95.679935
410,A J Construction & Remodeling LLC,"2705 Northwest Topeka Boulevard, Topeka",39.0953053,-95.6650657
411,Walmart Supercenter,"2600 Northwest Rochester Road, Topeka",39.09366569999999,-95.671691
412,Walmart Photo Center,"2600 Northwest Rochester Road, Topeka",39.0936964,-95.6717619
413,Dollar General,"2042 Northwest Topeka Boulevard, Topeka",39.0870584,-95.66354059999999
414,Arrow Exteriors Inc.,"1934 Northwest Topeka Boulevard Ste A, Topeka",39.0838806,-95.6651048
415,Sutherlands #2304,"2210 Northwest Tyler Street, Topeka",39.088441,-95.67140099999999
416,Walmart Supercenter,"2600 Northwest Rochester Road, Topeka",39.09366569999999,-95.671691
417,MAJ-R Thrift - Topeka,"2020 Northwest Topeka Boulevard, Topeka",39.08591419999999,-95.6628097
418,Walmart Photo Center,"2600 Northwest Rochester Road, Topeka",39.0936964,-95.6717619
419,A J Construction & Remodeling LLC,"2705 Northwest Topeka Boulevard, Topeka",39.0953053,-95.6650657
420,Westlake Ace Hardware,"2050 Northwest Topeka Boulevard, Topeka",39.0871876,-95.6626175
421,Dollar Tree,"2046 N Southwest Topeka Boulevard, Topeka",39.0867583,-95.6626393
422,Capital City Flooring,"118 Northeast Lyman Road, Topeka",39.08839479999999,-95.6598456
423,Walgreens Photo,"2101 Northwest Topeka Boulevard, Topeka",39.0881626,-95.66546249999999
424,Carnival Guy Party Rentals,"536 Northwest Tyler Court #201, Topeka",39.080777,-95.671233
425,Arrow Exteriors Inc.,"1934 Northwest Topeka Boulevard Ste A, Topeka",39.0838806,-95.6651048
426,T & L Retail Sales - Discount Furniture,"1209 North Kansas Avenue B, Topeka",39.07228569999999,-95.66515340000001
427,Heaven Scent Flowers & Tuxedos,"1802 Northwest Topeka Boulevard, Topeka",39.0809591,-95.6665843
428,PDQ Construction Inc,"531 Northwest Tyler Court, Topeka",39.07988409999999,-95.671392
429,Hall Floor Covering,"1437 Northwest Tyler Street, Topeka",39.0763553,-95.6735169
430,TWO DAYS Monthly Market,"829 North Kansas Avenue, Topeka",39.0670566,-95.66695179999999
431,Kaw River Rustics,"901 North Kansas Avenue, Topeka",39.067811,-95.66652479999999
432,4 Girls' Garage,"837 North Kansas Avenue, Topeka",39.067342,-95.6668078
433,T & L Retail Sales - Discount Furniture,"1209 North Kansas Avenue B, Topeka",39.07228569999999,-95.66515340000001
434,Portico,"900 North Kansas Avenue, Topeka",39.0677306,-95.66625169999999
435,Rodbrown Furniture,"839 North Kansas Avenue, Topeka",39.067434,-95.6668365
436,Johnson Upholstery-Furniture,"835 North Kansas Avenue, Topeka",39.067298,-95.666895
437,CrossRoads,"833 North Kansas Avenue, Topeka",39.06729199999999,-95.66713879999999
438,Phoenix Finds NOTO,"823 North Kansas Avenue, Topeka",39.0669441,-95.6672004
439,Whitley's Pallets,"1092902034001010, Topeka",39.0679364,-95.6701592
440,KanView Glass,"611 Northwest Gordon Street, Topeka",39.0707648,-95.6736413
441,Automotive & Industrial Distributors,"410 Southwest Jackson Street, Topeka",39.0544148,-95.6735586
442,The Sewing Workshop,"301 South Kansas Avenue A, Topeka",39.05587689999999,-95.6719208
443,Orkin,"112 Southeast Monroe Street, Topeka",39.0571917,-95.66720199999999
444,Cabinets By Countertops Unlimited,Topeka,39.0584009,-95.670031
445,Macfee Refinishing,"127 Northwest Van Buren Street, Topeka",39.06070400000001,-95.6728064
446,One Feather Lighting,"119 Northwest Van Buren Street, Topeka",39.0602834,-95.6729976
447,FMOK Outlet,"140 Southeast Jefferson Street, Topeka",39.0562452,-95.66421419999999
448,Bottom Dollar Office Supplies & Furniture,"914 Southeast Jefferson Street, Topeka",39.0453649,-95.66922799999999
449,Wolfe's Camera Shop,"635 South Kansas Avenue, Topeka",39.050438,-95.6740797
450,Supersonic Music,"117 Southeast 6th Avenue, Topeka",39.0511162,-95.6724497
451,The Vintage Fox,"114 Southwest 8th Avenue, Topeka",39.04924930000001,-95.675395
452,BA Designs,"117 Southeast 10th Avenue #100, Topeka",39.04547,-95.674893
453,Bottom Dollar Office Supplies & Furniture,"914 Southeast Jefferson Street, Topeka",39.0453649,-95.66922799999999
454,Burns Recording,"1829 Southeast Pennsylvania Avenue, Topeka",39.033075,-95.6678682
455,RAW Construction LLC,"314 Southeast 15th Street, Topeka",39.038355,-95.67448999999999
456,Ferguson,"2220 Southeast Lakewood Boulevard, Topeka",39.027404,-95.67496750000001
457,Burns Recording,"1829 Southeast Pennsylvania Avenue, Topeka",39.033075,-95.6678682
458,Heartland Floors,"516 Southeast 29th Street #103, Topeka",39.01574799999999,-95.6717429
459,Margaret B's Antiques & Vintage Collectibles,"2901 Southeast Adams Street, Topeka",39.014657,-95.67159749999999
460,Second Hand Sams,"2816 Southeast Virginia Avenue, Topeka",39.0164792,-95.6645911
461,Owls Nest Topeka Antique Mall and Flea Market - On Adams,"2901 Southeast Adams Street, Topeka",39.014657,-95.67159749999999
462,Amanda Brandenburgh,"3305 Southeast Adams Street, Topeka",39.0077559,-95.6705935
463,Dollar General,"2042 Northwest Topeka Boulevard, Topeka",39.0870584,-95.66354059999999
464,MAJ-R Thrift - Topeka,"2020 Northwest Topeka Boulevard, Topeka",39.08591419999999,-95.6628097
465,Westlake Ace Hardware,"2050 Northwest Topeka Boulevard, Topeka",39.0871876,-95.6626175
466,Capital City Flooring,"118 Northeast Lyman Road, Topeka",39.08839479999999,-95.6598456
467,Dollar Tree,"2046 N Southwest Topeka Boulevard, Topeka",39.0867583,-95.6626393
468,Walgreens Photo,"2101 Northwest Topeka Boulevard, Topeka",39.0881626,-95.66546249999999
469,Shockwave Electric LLC,"1410 Northeast Seward Avenue, Topeka",39.05896249999999,-95.65148459999999
470,The Good Guys Home Remodeling Services,"527 Northeast Wilson Avenue, Topeka",39.06118439999999,-95.6523165
471,FMOK Outlet,"140 Southeast Jefferson Street, Topeka",39.0562452,-95.66421419999999
472,Goon Tunes,"2440 Southeast Illinois Avenue, Topeka",39.0228826,-95.6591777
473,Proctor Floor Coverings,"1900 Southeast 23rd Street, Topeka",39.0263361,-95.652526
474,Goon Tunes,"2440 Southeast Illinois Avenue, Topeka",39.0228826,-95.6591777
475,Dollar Tree,"2600 Southeast California Avenue, Topeka",39.0204988,-95.6507657
476,Walmart Supercenter,"2630 Southeast California Avenue, Topeka",39.0205841,-95.648674
477,Walmart Photo Center,"2630 Southeast California Avenue, Topeka",39.0205912,-95.6485077
478,Dollar General,"2500 Southeast California Avenue, Topeka",39.021902,-95.6505172
479,Walgreens Photo,"2901 Southeast California Avenue, Topeka",39.0146484,-95.6524812
480,Second Hand Sams,"2816 Southeast Virginia Avenue, Topeka",39.0164792,-95.6645911
481,Westlake Ace Hardware,"2075 Southeast 29th Street, Topeka",39.014659,-95.64873899999999
482,Walgreens Photo,"2901 Southeast California Avenue, Topeka",39.0146484,-95.6524812
483,Dollar General,"4500 Southeast California Avenue, Topeka",38.9856922,-95.6508068
484,Miller Pest Control,"2047 Southeast 53rd Street, Topeka",38.9713344,-95.64921129999999
485,Tractor Supply Co.,"710 Hwy 24 East, Topeka",39.091973,-95.647785
486,Tractor Supply Co.,"710 Hwy 24 East, Topeka",39.091973,-95.647785
487,Dollar General,"2620 Northeast Sardou Avenue, Topeka",39.0665489,-95.6376622
488,Shockwave Electric LLC,"1410 Northeast Seward Avenue, Topeka",39.05896249999999,-95.65148459999999
489,The Good Guys Home Remodeling Services,"527 Northeast Wilson Avenue, Topeka",39.06118439999999,-95.6523165
490,Dollar General,"2515 Southeast 6th Avenue St, Topeka",39.04369450000001,-95.644418
491,Dollar Tree,"2616 Southeast 6th Avenue, Topeka",39.0447533,-95.64279649999999
492,Dollar General,"2515 Southeast 6th Avenue St, Topeka",39.04369450000001,-95.644418
493,Dollar Tree,"2616 Southeast 6th Avenue, Topeka",39.0447533,-95.64279649999999
494,Proctor Floor Coverings,"1900 Southeast 23rd Street, Topeka",39.0263361,-95.652526
495,Dollar General,"2500 Southeast California Avenue, Topeka",39.021902,-95.6505172
496,Walmart Photo Center,"2630 Southeast California Avenue, Topeka",39.0205912,-95.6485077
497,Walmart Supercenter,"2630 Southeast California Avenue, Topeka",39.0205841,-95.648674
498,Dollar Tree,"2600 Southeast California Avenue, Topeka",39.0204988,-95.6507657
499,Westlake Ace Hardware,"2075 Southeast 29th Street, Topeka",39.014659,-95.64873899999999
500,Dollar General,"2500 Southeast California Avenue, Topeka",39.021902,-95.6505172
501,Walgreens Photo,"2901 Southeast California Avenue, Topeka",39.0146484,-95.6524812
502,Westlake Ace Hardware,"2075 Southeast 29th Street, Topeka",39.014659,-95.64873899999999
503,Dollar General,"4500 Southeast California Avenue, Topeka",38.9856922,-95.6508068
504,Miller Pest Control,"2047 Southeast 53rd Street, Topeka",38.9713344,-95.64921129999999
505,Grandy Zine Productions Inc,"2440 Southeast 69th Street, Berryton",38.94672499999999,-95.638773
506,Dollar General,"2620 Northeast Sardou Avenue, Topeka",39.0665489,-95.6376622
507,Dollar Tree,"2616 Southeast 6th Avenue, Topeka",39.0447533,-95.64279649999999
508,Grandy Zine Productions Inc,"2440 Southeast 69th Street, Berryton",38.94672499999999,-95.638773
509,Kalos Print Services,"3518 Southeast 21st Street, Topeka",39.0304417,-95.6167581
510,Dollar General,"3410 Southeast 29th Street, Topeka",39.015665,-95.617992
511,Great Plains Pest Control,"3803 Southeast 30th Park, Topeka",39.0124279,-95.6093111
512,Royal Buggy,"3825 Southeast Croco Road, Topeka",38.9983452,-95.61503859999999
513,Great Plains Pest Control,"3803 Southeast 30th Park, Topeka",39.0124279,-95.6093111
514,Great Plains Pest Control,"3803 Southeast 30th Park, Topeka",39.0124279,-95.6093111
515,Harris & Sons Enterprises,"3206 Southeast Arbor Drive, Topeka",39.00945300000001,-95.602819
516,Royal Buggy,"3825 Southeast Croco Road, Topeka",38.9983452,-95.61503859999999
517,Canvas Man,"2730 Northeast 35th Street, Topeka",39.110223,-95.5959869
518,Harris & Sons Enterprises,"3206 Southeast Arbor Drive, Topeka",39.00945300000001,-95.602819
