,Name,Address,Latitude,Longitude
0,K & K Liquor,"2025 Southwest Urish Road, Topeka",39.0297648,-95.781548
1,K & K Liquor,"2025 Southwest Urish Road, Topeka",39.0297648,-95.781548
2,EJ's Liquor Barn,"1001 Southwest Wanamaker Road, Topeka",39.0503719,-95.76203579999999
3,Hy-Vee,"2951 Southwest Wanamaker Road, Topeka",39.01251500000001,-95.76383
4,Devlin's Liquor Store,"2850 Southwest Wanamaker Road, Topeka",39.0151385,-95.7617222
5,Hy-Vee,"2951 Southwest Wanamaker Road, Topeka",39.01251500000001,-95.76383
6,EJ's Liquor Barn,"1001 Southwest Wanamaker Road, Topeka",39.0503719,-95.76203579999999
7,Devlin's Liquor Store,"2850 Southwest Wanamaker Road, Topeka",39.0151385,-95.7617222
8,Meyer's Wine & Spirits,"5610 Southwest 29th Street, Topeka",39.01497519999999,-95.75054209999999
9,Hy-Vee,"2951 Southwest Wanamaker Road, Topeka",39.01251500000001,-95.76383
10,Reeb's Retail Liquor,"901 Southwest Fairlawn Road, Topeka",39.0527563,-95.7437236
11,Reeb's Retail Liquor,"901 Southwest Fairlawn Road, Topeka",39.0527563,-95.7437236
12,Jacs Liquor,"5200 Southwest 21st Street, Topeka",39.029705,-95.74416099999999
13,Oak & Vine,"5331 Southwest 22nd Place Suite, Topeka",39.0265163,-95.7464048
14,Meyer's Wine & Spirits,"5610 Southwest 29th Street, Topeka",39.01497519999999,-95.75054209999999
15,Meyer's Wine & Spirits,"5610 Southwest 29th Street, Topeka",39.01497519999999,-95.75054209999999
16,Reeb's Retail Liquor,"901 Southwest Fairlawn Road, Topeka",39.0527563,-95.7437236
17,Jacs Liquor,"5200 Southwest 21st Street, Topeka",39.029705,-95.74416099999999
18,Devlins Wine & Spirits,"4301 Southwest 21st Street #103, Topeka",39.0290152,-95.7291836
19,Lynn's Liquors - 17% off Wedding Reception Wine & Liquor,"3335 Southwest Gage Boulevard, Topeka",39.0068699,-95.73079469999999
20,Vern's Retail Liquor,"3700 Southwest Gage Boulevard, Topeka",38.9999049,-95.72948699999999
21,Watkin's Liquor,"4006 Southwest Huntoon Street, Topeka",39.0443162,-95.7265333
22,Fleming Place Wine & Spirits,"4001 Southwest 10th Avenue, Topeka",39.050814,-95.7271572
23,Watkin's Liquor,"4006 Southwest Huntoon Street, Topeka",39.0443162,-95.7265333
24,Devlins Wine & Spirits,"4301 Southwest 21st Street #103, Topeka",39.0290152,-95.7291836
25,Lynn's Liquors - 17% off Wedding Reception Wine & Liquor,"3335 Southwest Gage Boulevard, Topeka",39.0068699,-95.73079469999999
26,Vern's Retail Liquor,"3700 Southwest Gage Boulevard, Topeka",38.9999049,-95.72948699999999
27,Grace Retail Liquor,Topeka,39.0293596,-95.7103686
28,Brookwood Retail Liquor,"2900 Southwest Oakley Avenue # D, Topeka",39.0146914,-95.71553929999999
29,Brookwood Retail Liquor,"2900 Southwest Oakley Avenue # D, Topeka",39.0146914,-95.71553929999999
30,Grace Retail Liquor,Topeka,39.0293596,-95.7103686
31,Charlie's Liquor,"1235 Southwest Huntoon Street, Topeka",39.04399,-95.694114
32,Charlie's Liquor,"1235 Southwest Huntoon Street, Topeka",39.04399,-95.694114
33,College Hill Liquor Store,"1501 Southwest 21st Street #125, Topeka",39.0287953,-95.6957801
34,Patty's Retail Liquor,"3705 Southwest Plaza Drive, Topeka",39.0002032,-95.69200359999999
35,Edwards Retail Liquor,"5341 Southwest Topeka Boulevard, Topeka",38.96958489999999,-95.68806939999999
36,Sixth Street Liquor Store,"520 Southwest 6th Avenue, Topeka",39.0537064,-95.6799293
37,College Hill Liquor Store,"1501 Southwest 21st Street #125, Topeka",39.0287953,-95.6957801
38,Murphy's Liquor Exchange,"400 Southwest 29th Street, Topeka",39.01611490000001,-95.6858974
39,Cyrus K's Liquor,"2901 Southwest Topeka Boulevard, Topeka",39.0146946,-95.68793529999999
40,Cyrus K's Liquor,"2901 Southwest Topeka Boulevard, Topeka",39.0146946,-95.68793529999999
41,Patty's Retail Liquor,"3705 Southwest Plaza Drive, Topeka",39.0002032,-95.69200359999999
42,Edwards Retail Liquor,"5341 Southwest Topeka Boulevard, Topeka",38.96958489999999,-95.68806939999999
43,NOTO Wine & Spirits,"910 Northwest 25th Street ste c, Topeka",39.09341149999999,-95.6759538
44,NOTO Wine & Spirits,"910 Northwest 25th Street ste c, Topeka",39.09341149999999,-95.6759538
45,Sixth Street Liquor Store,"520 Southwest 6th Avenue, Topeka",39.0537064,-95.6799293
46,Sixth Street Liquor Store,"520 Southwest 6th Avenue, Topeka",39.0537064,-95.6799293
47,Neighborhood Liquor,"810 Southeast 15th Street Suite 1, Topeka",39.03722609999999,-95.66830999999999
48,Cîroc Neighborhood Liquor,Topeka,39.0372917,-95.6680514
49,Top City Liquor,"517 Southeast 37th Street, Topeka",39.0003162,-95.67183829999999
50,Barrel House Liquor,"230 Northwest Lyman Road, Topeka",39.08801630000001,-95.66346109999999
51,North Side Liquor,"232 Northwest Independence Avenue, Topeka",39.0852546,-95.6636888
52,North Side Liquor,"232 Northwest Independence Avenue, Topeka",39.0852546,-95.6636888
53,Cromier II liquor,"1107 Southeast 6th Avenue, Topeka",39.047875,-95.6597053
54,Neighborhood Liquor,"810 Southeast 15th Street Suite 1, Topeka",39.03722609999999,-95.66830999999999
55,Cîroc Neighborhood Liquor,Topeka,39.0372917,-95.6680514
56,Won's liquors,"2121 Southeast Virginia Avenue, Topeka",39.0293191,-95.6650025
57,Top City Liquor,"517 Southeast 37th Street, Topeka",39.0003162,-95.67183829999999
58,Barrel House Liquor,"230 Northwest Lyman Road, Topeka",39.08801630000001,-95.66346109999999
59,North Side Liquor,"232 Northwest Independence Avenue, Topeka",39.0852546,-95.6636888
60,Oakland Express Liquor & Wines,"1118 Northeast Seward Avenue, Topeka",39.059092,-95.6546475
61,Cromier II liquor,"1107 Southeast 6th Avenue, Topeka",39.047875,-95.6597053
62,Won's liquors,"2121 Southeast Virginia Avenue, Topeka",39.0293191,-95.6650025
63,Cormier Retail Liquor,"2611 Southeast California Avenue, Topeka",39.0203719,-95.6516621
64,Stadler Retail Liquor,"2210 Northeast Sardou Avenue, Topeka",39.06637,-95.642899
65,Oakland Express Liquor & Wines,"1118 Northeast Seward Avenue, Topeka",39.059092,-95.6546475
66,Cormier Retail Liquor,"2611 Southeast California Avenue, Topeka",39.0203719,-95.6516621
67,Grattidge Liquor Store,"2069 Southeast 29th Street, Topeka",39.01430149999999,-95.6488517
68,Grattidge Liquor Store,"2069 Southeast 29th Street, Topeka",39.01430149999999,-95.6488517
69,Stadler Retail Liquor,"2210 Northeast Sardou Avenue, Topeka",39.06637,-95.642899
70,Eastside Liquor,"3101 Southeast 6th Avenue, Topeka",39.0439921,-95.63684029999999
71,Eastside Liquor,"3101 Southeast 6th Avenue, Topeka",39.0439921,-95.63684029999999
72,Dock,"2838 Southeast 29th Street, Topeka",39.0154782,-95.63156339999999
73,Dock,"2838 Southeast 29th Street, Topeka",39.0154782,-95.63156339999999
74,Lakeside Wine & Spirits,"3627 Southeast 29th Street # 104, Topeka",39.0141017,-95.6122585
75,Lakeside Wine & Spirits,"3627 Southeast 29th Street # 104, Topeka",39.0141017,-95.6122585
76,Lakeside Wine & Spirits,"3627 Southeast 29th Street # 104, Topeka",39.0141017,-95.6122585
77,Lakeside Wine & Spirits,"3627 Southeast 29th Street # 104, Topeka",39.0141017,-95.6122585
