,Name,Address,Latitude,Longitude
0,Ball Custom Kitchens,"1431 Southwest Auburn Road, Topeka",39.040745,-95.81758559999999
1,Dollar General,"1420 North Washington Street, Auburn",38.9130918,-95.81747270000001
2,Greer House Antiques,"3015 Southwest Lagito Drive, Topeka",39.0111409,-95.8067635
3,Cambridge Kitchen & Bath,"2025 Southwest Urish Road Suite 110, Topeka",39.0295984,-95.7816304
4,Davis Electric Construction,"2850 Southwest Mission Woods Drive, Topeka",39.0153708,-95.77874840000001
5,Menards,"6401 Southwest 17th Street, Topeka",39.03508749999999,-95.7714004
6,Lowe's Home Improvement,"1621 Southwest Arvonia Place, Topeka",39.0375402,-95.7680397
7,Wild Bird House,"2901 Southwest 29th Street, Topeka",39.0142492,-95.7759416
8,Sarre Side Studios,"Gewerbegebiet BAB1 Am Schaumberg, 66636 Theley",39.05785180000001,-95.764922
9,JOANN Fabrics and Crafts,"1133 Southwest Wanamaker Road Ste 200, Topeka",39.04617390000001,-95.7640526
10,Sleep Number,"1191 Southwest Wanamaker Road Suite A, Topeka",39.0461251,-95.7621548
11,Factory Direct Appliance,"1040 Southwest Wanamaker Road, Topeka",39.04914249999999,-95.76063640000001
12,Best Buy,"1600 Southwest Wanamaker Road, Topeka",39.0376265,-95.7608742
13,JCPenney,"1821 Southwest Wanamaker Road, Topeka",39.0328446,-95.7657039
14,Walmart Supercenter,"1501 Southwest Wanamaker Road, Topeka",39.0398354,-95.7646231
15,Dillard's,"1791 Southwest Wanamaker Road, Topeka",39.0336937,-95.7643793
16,Walmart Photo Center,"1501 Southwest Wanamaker Road, Topeka",39.039818800000006,-95.7645465
17,Bath & Body Works,"1801 Southwest Wanamaker Road, Topeka",39.03339729999999,-95.7667496
18,Hot Topic,"1801 Southwest Wanamaker Road STE G20, Topeka",39.03265529999999,-95.7663738
19,Hobby Lobby,"1900 Southwest Wanamaker Road, Topeka",39.033795399999995,-95.7597564
20,"The Mattress Hub Topeka, KS","1580 Southwest Wanamaker Road, Topeka",39.037945799999996,-95.7605455
21,Mattress Headquarters,"1901 Southwest Wanamaker Road suite e, Topeka",39.03123860000001,-95.766208
22,Mattress Firm Clearance,"1540 Southwest Wanamaker Road, Topeka",39.0388234,-95.7612401
23,Bed Bath & Beyond,"1900 Southwest Wanamaker Road, Topeka",39.0333652,-95.7607064
24,Spectrum Paint,"1550 Southwest Wanamaker Road #100c, Topeka",39.0390034,-95.7603749
25,Kirkland's,"1801 SW Wanamaker Rd Suite C06b, Topeka",39.03203389999999,-95.7660808
26,RoomMakers,"1901 Southwest Wanamaker Road, Topeka",39.0313365,-95.7662103
27,Slumberland Furniture - Topeka,"1800 Southwest Wanamaker Road, Topeka",39.0345374,-95.75915090000001
28,Discovery Furniture,"1901 Southwest Wanamaker Road, Topeka",39.03136579999999,-95.7658163
29,Furniture Mall of Kansas,"1901 Southwest Wanamaker Road, Topeka",39.03121229999999,-95.7661756
30,Target,"2120 Southwest Wanamaker Road, Topeka",39.028363299999995,-95.7589902
31,Tuesday Morning - Closing Sale In Progress,"1930 Southwest Wanamaker Road Suite A1, Topeka",39.03145409999999,-95.76072990000002
32,Pier 1,"1930 Southwest Wanamaker Road, Topeka",39.030175,-95.7608351
33,Sherwin-Williams Paint Store,"5930 Southwest 19th Terrace ste b, Topeka",39.032291,-95.760848
34,Carpet Plus Design Center,"1930 Southwest Wanamaker Road e, Topeka",39.0302588,-95.7609578
35,Vintage Stock,"1930 Southwest Wanamaker Road, Topeka",39.03122400000001,-95.760716
36,Dollar Tree,"2180 Southwest Wanamaker Road, Topeka",39.0267477,-95.7605861
37,Ashley HomeStore,"2190 Southwest Wanamaker Road, Topeka",39.026926,-95.76138459999999
38,The Floor Project - Brands for Less Topeka,"5930 Southwest 19th Terrace, Topeka",39.03225690000001,-95.76066540000001
39,Lumber Liquidators Flooring,"5907 Southwest 21st Street, Topeka",39.0287151,-95.75804120000001
40,Ricoh USA Inc,"2655 Southwest Wanamaker Road, Topeka",39.018287,-95.76294
41,CVS Photo,"2835 Southwest Wanamaker Road, Topeka",39.015431799999995,-95.7643001
42,Wheatland Pest Control,"2813 Southwest Westport Plaza Drive, Topeka",39.01551729999999,-95.7602525
43,Batteries Plus Bulbs,"6021 Southwest 29th Street suite d, Topeka",39.014219700000005,-95.7644928
44,Crane Handyman Company,"2710 Southwest Ashworth Place, Topeka",39.01710449999999,-95.7589428
45,Cambridge Quartz & Granite,"5967 Southwest 29th Street, Topeka",39.01422379999999,-95.7608834
46,Walgreens Photo,"3630 Southwest Wanamaker Road, Topeka",39.0005511,-95.76154050000001
47,Exceptions Studios,"4042 Southwest Wanamaker Road #1348, Topeka",38.993173999999996,-95.7617238
48,The Home Depot,"5900 Southwest Huntoon Street, Topeka",39.045042200000005,-95.7583185
49,Garden Center at The Home Depot,"5900 Southwest Huntoon Street, Topeka",39.0444377,-95.7584689
50,"Spring Hill, KS","5701 Southwest Drury Lane, Topeka",39.039300700000005,-95.7507801
51,Fine Design Studio,"2109 Southwest Belle Avenue, Topeka",39.0287304,-95.7509199
52,Long Lighting Studio,"2111 Southwest Belle Avenue, Topeka",39.0283345,-95.750941
53,Party America,"2010 Southwest Westport Drive, Topeka",39.030766899999996,-95.7566167
54,"Party City (In Store Shopping, Curbside Pickup, Same Day Delivery)","2010 Southwest Westport Drive, Topeka",39.0307156,-95.756562
55,Potwin Pottery,"5813 Southwest 22nd Terrace, Topeka",39.024662799999994,-95.75523940000001
56,Burney Van Stone Inc/officesthatwork OFUSA,"5646 Southwest 29th Street, Topeka",39.014619200000006,-95.7514352
57,Mattress By Appointment,"5624 Southwest 29th Street, Topeka",39.015176000000004,-95.750677
58,"The Appliance Shop, Inc","5646 Southwest 29th Street, Topeka",39.0154364,-95.7514938
59,Winston Brown Remodeling,"5600 Southwest 29th Street, Topeka",39.015122999999996,-95.749893
60,Bedsprings and Burlap,"837 Southwest Fairlawn Road, Topeka",39.053158399999994,-95.7437596
61,Dollar General,"1001 Southwest Fairlawn Road, Topeka",39.050543,-95.743894
62,Live Music Institute,"5224 Southwest 17th Street, Topeka",39.03680500000001,-95.744778
63,Top City Music,"5224 Southwest 17th Street, Topeka",39.03684990000001,-95.7449164
64,Sweet Baking & Candy Making Supply,"5331 Southwest 22nd Place, Topeka",39.0267815,-95.7466794
65,Red Door Home Store,"2131 Southwest Fairlawn Plaza Drive, Topeka",39.02759200000001,-95.746799
66,OfficeMax,"2109 Southwest Fairlawn Plaza Drive, Topeka",39.028425799999994,-95.7470149
67,Home At Last,"5331 Southwest 22nd Place, Topeka",39.02667520000001,-95.7465661
68,Walgreens Photo,"2121 Southwest Fairlawn Road, Topeka",39.028231700000006,-95.7444961
69,"Animals R Us Wildlife Removal, Control, and Relocation","5232 Southwest 25th Terrace, Topeka",39.0222117,-95.7450193
70,Carpet One Floor & Home,"5131 Southwest 29th Street, Topeka",39.01419219999999,-95.7425711
71,Lebeda Mattress Factory,"5130 Southwest 29th Street, Topeka",39.0151502,-95.7429076
72,Big Lots,"5121 Southwest 29th Street, Topeka",39.0139744,-95.7418558
73,Countertop Shoppe,"5501 Southwest 29th Street, Topeka",39.013883299999996,-95.74831929999999
74,Westlake Ace Hardware,"5001 Southwest 29th Street, Topeka",39.0137675,-95.7405495
75,All Seasons Pest Control LLC,"5212 Southwest 33rd Street, Topeka",39.0081363,-95.74473520000001
76,"Wheatland Inspections Plus, LLC","2341 Southwest Winterwood Lane #1, Topeka",39.0242162,-95.735834
77,Bodine's Pest Control,"2525 Southwest Sunset Road, Topeka",39.021618700000005,-95.73804240000001
78,Traveling the Vortex Studios,"3731 Southwest Moundview Court, Topeka",38.999075,-95.729842
79,Green Pest Solutions,"4100 Southwest 40th Street, Topeka",38.994874200000005,-95.7311921
80,Advanced Coatings Inc,"4736 Southwest Gage Boulevard, Topeka",38.980944799999996,-95.72966070000001
81,Flu Con,"2101 Northwest Brickyard Road, Topeka",39.087027899999995,-95.7256835
82,"Dealers Choice, A Beacon Roofing Supply Company","4008 Northwest 14th Street, Topeka",39.078099,-95.724679
83,"Ozark Integrated Pest Services, Inc","4103 Northwest 16th Street, Topeka",39.0793745,-95.7256043
84,Corwin Guitar Co.,"724 Southwest Gage Boulevard, Topeka",39.05562030000001,-95.72443929999999
85,Kansas Guitar Exchange,"730 Southwest Gage Boulevard, Topeka",39.055437,-95.724444
86,Topeka Home Repair,"1430 Southwest Woodhull Street # 3843, Topeka",39.0415571,-95.7277205
87,Walgreens Photo,"1001 Southwest Gage Boulevard, Topeka",39.0504686,-95.7256977
88,Kitchen & Bath Solutions Plus,"4028 Southwest Huntoon Street, Topeka",39.044314899999996,-95.7267144
89,Dollar General,"1401 Southwest Gage Boulevard, Topeka",39.04176109999999,-95.7259098
90,Kansas House Flipping,"1430 Southwest Woodhull Street # 3843, Topeka",39.0415571,-95.7277205
91,Heartland Wildlife Control,Topeka,39.0401557,-95.7247169
92,Madonna's Pearls,Topeka,39.0401557,-95.7247169
93,Paramount Pest Control Inc,"1809 Southwest Gage Boulevard, Topeka",39.03463199999999,-95.725104
94,CVS Photo,"3901 Southwest 21st Street, Topeka",39.0291224,-95.7256491
95,The Enchanted Willow,"2209 Southwest Gage Boulevard, Topeka",39.026921200000004,-95.72523309999998
96,Walgreens Photo,"3900 Southwest 29th Street, Topeka",39.015465899999995,-95.7266812
97,Kansas Pest Control Association,"3601 Southwest 29th Street # 116B, Topeka",39.0145011,-95.72130859999999
98,"Allied Paints, INC","2818 Southwest Gage Boulevard, Topeka",39.0155742,-95.7251584
99,Sweet Adelines-Sunflower Hrmny,"3700 Southwest 38th Terrace, Topeka",38.9989779,-95.722898
100,Sound Origin Productions,"4333 Southwest Misty Harbor Avenue, Topeka",38.9881276,-95.7199993
101,Deans Pest Control Lc,"3212 River Court, Topeka",39.10455909999999,-95.71258409999999
102,Dollar Tree,"2630 Southwest 6th Avenue, Topeka",39.05918039999999,-95.7086523
103,Manning Music,"3400 Southwest 6th Avenue, Topeka",39.0588002,-95.7170727
104,Earthstar Recordings-Public,"1311 Southwest Campbell Avenue, Topeka",39.04309310000001,-95.7132215
105,Custom Quality Tile & More,"1044 Southwest Medford Avenue, Topeka",39.0496476,-95.7092911
106,Burney Van Stone Inc,"1298 Southwest Pembroke Lane, Topeka",39.04193049999999,-95.7163755
107,Patio Pool and Fireside,"3109 Southwest Huntoon Street, Topeka",39.04374110000001,-95.7158671
108,Soho Interiors,"3129 Southwest Huntoon Street, Topeka",39.043869,-95.71654620000001
109,Patio Furniture,"3105 Southwest Huntoon Street, Topeka",39.04378030000001,-95.7157997
110,Stiching Traditions Quilt Shop,"2900 Southwest Oakley Avenue, Topeka",39.014388200000006,-95.71561700000001
111,Wheatland Antique Mall,"2905 Southwest 29th Street Ste A, Topeka",39.0141516,-95.71443190000001
112,Linen Tree of Topeka,"2841 Southwest 29th Street, Topeka",39.014261100000006,-95.71422700000001
113,Kevin Head Masonry,"4703 Southwest Burlingame Road, Topeka",38.9819934,-95.7110521
114,L & R Hardwood Floors Inc,"3035 Northwest Button Road, Topeka",39.100396999999994,-95.70655129999999
115,West Wood Floors,"112 Southwest Macvicar Avenue, Topeka",39.063669,-95.70615790000001
116,Rundown Studios,"2515 Southwest 6th Avenue, Topeka",39.058463,-95.7067047
117,Benob's Market,"2013 Southwest 6th Avenue, Topeka",39.0583909,-95.69995990000001
118,Dollar General,"1920 Southwest 10th Avenue, Topeka",39.0518158,-95.7012349
119,The Market at Macvicar,"2307 Southwest 10th Avenue, Topeka",39.05106759999999,-95.7065802
120,Zac Weichert Construction,"1510 Southwest Plass Avenue, Topeka",39.0394139,-95.7042918
121,That One House,"1934 Southwest Plass Avenue, Topeka",39.0369672,-95.70472600000001
122,Golden Rule Remodeling,"2900 Southwest Macvicar Avenue, Topeka",39.0146625,-95.7060663
123,Michael's Resurfacing LLC,"1645 Southwest 41st Street, Topeka",38.994792,-95.69924600000002
124,Carpet Plus,"1900 Southwest 41st Street, Topeka",38.995915600000004,-95.7027867
125,Brickhouse Antiques,"3711 Southwest Burlingame Road, Topeka",38.9999205,-95.7064016
126,A-1 Plumbing Heating Cooling Electrical,"7440 Southwest Morrill Road, Topeka",38.9317524,-95.7048985
127,AlBo Glass,"433 Southwest Woodlawn Avenue, Topeka",39.059064,-95.6954819
128,Upholstery Professionals,"1411 Southwest 13th Street, Topeka",39.042302299999996,-95.69576500000001
129,Bathroom Remodeling Pros,"1101 Southwest 8th Avenue, Topeka",39.0522755,-95.689193
130,Elite Construction and Remodeling,"1246 Southwest Lincoln Street, Topeka",39.043801,-95.69398000000001
131,Daniels Family Values Appliance,"921 Southwest 10th Street, Topeka",39.048941799999994,-95.6885618
132,East Coast PFI,"1411 Southwest Byron Street, Topeka",39.0376638,-95.69475940000001
133,"FATCATOGC, LLC","1707 Southwest Central Park Avenue, Topeka",39.03654249999999,-95.6904943
134,Time Machine Records & More,"1501 Southwest 21st Street College of Arts and Sciences, Topeka",39.02919970000001,-95.6957023
135,Roach Hardware,"1321 Southwest 21st Street, Topeka",39.02909019999999,-95.6951198
136,Washburn View Antique Mall,"1507 # Located behind Washburn Service Center, 109 Southwest 21st Street, Topeka",39.028339,-95.695821
137,A&J Daniels Family Values Appliance,"2024 Southwest Lincoln Street, Topeka",39.031499600000004,-95.69381390000001
138,Dollar General,"3401 Southwest Topeka Boulevard, Topeka",39.0061451,-95.688523
139,Sherwin-Williams Paint Store,"3373 Southwest Topeka Boulevard, Topeka",39.00638730000001,-95.6885244
140,Gordmans,"3245 Southwest Topeka Boulevard, Topeka",39.00881510000001,-95.6906512
141,Owls Nest Topeka Antique Mall and Flea Market,"3411 Southwest Topeka Boulevard, Topeka",39.005762100000005,-95.6883796
142,Walmart Supercenter,"1301 Southwest 37th Street, Topeka",38.9984741,-95.6937866
143,Walmart Photo Center,"1301 Southwest 37th Street, Topeka",38.9994451,-95.6937933
144,Wheeler's LLC Plumbing Heating & Cooling,"1609 Southwest 41st Street, Topeka",38.99511729999999,-95.6970976
145,The Home Depot Rapid Deployment Center,"5200 Southwest Wenger Street, Topeka",38.9729945,-95.69715240000001
146,Studio Furniture,"505 Southwest 57th Street, Topeka",38.9641481,-95.68954740000001
147,Rent-A-Center,"720 Southwest 6th Avenue, Topeka",39.0545765,-95.68289990000001
148,Seamless Guttering of Kansas,"124 Northwest Western Avenue, Topeka",39.062468700000004,-95.6811167
149,Bates Used Appliances,"620 Southwest 6th Avenue, Topeka",39.0541534,-95.68133809999999
150,Adirondack Chairs Topeka,"1013 Southwest 6th Avenue #53, Topeka",39.0549191,-95.6871132
151,MI Restaurant Equipment Supply,"624 Southwest 6th Avenue, Topeka",39.05415800000001,-95.681531
152,Contour Recording Studio,"715 Southwest 11th Street, Topeka",39.04675059999999,-95.6858923
153,Walgreens Photo,"1001 Southwest Topeka Boulevard, Topeka",39.0472887,-95.6826635
154,RidQuick Termite Control,"808 Southwest 12th Street, Topeka",39.0460013,-95.6873901
155,"Dandy Deals 2nd Hand Store ""The Used Appliance Giant""","1801 South Kansas Avenue, Topeka",39.03547669999999,-95.67939240000001
156,Emde Music Shop,"1800 South Kansas Avenue, Topeka",39.0354222,-95.6787293
157,Stearns Super Center,"1815 South Kansas Avenue, Topeka",39.035089,-95.679415
158,"Gametime Living,Llc.","Southwest 15th Street, Topeka",39.039590600000004,-95.678762
159,Paint Innovations,"2740 South Kansas Avenue, Topeka",39.020198,-95.679246
160,Dollar Tree,"115 Southwest 29th Street, Topeka",39.014179,-95.68317990000001
161,Aaron's,"400 Southwest 29th Street Ste E, Topeka",39.0161585,-95.6857052
162,Rent-A-Center,"121 Southeast 29th Street, Topeka",39.01465770000001,-95.67990520000001
163,"Jade's Designs Alterations & Embroidery, LLC","433 Southwest 32nd Terrace, Topeka",39.008239200000006,-95.6866791
164,Topeka Upholstery,"433 Southwest 32nd Terrace # C, Topeka",39.0082232,-95.6865788
165,American Freight Furniture and Mattress,"3333 South Kansas Avenue, Topeka",39.0059611,-95.6826053
166,Linens By Marlen,"3137 Southeast Humboldt Street, Topeka",39.00929000000001,-95.67795600000001
167,Walgreens Photo,"3696 Southwest Topeka Boulevard, Topeka",39.0014016,-95.6869362
168,RJ's Discount Store,"3729 Southwest South Park Avenue, Topeka",38.9994386,-95.6828589
169,Kansas Custom Cabinets,"4547 Southwest Topeka Boulevard, Topeka",38.9844335,-95.6882103
170,DBS Pest Control LLC Your Local Bedbug Specialist,"4445 Southeast Truman Avenue, Topeka",38.9863102,-95.6862171
171,Kansas Furniture Mart,"4547 Southwest Topeka Boulevard, Topeka",38.9844071,-95.6882328
172,Hartford Connecticut,"4440 Southeast Grand Oaks Avenue, Topeka",38.9868236,-95.6814176
173,Ehrlich Distribution,"4828 Southwest Topeka Boulevard, Topeka",38.9796183,-95.686427
174,Ferris Wheel Antiques,"5201 Southwest Topeka Boulevard, Topeka",38.9729401,-95.6884648
175,Tractor Supply Co.,"5236 Southwest Topeka Boulevard, Topeka",38.973025899999996,-95.6866388
176,Terminix,"5604 Southwest Topeka Boulevard suite a, Topeka",38.96764839999999,-95.6860597
177,MKS Professional Stage Products,"5610 Southwest Topeka Boulevard # C, Topeka",38.9673607,-95.6873984
178,Always Sound Integration,"5816 Southwest Topeka Boulevard, Topeka",38.9619658,-95.6868093
179,Bargains Plus,"5626 Southwest Topeka Boulevard suite d, Topeka",38.9660515,-95.68711540000001
180,The Mattress Hub,"6800 se Evan's rd, Topeka",38.94490699999999,-95.682233
181,White x White,"6930 Southeast Johnston Street, Topeka",38.9429552,-95.679935
182,Walmart Photo Center,"2600 Northwest Rochester Road, Topeka",39.0936964,-95.6717619
183,Walmart Supercenter,"2600 Northwest Rochester Road, Topeka",39.09366569999999,-95.67169100000001
184,Sutherlands #2304,"2210 Northwest Tyler Street, Topeka",39.088440999999996,-95.671401
185,Carnival Guy Party Rentals,"536 Northwest Tyler Court #201, Topeka",39.080777000000005,-95.671233
186,Hall Floor Covering,"1437 Northwest Tyler Street, Topeka",39.076355299999996,-95.67351690000001
187,PDQ Construction Inc,"531 Northwest Tyler Court, Topeka",39.079884099999994,-95.671392
188,KanView Glass,"611 Northwest Gordon Street, Topeka",39.0707648,-95.6736413
189,Whitley's Pallets,"1092902034001010, Topeka",39.0679364,-95.6701592
190,Automotive & Industrial Distributors,"410 Southwest Jackson Street, Topeka",39.054414799999996,-95.67355859999999
191,The Sewing Workshop,"301 South Kansas Avenue A, Topeka",39.05587689999999,-95.6719208
192,Macfee Refinishing,"127 Northwest Van Buren Street, Topeka",39.06070400000001,-95.6728064
193,One Feather Lighting,"119 Northwest Van Buren Street, Topeka",39.060283399999996,-95.67299759999999
194,Cabinets By Countertops Unlimited,Topeka,39.058400899999995,-95.67003100000001
195,Bottom Dollar Office Supplies & Furniture,"914 Southeast Jefferson Street, Topeka",39.045364899999996,-95.669228
196,Wolfe's Camera Shop,"635 South Kansas Avenue, Topeka",39.050438,-95.67407970000001
197,Supersonic Music,"117 Southeast 6th Avenue, Topeka",39.0511162,-95.6724497
198,The Vintage Fox,"114 Southwest 8th Avenue, Topeka",39.04924930000001,-95.675395
199,BA Designs,"117 Southeast 10th Avenue #100, Topeka",39.04547,-95.67489300000001
200,Schendel Pest Services,"1035 Southeast Quincy Street, Topeka",39.044605,-95.675055
201,Schendel Pest Services,"1826 South Kansas Avenue, Topeka",39.0344731,-95.6787083
202,RAW Construction LLC,"314 Southeast 15th Street, Topeka",39.038354999999996,-95.67449
203,Ferguson,"2220 Southeast Lakewood Boulevard, Topeka",39.027404,-95.6749675
204,Heartland Floors,"516 Southeast 29th Street #103, Topeka",39.01574799999999,-95.6717429
205,Margaret B's Antiques & Vintage Collectibles,"2901 Southeast Adams Street, Topeka",39.014657,-95.6715975
206,Owls Nest Topeka Antique Mall and Flea Market - On Adams,"2901 Southeast Adams Street, Topeka",39.014657,-95.6715975
207,Home solution LLC,"3100 Southeast Humboldt Street #2938, Topeka",39.010537400000004,-95.6773908
208,Amanda Brandenburgh,"3305 Southeast Adams Street, Topeka",39.0077559,-95.67059350000001
209,A J Construction & Remodeling LLC,"2705 Northwest Topeka Boulevard, Topeka",39.09530529999999,-95.6650657
210,Dollar General,"2042 Northwest Topeka Boulevard, Topeka",39.0870584,-95.6635406
211,Arrow Exteriors Inc.,"1934 Northwest Topeka Boulevard Ste A, Topeka",39.0838806,-95.6651048
212,MAJ-R Thrift - Topeka,"2020 Northwest Topeka Boulevard, Topeka",39.08591419999999,-95.66280970000001
213,Westlake Ace Hardware,"2050 Northwest Topeka Boulevard, Topeka",39.0871876,-95.66261750000001
214,Dollar Tree,"2046 N Southwest Topeka Boulevard, Topeka",39.0867583,-95.6626393
215,Capital City Flooring,"118 Northeast Lyman Road, Topeka",39.08839479999999,-95.65984559999998
216,Walgreens Photo,"2101 Northwest Topeka Boulevard, Topeka",39.0881626,-95.6654625
217,T & L Retail Sales - Discount Furniture,"1209 North Kansas Avenue B, Topeka",39.07228569999999,-95.6651534
218,Heaven Scent Flowers & Tuxedos,"1802 Northwest Topeka Boulevard, Topeka",39.0809591,-95.6665843
219,TWO DAYS Monthly Market,"829 North Kansas Avenue, Topeka",39.0670566,-95.6669518
220,Kaw River Rustics,"901 North Kansas Avenue, Topeka",39.067811,-95.6665248
221,4 Girls' Garage,"837 North Kansas Avenue, Topeka",39.067342,-95.6668078
222,Portico,"900 North Kansas Avenue, Topeka",39.067730600000004,-95.6662517
223,Rodbrown Furniture,"839 North Kansas Avenue, Topeka",39.067434000000006,-95.6668365
224,Johnson Upholstery-Furniture,"835 North Kansas Avenue, Topeka",39.067298,-95.666895
225,CrossRoads,"833 North Kansas Avenue, Topeka",39.06729199999999,-95.6671388
226,Phoenix Finds NOTO,"823 North Kansas Avenue, Topeka",39.0669441,-95.66720040000001
227,Orkin,"112 Southeast Monroe Street, Topeka",39.057191700000004,-95.667202
228,FMOK Outlet,"140 Southeast Jefferson Street, Topeka",39.056245200000006,-95.6642142
229,Burns Recording,"1829 Southeast Pennsylvania Avenue, Topeka",39.033075,-95.6678682
230,Second Hand Sams,"2816 Southeast Virginia Avenue, Topeka",39.0164792,-95.6645911
231,Shockwave Electric LLC,"1410 Northeast Seward Avenue, Topeka",39.05896249999999,-95.6514846
232,The Good Guys Home Remodeling Services,"527 Northeast Wilson Avenue, Topeka",39.06118439999999,-95.6523165
233,Goon Tunes,"2440 Southeast Illinois Avenue, Topeka",39.0228826,-95.6591777
234,Proctor Floor Coverings,"1900 Southeast 23rd Street, Topeka",39.0263361,-95.652526
235,Dollar Tree,"2600 Southeast California Avenue, Topeka",39.0204988,-95.6507657
236,Walmart Supercenter,"2630 Southeast California Avenue, Topeka",39.0205841,-95.648674
237,Walmart Photo Center,"2630 Southeast California Avenue, Topeka",39.0205912,-95.64850770000001
238,Dollar General,"2500 Southeast California Avenue, Topeka",39.021902000000004,-95.6505172
239,Walgreens Photo,"2901 Southeast California Avenue, Topeka",39.0146484,-95.6524812
240,Westlake Ace Hardware,"2075 Southeast 29th Street, Topeka",39.014659,-95.648739
241,Dollar General,"4500 Southeast California Avenue, Topeka",38.9856922,-95.6508068
242,Miller Pest Control,"2047 Southeast 53rd Street, Topeka",38.971334399999996,-95.6492113
243,Tractor Supply Co.,"710 Hwy 24 East, Topeka",39.091972999999996,-95.647785
244,Dollar General,"2620 Northeast Sardou Avenue, Topeka",39.0665489,-95.6376622
245,Dollar General,"2515 Southeast 6th Avenue St, Topeka",39.04369450000001,-95.644418
246,Dollar Tree,"2616 Southeast 6th Avenue, Topeka",39.044753299999996,-95.6427965
247,Grandy Zine Productions Inc,"2440 Southeast 69th Street, Berryton",38.946724999999994,-95.638773
248,Kalos Print Services,"3518 Southeast 21st Street, Topeka",39.030441700000004,-95.61675809999998
249,Dollar General,"3410 Southeast 29th Street, Topeka",39.015665000000006,-95.617992
250,Great Plains Pest Control,"3803 Southeast 30th Park, Topeka",39.0124279,-95.60931109999999
251,Royal Buggy,"3825 Southeast Croco Road, Topeka",38.9983452,-95.6150386
252,Harris & Sons Enterprises,"3206 Southeast Arbor Drive, Topeka",39.00945300000001,-95.602819
253,Canvas Man,"2730 Northeast 35th Street, Topeka",39.110223,-95.5959869
